[
    {
        "icaoId": "RCTP",
        "obsTime": 1784392200,
        "rawOb": "METAR RCTP 181630Z 20009KT 160V230 9999 FEW020 SCT180 28/23 Q1006 NOSIG RMK A2971(N)",
        "visib": "6.2",
        "status": "updated"
    },
    {
        "icaoId": "RCSS",
        "obsTime": 1784390400,
        "rawOb": "METAR RCSS 181600Z 21006KT 9999 FEW020 SCT080 29/25 Q1006 NOSIG RMK A2972(V)",
        "visib": "6.2",
        "status": "updated"
    },
    {
        "icaoId": "RCKH",
        "obsTime": 1784390400,
        "rawOb": "METAR RCKH 181600Z 05002KT 9999 FEW015 SCT020 27/25 Q1008 NOSIG RMK A2977(A)",
        "visib": "6.2",
        "status": "updated"
    },
    {
        "icaoId": "RCMQ",
        "obsTime": 1784390400,
        "rawOb": "METAR RCMQ 181600Z 19009KT 9999 FEW012 SCT150 27/25 Q1009 RMK A2980",
        "visib": "6.2",
        "status": "updated"
    },
    {
        "icaoId": "RCBS",
        "obsTime": 1784379600,
        "rawOb": "METAR RCBS 181300Z 23015KT 7000 FEW007 BKN012 BKN035 27/27 Q1005 NOSIG RMK 23011KT/R06 A2969(B)",
        "visib": "4.35",
        "status": "updated"
    },
    {
        "icaoId": "RCNN",
        "obsTime": 1784390400,
        "rawOb": "METAR RCNN 181600Z 12005KT 9999 FEW012 SCT040 BKN080 25/23 Q1008 RMK A2978",
        "visib": "6.2",
        "status": "updated"
    },
    {
        "icaoId": "RCYU",
        "obsTime": 1784390400,
        "rawOb": "METAR RCYU 181600Z 22002KT 9999 FEW012 SCT080 28/24 Q1006 RMK A2973",
        "visib": "6.2",
        "status": "updated"
    },
    {
        "icaoId": "RCQC",
        "obsTime": 1784390400,
        "rawOb": "METAR RCQC 181600Z 17006KT 9999 FEW010 SCT016 BKN100 28/27 Q1007 RMK A2976 AWOS R20 N/A",
        "visib": "6.2",
        "status": "updated"
    }
]