[
    {
        "icaoId": "RCTP",
        "obsTime": 1783596600,
        "rawOb": "METAR RCTP 091130Z 07012KT 9999 FEW015 SCT200 30/23 Q1005 NOSIG RMK A2969(D)",
        "visib": "6.2",
        "status": "updated"
    },
    {
        "icaoId": "RCSS",
        "obsTime": 1783596600,
        "rawOb": "METAR RCSS 091130Z 10008KT 9999 FEW020 SCT045 28/26 Q1005 NOSIG RMK A2970(W)",
        "visib": "6.2",
        "status": "updated"
    },
    {
        "icaoId": "RCKH",
        "obsTime": 1783596600,
        "rawOb": "METAR RCKH 091130Z 30010KT 280V010 9999 FEW016 SCT026 BKN060 30/25 Q1003 NOSIG RMK A2964(C)",
        "visib": "6.2",
        "status": "updated"
    },
    {
        "icaoId": "RCMQ",
        "obsTime": 1783596600,
        "rawOb": "METAR RCMQ 091130Z 35005KT 9999 FEW012 SCT200 27/24 Q1005 NOSIG RMK A2970",
        "visib": "6.2",
        "status": "updated"
    },
    {
        "icaoId": "RCBS",
        "obsTime": 1783596600,
        "rawOb": "METAR RCBS 091130Z 17003KT 9999 FEW020 SCT240 29/28 Q1004 NOSIG RMK A2967(W)",
        "visib": "6.2",
        "status": "updated"
    },
    {
        "icaoId": "RCNN",
        "obsTime": 1783596600,
        "rawOb": "METAR RCNN 091130Z 34007KT 9999 FEW014 BKN120 29/25 Q1004 RMK A2966",
        "visib": "6.2",
        "status": "updated"
    },
    {
        "icaoId": "RCYU",
        "obsTime": 1783596600,
        "rawOb": "METAR RCYU 091130Z 24004KT 9999 FEW012 BKN200 29/24 Q1004 NOSIG RMK A2967",
        "visib": "6.2",
        "status": "updated"
    },
    {
        "icaoId": "RCQC",
        "obsTime": 1783596600,
        "rawOb": "METAR RCQC 091130Z 32005KT 9999 FEW012 28/27 Q1004 NOSIG RMK A2967",
        "visib": "6.2",
        "status": "updated"
    }
]