[
    {
        "icaoId": "RCTP",
        "obsTime": 1778841000,
        "rawOb": "METAR RCTP 151030Z 07018KT 9999 FEW015 SCT180 BKN220 25/19 Q1009 NOSIG RMK A2981",
        "visib": "6",
        "status": "updated"
    },
    {
        "icaoId": "RCSS",
        "obsTime": 1778841000,
        "rawOb": "METAR RCSS 151030Z 08012KT 9999 FEW018 SCT030 25/20 Q1010 NOSIG RMK A2985",
        "visib": "6",
        "status": "updated"
    },
    {
        "icaoId": "RCKH",
        "obsTime": 1778841000,
        "rawOb": "METAR RCKH 151030Z 28005KT 250V320 9999 FEW020 SCT060 BKN200 29/19 Q1008 NOSIG RMK A2977",
        "visib": "6",
        "status": "updated"
    },
    {
        "icaoId": "RCMQ",
        "obsTime": 1778841000,
        "rawOb": "METAR RCMQ 151030Z 29005KT 9999 FEW016 BKN100 26/24 Q1009 NOSIG RMK A2980",
        "visib": "6",
        "status": "updated"
    },
    {
        "icaoId": "RCBS",
        "obsTime": 0,
        "rawOb": "",
        "visib": "",
        "status": "old_data_kept"
    },
    {
        "icaoId": "RCNN",
        "obsTime": 1778841000,
        "rawOb": "METAR RCNN 151030Z 34005KT 9999 VCSH FEW012 SCT025 BKN060 29/22 Q1008 RMK A2979 VCSH SE",
        "visib": "6",
        "status": "updated"
    },
    {
        "icaoId": "RCYU",
        "obsTime": 0,
        "rawOb": "",
        "visib": "",
        "status": "old_data_kept"
    },
    {
        "icaoId": "RCQC",
        "obsTime": 1778841000,
        "rawOb": "METAR RCQC 151030Z 36012KT 9999 SCT008 BKN080 25/24 Q1009 NOSIG RMK A2980",
        "visib": "6",
        "status": "updated"
    }
]