[
    {
        "icaoId": "RCTP",
        "obsTime": 1782419160,
        "rawOb": "SPECI RCTP 252026Z 05005KT 1000 R05L/1100D R05R/P2000 +SHRA SCT004 BKN008 FEW015CB BKN020 25/25 Q1003 NOSIG RMK CB S-SW A2963",
        "visib": "0.62",
        "status": "updated"
    },
    {
        "icaoId": "RCSS",
        "obsTime": 1782418740,
        "rawOb": "SPECI RCSS 252019Z 14004KT 110V180 1000 R10/1800D VCTS +SHRA SCT005 BKN010 FEW013CB OVC020 25/24 Q1003 NOSIG RMK TS SW-W MOV E A2962",
        "visib": "0.62",
        "status": "updated"
    },
    {
        "icaoId": "RCKH",
        "obsTime": 1782419460,
        "rawOb": "SPECI RCKH 252031Z 07012KT 1500 +TSRA FEW003 SCT008CB BKN010 OVC014 24/23 Q1004 NOSIG RMK TS SE-S-SW MOV SE A2967",
        "visib": "0.93",
        "status": "updated"
    },
    {
        "icaoId": "RCMQ",
        "obsTime": 1782417960,
        "rawOb": "SPECI RCMQ 252006Z 18007KT 5000 RA BR SCT006 BKN016 OVC040 26/26 Q1004 RMK A2967",
        "visib": "3.11",
        "status": "updated"
    },
    {
        "icaoId": "RCBS",
        "obsTime": 1779233400,
        "rawOb": "METAR RCBS 192330Z 22004KT 180V240 9999 FEW010 SCT018 BKN070 25/25 Q1009 NOSIG RMK A2980(E)",
        "visib": "6.2",
        "status": "old_data_kept"
    },
    {
        "icaoId": "RCNN",
        "obsTime": 1782417600,
        "rawOb": "METAR RCNN 252000Z COR 15007KT 1200 +TSRA SCT004 FEW010CB OVC014 25/25 Q1004 RMK A2967 RA AMT 60.0MM TS OVHD STNRY VIS S 1200M RVR N/A AWOS R36 N/A",
        "visib": "0.75",
        "status": "updated"
    },
    {
        "icaoId": "RCYU",
        "obsTime": 1779233400,
        "rawOb": "METAR RCYU 192330Z 24004KT 9999 FEW012 SCT040 BKN100 26/20 Q1010 NOSIG RMK A2982",
        "visib": "6.2",
        "status": "old_data_kept"
    },
    {
        "icaoId": "RCQC",
        "obsTime": 1782417600,
        "rawOb": "METAR RCQC 252000Z 29006KT 1200 R20/P2000 -TSRA BKN003 FEW010CB OVC012 28/28 Q1003 RERA RMK A2962 RA AMT 8.4MM TS OVHD STNRY",
        "visib": "0.75",
        "status": "updated"
    }
]