[
    {
        "icaoId": "RCTP",
        "obsTime": 1784835000,
        "rawOb": "METAR RCTP 231930Z 13007KT 9999 FEW020 28/24 Q1006 NOSIG RMK A2971(S)",
        "visib": "6.2",
        "status": "updated"
    },
    {
        "icaoId": "RCSS",
        "obsTime": 1784833200,
        "rawOb": "METAR RCSS 231900Z 11008KT 9999 FEW020 28/26 Q1006 NOSIG RMK A2972(Z)",
        "visib": "6.2",
        "status": "updated"
    },
    {
        "icaoId": "RCKH",
        "obsTime": 1784833200,
        "rawOb": "METAR RCKH 231900Z 04003KT 9999 FEW016 28/25 Q1005 NOSIG RMK A2970(N)",
        "visib": "6.2",
        "status": "updated"
    },
    {
        "icaoId": "RCMQ",
        "obsTime": 1784833200,
        "rawOb": "METAR RCMQ 231900Z 00000KT 9999 FEW010 26/25 Q1008 RMK A2976",
        "visib": "6.2",
        "status": "updated"
    },
    {
        "icaoId": "RCBS",
        "obsTime": 1784811600,
        "rawOb": "METAR RCBS 231300Z 21009KT 9999 FEW015 28/28 Q1007 NOSIG RMK 22005KT/R06 A2975(J)",
        "visib": "6.2",
        "status": "updated"
    },
    {
        "icaoId": "RCNN",
        "obsTime": 1784833200,
        "rawOb": "METAR RCNN 231900Z 00000KT 9999 FEW014 26/23 Q1006 RMK A2971 AWOS R36 N/A",
        "visib": "6.2",
        "status": "updated"
    },
    {
        "icaoId": "RCYU",
        "obsTime": 1784833200,
        "rawOb": "METAR RCYU 231900Z 22001KT 9999 FEW012 27/24 Q1008 RMK A2977",
        "visib": "6.2",
        "status": "updated"
    },
    {
        "icaoId": "RCQC",
        "obsTime": 1784833200,
        "rawOb": "METAR RCQC 231900Z 31004KT 9999 FEW012 SCT060 26/25 Q1006 RMK A2971",
        "visib": "6.2",
        "status": "updated"
    }
]