[
    {
        "icaoId": "RCTP",
        "obsTime": 1784637000,
        "rawOb": "METAR RCTP 211230Z 16003KT 090V210 9999 FEW015 SCT180 28/25 Q1009 NOSIG RMK A2981(I)",
        "visib": "6.2",
        "status": "updated"
    },
    {
        "icaoId": "RCSS",
        "obsTime": 1784637000,
        "rawOb": "METAR RCSS 211230Z 10005KT 9999 FEW025 SCT090 27/27 Q1009 NOSIG RMK A2981(E)",
        "visib": "6.2",
        "status": "updated"
    },
    {
        "icaoId": "RCKH",
        "obsTime": 1784637000,
        "rawOb": "METAR RCKH 211230Z 28003KT 240V310 9999 FEW014 29/25 Q1009 NOSIG RMK A2982(U)",
        "visib": "6.2",
        "status": "updated"
    },
    {
        "icaoId": "RCMQ",
        "obsTime": 1784637000,
        "rawOb": "METAR RCMQ 211230Z 18007KT 9999 FEW010 SCT050 BKN120 28/25 Q1010 NOSIG RMK A2984",
        "visib": "6.2",
        "status": "updated"
    },
    {
        "icaoId": "RCBS",
        "obsTime": 1784637000,
        "rawOb": "METAR RCBS 211230Z 19012KT 8000 FEW012 SCT200 28/28 Q1008 NOSIG RMK 19011KT/R06 A2978(P)",
        "visib": "4.97",
        "status": "updated"
    },
    {
        "icaoId": "RCNN",
        "obsTime": 1784637000,
        "rawOb": "METAR RCNN 211230Z 00000KT 9999 FEW012 SCT060 27/24 Q1010 RMK A2982",
        "visib": "6.2",
        "status": "updated"
    },
    {
        "icaoId": "RCYU",
        "obsTime": 1784637000,
        "rawOb": "METAR RCYU 211230Z 23003KT 9999 FEW012 SCT035 BKN060 28/25 Q1011 RMK A2985",
        "visib": "6.2",
        "status": "updated"
    },
    {
        "icaoId": "RCQC",
        "obsTime": 1784637000,
        "rawOb": "METAR RCQC 211230Z 19003KT 9999 FEW012 BKN200 28/27 Q1009 NOSIG RMK A2981 AWOS R20 N/A",
        "visib": "6.2",
        "status": "updated"
    }
]