[
    {
        "icaoId": "RCTP",
        "obsTime": 1784804400,
        "rawOb": "METAR RCTP 231100Z 06008KT 9999 FEW015 SCT220 30/25 Q1007 NOSIG RMK A2976(B)",
        "visib": "6.2",
        "status": "updated"
    },
    {
        "icaoId": "RCSS",
        "obsTime": 1784804400,
        "rawOb": "METAR RCSS 231100Z 08006KT 050V110 9999 FEW025 30/27 Q1008 NOSIG RMK A2977(M)",
        "visib": "6.2",
        "status": "updated"
    },
    {
        "icaoId": "RCKH",
        "obsTime": 1784804400,
        "rawOb": "METAR RCKH 231100Z 29004KT 250V340 9999 FEW018 SCT046 31/22 Q1007 NOSIG RMK A2974(A)",
        "visib": "6.2",
        "status": "updated"
    },
    {
        "icaoId": "RCMQ",
        "obsTime": 1784804400,
        "rawOb": "METAR RCMQ 231100Z 33003KT 9999 FEW010 29/24 Q1008 NOSIG RMK A2978",
        "visib": "6.2",
        "status": "updated"
    },
    {
        "icaoId": "RCBS",
        "obsTime": 1784804400,
        "rawOb": "METAR RCBS 231100Z 21009KT CAVOK 29/28 Q1006 NOSIG RMK 21007KT/R06 A2971(F)",
        "visib": "",
        "status": "updated"
    },
    {
        "icaoId": "RCNN",
        "obsTime": 1784804400,
        "rawOb": "METAR RCNN 231100Z 32003KT 9999 FEW014 SCT100 29/22 Q1007 RMK A2974 AWOS R36 N/A",
        "visib": "6.2",
        "status": "updated"
    },
    {
        "icaoId": "RCYU",
        "obsTime": 1784804400,
        "rawOb": "METAR RCYU 231100Z 05007KT 7000 -RA FEW012 FEW014TCU SCT020 BKN050 30/27 Q1009 NOSIG RMK A2980 RA AMT T TCU E STNR",
        "visib": "4.35",
        "status": "updated"
    },
    {
        "icaoId": "RCQC",
        "obsTime": 1784804400,
        "rawOb": "METAR RCQC 231100Z 18002KT 9999 FEW012 29/26 Q1007 NOSIG RMK A2974",
        "visib": "6.2",
        "status": "updated"
    }
]