[
    {
        "icaoId": "RCTP",
        "obsTime": 1783639800,
        "rawOb": "METAR RCTP 092330Z 04015KT 9999 FEW011TCU SCT014 BKN030 30/27 Q1003 NOSIG RMK TCU S A2963(E)",
        "visib": "6.2",
        "status": "updated"
    },
    {
        "icaoId": "RCSS",
        "obsTime": 1783639800,
        "rawOb": "METAR RCSS 092330Z 10008KT 9999 -RA FEW012 SCT020 BKN055 29/27 Q1003 NOSIG RMK A2963(T)",
        "visib": "6.2",
        "status": "updated"
    },
    {
        "icaoId": "RCKH",
        "obsTime": 1783639800,
        "rawOb": "METAR RCKH 092330Z 33009KT 290V360 9999 FEW012 SCT026 31/24 Q1001 NOSIG RMK A2956(U)",
        "visib": "6.2",
        "status": "updated"
    },
    {
        "icaoId": "RCMQ",
        "obsTime": 1783639800,
        "rawOb": "METAR RCMQ 092330Z 03005KT 9999 FEW012 SCT030 29/25 Q1003 NOSIG RMK A2963",
        "visib": "6.2",
        "status": "updated"
    },
    {
        "icaoId": "RCBS",
        "obsTime": 1783639800,
        "rawOb": "METAR RCBS 092330Z 01006KT 320V040 9999 FEW015 SCT180 29/26 Q1004 NOSIG RMK A2965(M)",
        "visib": "6.2",
        "status": "updated"
    },
    {
        "icaoId": "RCNN",
        "obsTime": 1783639800,
        "rawOb": "METAR RCNN 092330Z 00000KT 9999 FEW010 SCT025 BKN120 31/24 Q1001 NOSIG RMK A2957",
        "visib": "6.2",
        "status": "updated"
    },
    {
        "icaoId": "RCYU",
        "obsTime": 1783639800,
        "rawOb": "METAR RCYU 092330Z 23004KT 9999 FEW012 SCT150 BKN200 29/21 Q1001 NOSIG RMK A2957",
        "visib": "6.2",
        "status": "updated"
    },
    {
        "icaoId": "RCQC",
        "obsTime": 1783639800,
        "rawOb": "METAR RCQC 092330Z 36016KT 9999 FEW006 SCT012 BKN030 29/27 Q1002 NOSIG RMK A2959",
        "visib": "6.2",
        "status": "updated"
    }
]