[
    {
        "icaoId": "RCTP",
        "obsTime": 1781223240,
        "rawOb": "SPECI RCTP 120014Z 17003KT 110V200 9999 -RA FEW012 BKN035 BKN050 26/23 Q1013 NOSIG RMK A2992",
        "visib": "6",
        "status": "updated"
    },
    {
        "icaoId": "RCSS",
        "obsTime": 1781222400,
        "rawOb": "METAR RCSS 120000Z 11008KT 9999 FEW012 BKN040 BKN060 25/23 Q1012 NOSIG RMK A2991",
        "visib": "6",
        "status": "updated"
    },
    {
        "icaoId": "RCKH",
        "obsTime": 1781222400,
        "rawOb": "METAR RCKH 120000Z 15008KT 100V200 9999 FEW010 BKN025 BKN035 29/24 Q1012 NOSIG RMK A2990",
        "visib": "6",
        "status": "updated"
    },
    {
        "icaoId": "RCMQ",
        "obsTime": 1781223600,
        "rawOb": "SPECI RCMQ 120020Z 02004KT 3200 -RA BR SCT004 BKN012 BKN030 25/24 Q1014 NOSIG RMK A2995 APCH CLD SCT004",
        "visib": "1.99",
        "status": "updated"
    },
    {
        "icaoId": "RCBS",
        "obsTime": 1779233400,
        "rawOb": "METAR RCBS 192330Z 22004KT 180V240 9999 FEW010 SCT018 BKN070 25/25 Q1009 NOSIG RMK A2980(E)",
        "visib": "6.2",
        "status": "old_data_kept"
    },
    {
        "icaoId": "RCNN",
        "obsTime": 1781223180,
        "rawOb": "SPECI RCNN 120013Z 11002KT 6000 -TSRA SCT008 FEW010CB BKN020 BKN040 30/26 Q1013 BECMG TL0145 TSRA RMK A2991 TS NW MOV N",
        "visib": "3.73",
        "status": "updated"
    },
    {
        "icaoId": "RCYU",
        "obsTime": 1779233400,
        "rawOb": "METAR RCYU 192330Z 24004KT 9999 FEW012 SCT040 BKN100 26/20 Q1010 NOSIG RMK A2982",
        "visib": "6.2",
        "status": "old_data_kept"
    },
    {
        "icaoId": "RCQC",
        "obsTime": 1781222400,
        "rawOb": "METAR RCQC 120000Z 02010KT 9999 SCT005 BKN010 BKN020 27/25 Q1013 NOSIG RMK A2991",
        "visib": "6",
        "status": "updated"
    }
]