[
    {
        "icaoId": "RCTP",
        "obsTime": 1778931000,
        "rawOb": "METAR RCTP 161130Z 07016KT 9999 FEW015 25/19 Q1012 NOSIG RMK A2990",
        "visib": "6",
        "status": "updated"
    },
    {
        "icaoId": "RCSS",
        "obsTime": 1778931000,
        "rawOb": "METAR RCSS 161130Z 10015KT 9999 FEW016 SCT030 25/20 Q1013 NOSIG RMK A2994",
        "visib": "6",
        "status": "updated"
    },
    {
        "icaoId": "RCKH",
        "obsTime": 1778931000,
        "rawOb": "METAR RCKH 161130Z 09005KT 8000 VCSH SCT012 SCT050 24/23 Q1011 NOSIG RMK A2986",
        "visib": "4.97",
        "status": "updated"
    },
    {
        "icaoId": "RCMQ",
        "obsTime": 1778931000,
        "rawOb": "METAR RCMQ 161130Z 21005KT 9999 FEW012 SCT200 27/21 Q1012 NOSIG RMK A2988",
        "visib": "6",
        "status": "updated"
    },
    {
        "icaoId": "RCBS",
        "obsTime": 0,
        "rawOb": "",
        "visib": "",
        "status": "old_data_kept"
    },
    {
        "icaoId": "RCNN",
        "obsTime": 1778931000,
        "rawOb": "METAR RCNN 161130Z 10005KT 9999 FEW012 BKN050 25/20 Q1011 NOSIG RMK A2988",
        "visib": "6",
        "status": "updated"
    },
    {
        "icaoId": "RCYU",
        "obsTime": 0,
        "rawOb": "",
        "visib": "",
        "status": "old_data_kept"
    },
    {
        "icaoId": "RCQC",
        "obsTime": 1778931000,
        "rawOb": "METAR RCQC 161130Z 02012KT 9999 FEW012 SCT080 BKN200 26/23 Q1011 NOSIG RMK A2987",
        "visib": "6",
        "status": "updated"
    }
]