[
    {
        "icaoId": "RCTP",
        "obsTime": 1780390800,
        "rawOb": "METAR RCTP 020900Z 30009KT 9999 FEW020 32/25 Q1005 NOSIG RMK A2970",
        "visib": "6",
        "status": "updated"
    },
    {
        "icaoId": "RCSS",
        "obsTime": 1780390800,
        "rawOb": "METAR RCSS 020900Z 30006KT 260V340 9999 FEW020 SCT100 33/24 Q1005 NOSIG RMK A2968",
        "visib": "6",
        "status": "updated"
    },
    {
        "icaoId": "RCKH",
        "obsTime": 1780390800,
        "rawOb": "METAR RCKH 020900Z 28009KT 250V310 9999 FEW016 31/14 Q1005 NOSIG RMK 29012KT/R09 A2968",
        "visib": "6",
        "status": "updated"
    },
    {
        "icaoId": "RCMQ",
        "obsTime": 1780390800,
        "rawOb": "METAR RCMQ 020900Z 25003KT 9999 FEW012 SCT100 32/23 Q1007 NOSIG RMK A2974",
        "visib": "6",
        "status": "updated"
    },
    {
        "icaoId": "RCBS",
        "obsTime": 1779233400,
        "rawOb": "METAR RCBS 192330Z 22004KT 180V240 9999 FEW010 SCT018 BKN070 25/25 Q1009 NOSIG RMK A2980(E)",
        "visib": "6.2",
        "status": "old_data_kept"
    },
    {
        "icaoId": "RCNN",
        "obsTime": 1780390800,
        "rawOb": "METAR RCNN 020900Z 30007KT 9999 FEW012 32/15 Q1006 NOSIG RMK A2971",
        "visib": "6",
        "status": "updated"
    },
    {
        "icaoId": "RCYU",
        "obsTime": 1779233400,
        "rawOb": "METAR RCYU 192330Z 24004KT 9999 FEW012 SCT040 BKN100 26/20 Q1010 NOSIG RMK A2982",
        "visib": "6.2",
        "status": "old_data_kept"
    },
    {
        "icaoId": "RCQC",
        "obsTime": 1780390800,
        "rawOb": "METAR RCQC 020900Z 26006KT 9999 FEW012 30/23 Q1005 NOSIG RMK A2970",
        "visib": "6",
        "status": "updated"
    }
]