[
    {
        "icaoId": "RCTP",
        "obsTime": 1782441000,
        "rawOb": "METAR RCTP 260230Z 04008KT 9999 -RA SCT006 BKN010 BKN015 26/26 Q1006 NOSIG RMK A2971",
        "visib": "6",
        "status": "updated"
    },
    {
        "icaoId": "RCSS",
        "obsTime": 1782441000,
        "rawOb": "METAR RCSS 260230Z 12006KT 6000 -SHRA SCT004 SCT008 BKN025 26/26 Q1005 NOSIG RMK A2970",
        "visib": "3.73",
        "status": "updated"
    },
    {
        "icaoId": "RCKH",
        "obsTime": 1782441000,
        "rawOb": "METAR RCKH 260230Z 04004KT 360V070 9000 -RA FEW008 SCT012 BKN070 25/24 Q1006 NOSIG RMK A2972",
        "visib": "5.59",
        "status": "updated"
    },
    {
        "icaoId": "RCMQ",
        "obsTime": 1782441000,
        "rawOb": "METAR RCMQ 260230Z 19010KT 7000 -RA SCT004 FEW010CB BKN016 BKN030 26/26 Q1006 RERA NOSIG RMK A2973 CB N MOV NE",
        "visib": "4.35",
        "status": "updated"
    },
    {
        "icaoId": "RCBS",
        "obsTime": 1779233400,
        "rawOb": "METAR RCBS 192330Z 22004KT 180V240 9999 FEW010 SCT018 BKN070 25/25 Q1009 NOSIG RMK A2980(E)",
        "visib": "6.2",
        "status": "old_data_kept"
    },
    {
        "icaoId": "RCNN",
        "obsTime": 1782441000,
        "rawOb": "METAR RCNN 260230Z 12005KT 3200 TSRA SCT004 FEW010CB BKN014 BKN040 25/25 Q1007 BECMG TL0300 TSRA RMK A2975 TS S STNRY",
        "visib": "1.99",
        "status": "updated"
    },
    {
        "icaoId": "RCYU",
        "obsTime": 1779233400,
        "rawOb": "METAR RCYU 192330Z 24004KT 9999 FEW012 SCT040 BKN100 26/20 Q1010 NOSIG RMK A2982",
        "visib": "6.2",
        "status": "old_data_kept"
    },
    {
        "icaoId": "RCQC",
        "obsTime": 1782442200,
        "rawOb": "SPECI RCQC 260250Z 12009KT 5000 -RA VCTS BR SCT002 BKN004 FEW010CB BKN012 28/27 Q1005 BECMG FM0300 TL0400 0800 RA FG BKN002 RMK A2970 TS SW STNRY",
        "visib": "3.11",
        "status": "updated"
    }
]