[
    {
        "icaoId": "RCTP",
        "obsTime": 1778887080,
        "rawOb": "SPECI RCTP 152318Z 08015KT 9999 FEW015 SCT090 BKN220 26/19 Q1012 WS ALL RWY NOSIG RMK A2990",
        "visib": "6",
        "status": "updated"
    },
    {
        "icaoId": "RCSS",
        "obsTime": 1778886000,
        "rawOb": "METAR RCSS 152300Z 09013KT 9999 FEW020 BKN050 25/20 Q1013 NOSIG RMK A2994",
        "visib": "6",
        "status": "updated"
    },
    {
        "icaoId": "RCKH",
        "obsTime": 1778886000,
        "rawOb": "METAR RCKH 152300Z 08003KT 040V110 9999 FEW017 SCT150 BKN220 27/22 Q1010 NOSIG RMK A2984",
        "visib": "6",
        "status": "updated"
    },
    {
        "icaoId": "RCMQ",
        "obsTime": 1778886000,
        "rawOb": "METAR RCMQ 152300Z 00000KT 9999 FEW012 BKN100 27/23 Q1011 NOSIG RMK A2988",
        "visib": "6",
        "status": "updated"
    },
    {
        "icaoId": "RCBS",
        "obsTime": 0,
        "rawOb": "",
        "visib": "",
        "status": "old_data_kept"
    },
    {
        "icaoId": "RCNN",
        "obsTime": 1778886000,
        "rawOb": "METAR RCNN 152300Z 00000KT 9999 FEW012 SCT080 BKN200 28/22 Q1011 NOSIG RMK A2986",
        "visib": "6",
        "status": "updated"
    },
    {
        "icaoId": "RCYU",
        "obsTime": 0,
        "rawOb": "",
        "visib": "",
        "status": "old_data_kept"
    },
    {
        "icaoId": "RCQC",
        "obsTime": 1778886000,
        "rawOb": "METAR RCQC 152300Z 36006KT 9999 FEW012 SCT080 BKN200 26/24 Q1010 NOSIG RMK A2984",
        "visib": "6",
        "status": "updated"
    }
]