[
    {
        "icaoId": "RCTP",
        "obsTime": 1778970600,
        "rawOb": "METAR RCTP 162230Z 09016G26KT 9999 FEW015 BKN200 25/18 Q1012 WS ALL RWY NOSIG RMK A2989",
        "visib": "6",
        "status": "updated"
    },
    {
        "icaoId": "RCSS",
        "obsTime": 1778970600,
        "rawOb": "METAR RCSS 162230Z 10015KT 9999 FEW020 SCT250 25/19 Q1013 NOSIG RMK A2994",
        "visib": "6",
        "status": "updated"
    },
    {
        "icaoId": "RCKH",
        "obsTime": 1778970600,
        "rawOb": "METAR RCKH 162230Z 04004KT 9999 FEW012 BKN023 BKN090 25/22 Q1011 NOSIG RMK A2987",
        "visib": "6",
        "status": "updated"
    },
    {
        "icaoId": "RCMQ",
        "obsTime": 1778970600,
        "rawOb": "METAR RCMQ 162230Z 00000KT 9999 FEW012 SCT025 BKN200 25/23 Q1012 NOSIG RMK A2991",
        "visib": "6",
        "status": "updated"
    },
    {
        "icaoId": "RCBS",
        "obsTime": 0,
        "rawOb": "",
        "visib": "",
        "status": "old_data_kept"
    },
    {
        "icaoId": "RCNN",
        "obsTime": 1778970600,
        "rawOb": "METAR RCNN 162230Z 12004KT 9999 FEW012 SCT025 BKN080 26/21 Q1012 NOSIG RMK A2989",
        "visib": "6",
        "status": "updated"
    },
    {
        "icaoId": "RCYU",
        "obsTime": 0,
        "rawOb": "",
        "visib": "",
        "status": "old_data_kept"
    },
    {
        "icaoId": "RCQC",
        "obsTime": 1778970600,
        "rawOb": "METAR RCQC 162230Z 04003KT 9999 FEW012 BKN100 26/25 Q1011 NOSIG RMK A2986",
        "visib": "6",
        "status": "updated"
    }
]