[
    {
        "icaoId": "RCTP",
        "obsTime": 1784574000,
        "rawOb": "METAR RCTP 201900Z 18005KT 150V210 9999 FEW015 SCT045 28/24 Q1008 NOSIG RMK A2978(X)",
        "visib": "6.2",
        "status": "updated"
    },
    {
        "icaoId": "RCSS",
        "obsTime": 1784574000,
        "rawOb": "METAR RCSS 201900Z 21003KT 160V250 9999 FEW022 SCT200 26/25 Q1008 NOSIG RMK A2978(H)",
        "visib": "6.2",
        "status": "updated"
    },
    {
        "icaoId": "RCKH",
        "obsTime": 1784574000,
        "rawOb": "METAR RCKH 201900Z 09003KT 060V120 9000 VCSH FEW015 SCT020 BKN035 28/25 Q1008 NOSIG RMK A2979(H)",
        "visib": "5.59",
        "status": "updated"
    },
    {
        "icaoId": "RCMQ",
        "obsTime": 1784574000,
        "rawOb": "METAR RCMQ 201900Z 20005KT 9999 FEW012 SCT100 27/25 Q1010 RMK A2984",
        "visib": "6.2",
        "status": "updated"
    },
    {
        "icaoId": "RCBS",
        "obsTime": 1784552400,
        "rawOb": "METAR RCBS 201300Z 22005KT 9999 FEW006 BKN012 BKN150 27/27 Q1007 NOSIG RMK A2976(I)",
        "visib": "6.2",
        "status": "updated"
    },
    {
        "icaoId": "RCNN",
        "obsTime": 1784574000,
        "rawOb": "METAR RCNN 201900Z 00000KT 9999 FEW012 SCT030 25/23 Q1009 RMK A2980",
        "visib": "6.2",
        "status": "updated"
    },
    {
        "icaoId": "RCYU",
        "obsTime": 1784574000,
        "rawOb": "METAR RCYU 201900Z 25002KT 9999 FEW012 27/25 Q1008 RMK A2979",
        "visib": "6.2",
        "status": "updated"
    },
    {
        "icaoId": "RCQC",
        "obsTime": 1784574000,
        "rawOb": "METAR RCQC 201900Z 18005KT 9999 SCT010 BKN040 28/28 Q1008 RMK A2979 AWOS R20 N/A",
        "visib": "6.2",
        "status": "updated"
    }
]