[
    {
        "icaoId": "RCTP",
        "obsTime": 1783743420,
        "rawOb": "SPECI RCTP 110417Z 32020G31KT 4000 SHRA SCT005 BKN008 BKN015 27/27 Q0985 NOSIG RMK A2911(L)",
        "visib": "2.49",
        "status": "updated"
    },
    {
        "icaoId": "RCSS",
        "obsTime": 1783743420,
        "rawOb": "SPECI RCSS 110417Z 31015G38KT 270V020 2000 SHRA FEW004 BKN014 OVC028 27/27 Q0983 WS R10 NOSIG RMK A2903(C)",
        "visib": "1.24",
        "status": "updated"
    },
    {
        "icaoId": "RCKH",
        "obsTime": 1783742400,
        "rawOb": "METAR RCKH 110400Z 28020G30KT 5000 -SHRA SCT007 BKN015 OVC030 30/27 Q0993 TEMPO 3000 SHRA RMK QFF 993.6HPA A2934(I)",
        "visib": "3.11",
        "status": "updated"
    },
    {
        "icaoId": "RCMQ",
        "obsTime": 1783743180,
        "rawOb": "SPECI RCMQ 110413Z 29018G28KT 1000 R36/0400 +RA BR BKN002 OVC008 25/25 Q0992 NOSIG RMK A2930",
        "visib": "0.62",
        "status": "updated"
    },
    {
        "icaoId": "RCBS",
        "obsTime": 1783742400,
        "rawOb": "METAR RCBS 110400Z 33008KT 260V010 9999 -RA FEW026 BKN120 BKN210 33/24 Q0994 NOSIG RMK QFF 994.9HPA A2938(D)",
        "visib": "6.2",
        "status": "updated"
    },
    {
        "icaoId": "RCNN",
        "obsTime": 1783742400,
        "rawOb": "METAR RCNN 110400Z 34012G23KT 5000 -RA BR SCT006 BKN016 OVC040 27/24 Q0994 RMK A2936 RA AMT 1.8MM QFF994.4HPA",
        "visib": "3.11",
        "status": "updated"
    },
    {
        "icaoId": "RCYU",
        "obsTime": 1783742400,
        "rawOb": "METAR RCYU 110400Z 14005KT 9999 VCSH FEW012 SCT030 BKN080 33/24 Q0982 RMK A2902 QFF982.7HPA VCSH NE",
        "visib": "6.2",
        "status": "updated"
    },
    {
        "icaoId": "RCQC",
        "obsTime": 1783742400,
        "rawOb": "METAR RCQC 110400Z 32015G25KT 8000 -RA FEW008 BKN014 BKN040 30/26 Q0994 RMK A2936 RA AMT 0.2MM QFF994.5HPA",
        "visib": "4.97",
        "status": "updated"
    }
]