[
    {
        "icaoId": "RCTP",
        "obsTime": 1784631600,
        "rawOb": "METAR RCTP 211100Z 17006KT 9999 FEW015 BKN200 28/25 Q1009 NOSIG RMK A2981(E)",
        "visib": "6.2",
        "status": "updated"
    },
    {
        "icaoId": "RCSS",
        "obsTime": 1784631600,
        "rawOb": "METAR RCSS 211100Z VRB02KT 9999 FEW020 SCT050 BKN085 28/26 Q1009 NOSIG RMK A2981(B)",
        "visib": "6.2",
        "status": "updated"
    },
    {
        "icaoId": "RCKH",
        "obsTime": 1784631600,
        "rawOb": "METAR RCKH 211100Z VRB02KT 9999 FEW014 SCT040 30/25 Q1009 NOSIG RMK A2980(R)",
        "visib": "6.2",
        "status": "updated"
    },
    {
        "icaoId": "RCMQ",
        "obsTime": 1784631600,
        "rawOb": "METAR RCMQ 211100Z 16007KT 9999 -RA FEW010 SCT050 BKN200 29/25 Q1010 NOSIG RMK A2985 RA AMT T",
        "visib": "6.2",
        "status": "updated"
    },
    {
        "icaoId": "RCBS",
        "obsTime": 1784631600,
        "rawOb": "METAR RCBS 211100Z 18009KT 7000 FEW012 SCT220 28/28 Q1008 NOSIG RMK 18007KT/R06 A2977(M)",
        "visib": "4.35",
        "status": "updated"
    },
    {
        "icaoId": "RCNN",
        "obsTime": 1784631600,
        "rawOb": "METAR RCNN 211100Z 00000KT 9999 FEW012 BKN100 27/24 Q1009 RMK A2980",
        "visib": "6.2",
        "status": "updated"
    },
    {
        "icaoId": "RCYU",
        "obsTime": 1784631600,
        "rawOb": "METAR RCYU 211100Z 33001KT 9999 VCSH FEW012 SCT035 BKN060 30/26 Q1010 NOSIG RMK A2984 VCSH SW",
        "visib": "6.2",
        "status": "updated"
    },
    {
        "icaoId": "RCQC",
        "obsTime": 1784631600,
        "rawOb": "METAR RCQC 211100Z 21004KT 9999 FEW012 BKN200 29/27 Q1009 NOSIG RMK A2979 AWOS R20 N/A",
        "visib": "6.2",
        "status": "updated"
    }
]