[
    {
        "icaoId": "RCTP",
        "obsTime": 1782404160,
        "rawOb": "SPECI RCTP 251616Z VRB02KT 4000 -SHRA FEW006 SCT012 BKN030 26/26 Q1003 RETS NOSIG RMK A2963",
        "visib": "2.49",
        "status": "updated"
    },
    {
        "icaoId": "RCSS",
        "obsTime": 1782403200,
        "rawOb": "METAR RCSS 251600Z 27004KT 6000 -SHRA FEW006 SCT010 BKN018 26/24 Q1003 NOSIG RMK A2964 RA AMT 2.4MM",
        "visib": "3.73",
        "status": "updated"
    },
    {
        "icaoId": "RCKH",
        "obsTime": 1782403980,
        "rawOb": "SPECI RCKH 251613Z 04010KT 330V080 3000 VCTS SHRA FEW003 FEW010CB BKN011 BKN017 25/24 Q1004 TEMPO 1500 TSRA RMK TS N-NE AND SE MOV SE A2965",
        "visib": "1.86",
        "status": "updated"
    },
    {
        "icaoId": "RCMQ",
        "obsTime": 1782403200,
        "rawOb": "METAR RCMQ 251600Z 19009KT 9999 FEW010 SCT040 BKN060 26/25 Q1005 RMK A2970",
        "visib": "6",
        "status": "updated"
    },
    {
        "icaoId": "RCBS",
        "obsTime": 1779233400,
        "rawOb": "METAR RCBS 192330Z 22004KT 180V240 9999 FEW010 SCT018 BKN070 25/25 Q1009 NOSIG RMK A2980(E)",
        "visib": "6.2",
        "status": "old_data_kept"
    },
    {
        "icaoId": "RCNN",
        "obsTime": 1782403200,
        "rawOb": "METAR RCNN 251600Z COR 06006KT 4000 -TSRA SCT008 FEW010CB BKN020 BKN030 25/23 Q1005 RERA RMK A2969 RA AMT 3.5MM TS E STNRY",
        "visib": "2.49",
        "status": "updated"
    },
    {
        "icaoId": "RCYU",
        "obsTime": 1779233400,
        "rawOb": "METAR RCYU 192330Z 24004KT 9999 FEW012 SCT040 BKN100 26/20 Q1010 NOSIG RMK A2982",
        "visib": "6.2",
        "status": "old_data_kept"
    },
    {
        "icaoId": "RCQC",
        "obsTime": 1782404100,
        "rawOb": "SPECI RCQC 251615Z 24005KT 1200 R20/P2000 TSRA BKN003 FEW010CB OVC012 29/28 Q1003 RMK A2964 TS N STNRY",
        "visib": "0.75",
        "status": "updated"
    }
]