[
    {
        "icaoId": "RCTP",
        "obsTime": 1782997200,
        "rawOb": "METAR RCTP 021300Z 16005KT 9999 FEW015 29/25 Q1013 NOSIG RMK A2992",
        "visib": "6",
        "status": "updated"
    },
    {
        "icaoId": "RCSS",
        "obsTime": 1782997200,
        "rawOb": "METAR RCSS 021300Z 08004KT 9999 FEW018 SCT025 29/27 Q1013 NOSIG RMK A2992",
        "visib": "6",
        "status": "updated"
    },
    {
        "icaoId": "RCKH",
        "obsTime": 1782997200,
        "rawOb": "METAR RCKH 021300Z 15011G21KT 120V190 9999 FEW040 31/25 Q1012 NOSIG RMK A2990",
        "visib": "6",
        "status": "updated"
    },
    {
        "icaoId": "RCMQ",
        "obsTime": 1782997200,
        "rawOb": "METAR RCMQ 021300Z 35004KT 9999 FEW012 SCT100 28/25 Q1014 NOSIG RMK A2997",
        "visib": "6",
        "status": "updated"
    },
    {
        "icaoId": "RCBS",
        "obsTime": 1779233400,
        "rawOb": "METAR RCBS 192330Z 22004KT 180V240 9999 FEW010 SCT018 BKN070 25/25 Q1009 NOSIG RMK A2980(E)",
        "visib": "6.2",
        "status": "old_data_kept"
    },
    {
        "icaoId": "RCNN",
        "obsTime": 1782997200,
        "rawOb": "METAR RCNN 021300Z 00000KT 9999 FEW010 SCT025 BKN060 29/26 Q1013 RMK A2994",
        "visib": "6",
        "status": "updated"
    },
    {
        "icaoId": "RCYU",
        "obsTime": 1779233400,
        "rawOb": "METAR RCYU 192330Z 24004KT 9999 FEW012 SCT040 BKN100 26/20 Q1010 NOSIG RMK A2982",
        "visib": "6.2",
        "status": "old_data_kept"
    },
    {
        "icaoId": "RCQC",
        "obsTime": 1782997200,
        "rawOb": "METAR RCQC 021300Z 16002KT 9999 FEW010 BKN200 30/28 Q1013 NOSIG RMK A2992",
        "visib": "6",
        "status": "updated"
    }
]