[
    {
        "icaoId": "RCTP",
        "obsTime": 1783260000,
        "rawOb": "METAR RCTP 051400Z 19006KT 160V220 9999 FEW015 BKN070 29/26 Q1011 NOSIG RMK A2987",
        "visib": "6",
        "status": "updated"
    },
    {
        "icaoId": "RCSS",
        "obsTime": 1783260000,
        "rawOb": "METAR RCSS 051400Z 19003KT 130V220 9999 FEW018 SCT030 BKN050 28/28 Q1011 NOSIG RMK A2988 RA AMT 4.8MM",
        "visib": "6",
        "status": "updated"
    },
    {
        "icaoId": "RCKH",
        "obsTime": 1783260000,
        "rawOb": "METAR RCKH 051400Z 18006KT 140V210 9999 FEW014 SCT026 30/24 Q1012 NOSIG RMK A2989",
        "visib": "6",
        "status": "updated"
    },
    {
        "icaoId": "RCMQ",
        "obsTime": 1783260000,
        "rawOb": "METAR RCMQ 051400Z 23004KT 9999 VCSH FEW008 SCT016 BKN035 29/27 Q1013 NOSIG RMK A2993 RA AMT T VCSH SE",
        "visib": "6",
        "status": "updated"
    },
    {
        "icaoId": "RCBS",
        "obsTime": 1779233400,
        "rawOb": "METAR RCBS 192330Z 22004KT 180V240 9999 FEW010 SCT018 BKN070 25/25 Q1009 NOSIG RMK A2980(E)",
        "visib": "6.2",
        "status": "old_data_kept"
    },
    {
        "icaoId": "RCNN",
        "obsTime": 1783260000,
        "rawOb": "METAR RCNN 051400Z 20002KT 9999 FEW012 BKN050 28/25 Q1013 RMK A2991",
        "visib": "6",
        "status": "updated"
    },
    {
        "icaoId": "RCYU",
        "obsTime": 1779233400,
        "rawOb": "METAR RCYU 192330Z 24004KT 9999 FEW012 SCT040 BKN100 26/20 Q1010 NOSIG RMK A2982",
        "visib": "6.2",
        "status": "old_data_kept"
    },
    {
        "icaoId": "RCQC",
        "obsTime": 1783260000,
        "rawOb": "METAR RCQC 051400Z 17002KT 9999 FEW012 28/27 Q1011 RMK A2988",
        "visib": "6",
        "status": "updated"
    }
]