[
    {
        "icaoId": "RCTP",
        "obsTime": 1784431800,
        "rawOb": "METAR RCTP 190330Z 25019KT 9999 FEW020 SCT030 BKN160 32/25 Q1006 WS R23R NOSIG RMK A2973(L)",
        "visib": "6.2",
        "status": "updated"
    },
    {
        "icaoId": "RCSS",
        "obsTime": 1784431800,
        "rawOb": "METAR RCSS 190330Z 28013KT 9999 FEW025 BKN040 35/25 Q1006 NOSIG RMK 29012KT/R10 A2971(O)",
        "visib": "6.2",
        "status": "updated"
    },
    {
        "icaoId": "RCKH",
        "obsTime": 1784431800,
        "rawOb": "METAR RCKH 190330Z 28003KT 220V330 9000 -SHRA SCT010TCU SCT014 SCT026 BKN120 30/24 Q1007 NOSIG RMK 27005KT/R09 TCU W A2976(X)",
        "visib": "5.59",
        "status": "updated"
    },
    {
        "icaoId": "RCMQ",
        "obsTime": 1784431800,
        "rawOb": "METAR RCMQ 190330Z 20003KT 8000 -RA FEW008 FEW010CB SCT020 BKN060 27/27 Q1009 NOSIG RMK A2981 CB NE MOV N",
        "visib": "4.97",
        "status": "updated"
    },
    {
        "icaoId": "RCBS",
        "obsTime": 1784433240,
        "rawOb": "SPECI RCBS 190354Z 19009KT 9999 SCT005 BKN010 BKN100 29/28 Q1006 NOSIG RMK A2971(T)",
        "visib": "6.2",
        "status": "updated"
    },
    {
        "icaoId": "RCNN",
        "obsTime": 1784433300,
        "rawOb": "SPECI RCNN 190355Z 00000KT 8000 -RA FEW010 SCT025 BKN040 26/24 Q1008 NOSIG RMK A2977",
        "visib": "4.97",
        "status": "updated"
    },
    {
        "icaoId": "RCYU",
        "obsTime": 1784431800,
        "rawOb": "METAR RCYU 190330Z 04007KT 9999 FEW012 SCT035 BKN200 34/23 Q1007 NOSIG RMK A2973",
        "visib": "6.2",
        "status": "updated"
    },
    {
        "icaoId": "RCQC",
        "obsTime": 1784431800,
        "rawOb": "METAR RCQC 190330Z 14007KT 9999 VCSH SCT008 BKN016 BKN040 27/26 Q1007 BECMG BKN010 RMK A2976 VCSH SE AWOS R20 N/A",
        "visib": "6",
        "status": "updated"
    }
]