[
    {
        "icaoId": "RCTP",
        "obsTime": 1783971000,
        "rawOb": "METAR RCTP 131930Z 12006KT 090V150 9999 FEW015 SCT025 BKN050 28/26 Q1007 NOSIG RMK A2975(M)",
        "visib": "6.2",
        "status": "updated"
    },
    {
        "icaoId": "RCSS",
        "obsTime": 1783969200,
        "rawOb": "METAR RCSS 131900Z 35003KT 9999 FEW020 BKN050 28/27 Q1007 NOSIG RMK A2975(C)",
        "visib": "6.2",
        "status": "updated"
    },
    {
        "icaoId": "RCKH",
        "obsTime": 1783969200,
        "rawOb": "METAR RCKH 131900Z 16013G23KT 120V190 9999 FEW009 SCT120 29/25 Q1006 NOSIG RMK A2973(X)",
        "visib": "6.2",
        "status": "updated"
    },
    {
        "icaoId": "RCMQ",
        "obsTime": 1783969200,
        "rawOb": "METAR RCMQ 131900Z 30002KT 9999 FEW010 26/26 Q1008 RMK A2978",
        "visib": "6.2",
        "status": "updated"
    },
    {
        "icaoId": "RCBS",
        "obsTime": 1783947600,
        "rawOb": "METAR RCBS 131300Z 12007KT 9000 SCT018 SCT080 BKN210 29/29 Q1006 NOSIG RMK 12006KT/R06 A2971(N)",
        "visib": "5.59",
        "status": "updated"
    },
    {
        "icaoId": "RCNN",
        "obsTime": 1783969200,
        "rawOb": "METAR RCNN 131900Z 17009KT 9000 FEW010 BKN021 BKN050 27/24 Q1006 RMK A2972 RA AMT T",
        "visib": "5.59",
        "status": "updated"
    },
    {
        "icaoId": "RCYU",
        "obsTime": 1783969200,
        "rawOb": "METAR RCYU 131900Z 22002KT 9999 FEW012 SCT120 28/24 Q1008 RMK A2978",
        "visib": "6.2",
        "status": "updated"
    },
    {
        "icaoId": "RCQC",
        "obsTime": 1783969200,
        "rawOb": "METAR RCQC 131900Z 17011G21KT 9999 FEW012 SCT030 BKN200 28/26 Q1005 RMK A2970 AWOS R20 N/A",
        "visib": "6.2",
        "status": "updated"
    }
]