[
    {
        "icaoId": "RCTP",
        "obsTime": 1784066400,
        "rawOb": "METAR RCTP 142200Z 16004KT 9999 FEW015 28/26 Q1009 NOSIG RMK A2980(R)",
        "visib": "6.2",
        "status": "updated"
    },
    {
        "icaoId": "RCSS",
        "obsTime": 1784066400,
        "rawOb": "METAR RCSS 142200Z VRB01KT 9999 FEW020 SCT200 28/26 Q1009 NOSIG RMK A2980(F)",
        "visib": "6.2",
        "status": "updated"
    },
    {
        "icaoId": "RCKH",
        "obsTime": 1784066400,
        "rawOb": "METAR RCKH 142200Z 13004KT 070V190 9999 -RA FEW010 SCT022 BKN200 29/25 Q1010 NOSIG RMK A2983(Z)",
        "visib": "6.2",
        "status": "updated"
    },
    {
        "icaoId": "RCMQ",
        "obsTime": 1784066400,
        "rawOb": "METAR RCMQ 142200Z 17007KT 9999 FEW010 27/25 Q1010 NOSIG RMK A2985",
        "visib": "6.2",
        "status": "updated"
    },
    {
        "icaoId": "RCBS",
        "obsTime": 1784066400,
        "rawOb": "METAR RCBS 142200Z 13004KT 9999 FEW007 SCT130 27/27 Q1008 NOSIG RMK A2978(L)",
        "visib": "6.2",
        "status": "updated"
    },
    {
        "icaoId": "RCNN",
        "obsTime": 1784066400,
        "rawOb": "METAR RCNN 142200Z 12005KT 9999 FEW014 SCT025 BKN050 26/24 Q1010 NOSIG RMK A2984",
        "visib": "6.2",
        "status": "updated"
    },
    {
        "icaoId": "RCYU",
        "obsTime": 1784066400,
        "rawOb": "METAR RCYU 142200Z 23003KT 9999 FEW012 SCT050 29/26 Q1009 NOSIG RMK A2981",
        "visib": "6.2",
        "status": "updated"
    },
    {
        "icaoId": "RCQC",
        "obsTime": 1784066400,
        "rawOb": "METAR RCQC 142200Z 19005KT 9999 FEW008 SCT016 BKN060 28/27 Q1009 NOSIG RMK A2981 AWOS R20 N/A",
        "visib": "6.2",
        "status": "updated"
    }
]