[
    {
        "icaoId": "RCTP",
        "obsTime": 1781643600,
        "rawOb": "METAR RCTP 162100Z VRB01KT 9999 FEW015 SCT035 BKN180 25/24 Q1010 NOSIG RMK A2983",
        "visib": "6",
        "status": "updated"
    },
    {
        "icaoId": "RCSS",
        "obsTime": 1781643600,
        "rawOb": "METAR RCSS 162100Z VRB01KT 9999 FEW009 BKN110 BKN150 25/24 Q1010 NOSIG RMK A2983",
        "visib": "6",
        "status": "updated"
    },
    {
        "icaoId": "RCKH",
        "obsTime": 1781643600,
        "rawOb": "METAR RCKH 162100Z 07003KT 050V130 9999 FEW014 SCT056 25/24 Q1011 NOSIG RMK A2986",
        "visib": "6",
        "status": "updated"
    },
    {
        "icaoId": "RCMQ",
        "obsTime": 1781643600,
        "rawOb": "METAR RCMQ 162100Z 17005KT 9999 FEW012 BKN060 26/24 Q1011 NOSIG RMK A2987",
        "visib": "6",
        "status": "updated"
    },
    {
        "icaoId": "RCBS",
        "obsTime": 1779233400,
        "rawOb": "METAR RCBS 192330Z 22004KT 180V240 9999 FEW010 SCT018 BKN070 25/25 Q1009 NOSIG RMK A2980(E)",
        "visib": "6.2",
        "status": "old_data_kept"
    },
    {
        "icaoId": "RCNN",
        "obsTime": 1781643600,
        "rawOb": "METAR RCNN 162100Z 15005KT 9999 FEW012 SCT120 25/23 Q1011 NOSIG RMK A2987",
        "visib": "6",
        "status": "updated"
    },
    {
        "icaoId": "RCYU",
        "obsTime": 1779233400,
        "rawOb": "METAR RCYU 192330Z 24004KT 9999 FEW012 SCT040 BKN100 26/20 Q1010 NOSIG RMK A2982",
        "visib": "6.2",
        "status": "old_data_kept"
    },
    {
        "icaoId": "RCQC",
        "obsTime": 1781643600,
        "rawOb": "METAR RCQC 162100Z 18005KT 9999 FEW010 BKN050 26/26 Q1010 NOSIG RMK A2984",
        "visib": "6",
        "status": "updated"
    }
]