[
    {
        "icaoId": "RCTP",
        "obsTime": 1784705400,
        "rawOb": "METAR RCTP 220730Z 29011KT 9999 FEW020 SCT200 34/26 Q1008 NOSIG RMK A2977(W)",
        "visib": "6.2",
        "status": "updated"
    },
    {
        "icaoId": "RCSS",
        "obsTime": 1784705400,
        "rawOb": "METAR RCSS 220730Z 32005KT 270V050 9999 FEW015 FEW018TCU SCT040 BKN070 35/28 Q1007 NOSIG RMK TCU SE A2976(L)",
        "visib": "6.2",
        "status": "updated"
    },
    {
        "icaoId": "RCKH",
        "obsTime": 1784705400,
        "rawOb": "METAR RCKH 220730Z 26010KT 240V310 9999 FEW020 SCT220 32/25 Q1007 NOSIG RMK 26010KT/R09 A2975(B)",
        "visib": "6.2",
        "status": "updated"
    },
    {
        "icaoId": "RCMQ",
        "obsTime": 1784705400,
        "rawOb": "METAR RCMQ 220730Z 28008KT 9999 FEW010 33/26 Q1009 NIOSIG RMK A2981",
        "visib": "6.2",
        "status": "updated"
    },
    {
        "icaoId": "RCBS",
        "obsTime": 1784705400,
        "rawOb": "METAR RCBS 220730Z 19012KT 9999 FEW016 30/29 Q1006 NOSIG RMK 19011KT/R06 A2973(Q)",
        "visib": "6.2",
        "status": "updated"
    },
    {
        "icaoId": "RCNN",
        "obsTime": 1784705400,
        "rawOb": "METAR RCNN 220730Z 26007KT 9999 FEW012 SCT100 31/25 Q1008 NOSIG RMK A2977",
        "visib": "6.2",
        "status": "updated"
    },
    {
        "icaoId": "RCYU",
        "obsTime": 1784705400,
        "rawOb": "METAR RCYU 220730Z 09005KT 9999 FEW012 FEW014TCU SCT030 BKN060 31/26 Q1008 NOSIG RMK A2979 TCU W STNR",
        "visib": "6.2",
        "status": "updated"
    },
    {
        "icaoId": "RCQC",
        "obsTime": 1784705400,
        "rawOb": "METAR RCQC 220730Z 21006KT 9999 FEW012 BKN200 31/27 Q1008 NOSIG RMK A2978 AWOS R20 N/A",
        "visib": "6.2",
        "status": "updated"
    }
]