[
    {
        "icaoId": "RCTP",
        "obsTime": 1784872800,
        "rawOb": "METAR RCTP 240600Z 09017KT 9999 FEW020 SCT040 BKN100 36/25 Q1004 WS ALL RWY NOSIG RMK A2967(O)",
        "visib": "6.2",
        "status": "updated"
    },
    {
        "icaoId": "RCSS",
        "obsTime": 1784872800,
        "rawOb": "METAR RCSS 240600Z 09015KT 9999 FEW020 BKN038 BKN200 34/28 Q1006 NOSIG RMK A2971(X)",
        "visib": "6.2",
        "status": "updated"
    },
    {
        "icaoId": "RCKH",
        "obsTime": 1784873520,
        "rawOb": "SPECI RCKH 240612Z 32009KT 290V350 9999 -DZ FEW015 SCT030 BKN045 31/25 Q1004 NOSIG RMK A2966(I)",
        "visib": "6.2",
        "status": "updated"
    },
    {
        "icaoId": "RCMQ",
        "obsTime": 1784872800,
        "rawOb": "METAR RCMQ 240600Z 31004KT 9999 FEW008 SCT025 BKN100 33/27 Q1006 NOSIG RMK A2972",
        "visib": "6.2",
        "status": "updated"
    },
    {
        "icaoId": "RCBS",
        "obsTime": 1784872800,
        "rawOb": "METAR RCBS 240600Z 10015KT 9999 FEW016 SCT150 32/27 Q1005 NOSIG RMK A2970(E)",
        "visib": "6.2",
        "status": "updated"
    },
    {
        "icaoId": "RCNN",
        "obsTime": 1784872800,
        "rawOb": "METAR RCNN 240600Z 32014KT 9999 FEW010 BKN020 BKN050 31/24 Q1004 NOSIG RMK A2967 AWOS R36 N/A",
        "visib": "6.2",
        "status": "updated"
    },
    {
        "icaoId": "RCYU",
        "obsTime": 1784872800,
        "rawOb": "METAR RCYU 240600Z 12008KT 9999 FEW030 BKN200 35/24 Q1008 NOSIG RMK A2978",
        "visib": "6.2",
        "status": "updated"
    },
    {
        "icaoId": "RCQC",
        "obsTime": 1784872800,
        "rawOb": "METAR RCQC 240600Z 36014KT 9999 FEW006 SCT012 BKN120 30/27 Q1005 NOSIG RMK A2968",
        "visib": "6.2",
        "status": "updated"
    }
]