[
    {
        "icaoId": "RCTP",
        "obsTime": 1783548000,
        "rawOb": "METAR RCTP 082200Z 22002KT 9999 FEW020 28/25 Q1007 NOSIG RMK A2974(C)",
        "visib": "6.2",
        "status": "updated"
    },
    {
        "icaoId": "RCSS",
        "obsTime": 1783548000,
        "rawOb": "METAR RCSS 082200Z 34004KT 9999 FEW025 27/24 Q1006 NOSIG RMK A2973(U)",
        "visib": "6.2",
        "status": "updated"
    },
    {
        "icaoId": "RCKH",
        "obsTime": 1783548000,
        "rawOb": "METAR RCKH 082200Z 34005KT 300V040 9999 FEW018 SCT035 BKN060 29/24 Q1006 NOSIG RMK A2972(Z)",
        "visib": "6.2",
        "status": "updated"
    },
    {
        "icaoId": "RCMQ",
        "obsTime": 1783548000,
        "rawOb": "METAR RCMQ 082200Z 00000KT 9999 FEW012 BKN040 25/24 Q1008 NOSIG RMK A2978",
        "visib": "6.2",
        "status": "updated"
    },
    {
        "icaoId": "RCBS",
        "obsTime": 1783548000,
        "rawOb": "METAR RCBS 082200Z 26003KT 9999 FEW030 SCT230 27/27 Q1006 NOSIG RMK A2973(U)",
        "visib": "6.2",
        "status": "updated"
    },
    {
        "icaoId": "RCNN",
        "obsTime": 1783548000,
        "rawOb": "METAR RCNN 082200Z 10001KT 9999 FEW014 SCT100 27/25 Q1007 NOSIG RMK A2976",
        "visib": "6.2",
        "status": "updated"
    },
    {
        "icaoId": "RCYU",
        "obsTime": 1783548000,
        "rawOb": "METAR RCYU 082200Z 24002KT 9999 FEW012 SCT200 28/24 Q1006 NOSIG RMK A2972",
        "visib": "6.2",
        "status": "updated"
    },
    {
        "icaoId": "RCQC",
        "obsTime": 1783548000,
        "rawOb": "METAR RCQC 082200Z 24002KT 9999 FEW012 28/27 Q1006 NOSIG RMK A2973 AWOS R20 N/A",
        "visib": "6.2",
        "status": "updated"
    }
]