[
    {
        "icaoId": "RCTP",
        "obsTime": 1778781600,
        "rawOb": "METAR RCTP 141800Z 05005KT 9999 FEW008 BKN045 BKN080 23/23 Q1010 NOSIG RMK A2983",
        "visib": "6",
        "status": "updated"
    },
    {
        "icaoId": "RCSS",
        "obsTime": 1778781600,
        "rawOb": "METAR RCSS 141800Z 09003KT 9999 FEW008 SCT020 BKN060 23/22 Q1009 NOSIG RMK A2982",
        "visib": "6",
        "status": "updated"
    },
    {
        "icaoId": "RCKH",
        "obsTime": 1778781600,
        "rawOb": "METAR RCKH 141800Z VRB02KT 9000 -RA SCT016 SCT024 BKN080 26/21 Q1008 NOSIG RMK A2977 RA AMT 0.2MM",
        "visib": "5.59",
        "status": "updated"
    },
    {
        "icaoId": "RCMQ",
        "obsTime": 1778781600,
        "rawOb": "METAR RCMQ 141800Z 02004KT 9999 FEW010 BKN080 23/22 Q1010 RMK A2983",
        "visib": "6",
        "status": "updated"
    },
    {
        "icaoId": "RCBS",
        "obsTime": 0,
        "rawOb": "",
        "visib": "",
        "status": "old_data_kept"
    },
    {
        "icaoId": "RCNN",
        "obsTime": 1778781600,
        "rawOb": "METAR RCNN 141800Z 16002KT 8000 -RA FEW010 SCT018 BKN040 24/21 Q1009 RMK A2980 RA AMT T",
        "visib": "4.97",
        "status": "updated"
    },
    {
        "icaoId": "RCYU",
        "obsTime": 0,
        "rawOb": "",
        "visib": "",
        "status": "old_data_kept"
    },
    {
        "icaoId": "RCQC",
        "obsTime": 1778781600,
        "rawOb": "METAR RCQC 141800Z 04003KT 9999 FEW008 SCT020 BKN040 25/24 Q1008 RMK A2979",
        "visib": "6",
        "status": "updated"
    }
]