[
    {
        "icaoId": "RCTP",
        "obsTime": 1780740000,
        "rawOb": "METAR RCTP 061000Z 35003KT 310V030 9999 FEW008 BKN013 BKN150 27/24 Q1007 NOSIG RMK A2975",
        "visib": "6",
        "status": "updated"
    },
    {
        "icaoId": "RCSS",
        "obsTime": 1780740000,
        "rawOb": "METAR RCSS 061000Z 28006KT 9999 FEW020 BKN035 BKN140 27/24 Q1007 NOSIG RMK 29005KT/R10 A2974",
        "visib": "6",
        "status": "updated"
    },
    {
        "icaoId": "RCKH",
        "obsTime": 1780740420,
        "rawOb": "SPECI RCKH 061007Z 21008KT 9999 FEW015 30/25 Q1007 NOSIG RMK A2974",
        "visib": "6",
        "status": "updated"
    },
    {
        "icaoId": "RCMQ",
        "obsTime": 1780740000,
        "rawOb": "METAR RCMQ 061000Z 30006KT 9999 FEW012 SCT200 29/25 Q1008 NOSIG RMK A2977",
        "visib": "6",
        "status": "updated"
    },
    {
        "icaoId": "RCBS",
        "obsTime": 1779233400,
        "rawOb": "METAR RCBS 192330Z 22004KT 180V240 9999 FEW010 SCT018 BKN070 25/25 Q1009 NOSIG RMK A2980(E)",
        "visib": "6.2",
        "status": "old_data_kept"
    },
    {
        "icaoId": "RCNN",
        "obsTime": 1780740000,
        "rawOb": "METAR RCNN 061000Z 26007KT 9999 FEW012 SCT100 31/25 Q1007 NOSIG RMK A2975",
        "visib": "6",
        "status": "updated"
    },
    {
        "icaoId": "RCYU",
        "obsTime": 1779233400,
        "rawOb": "METAR RCYU 192330Z 24004KT 9999 FEW012 SCT040 BKN100 26/20 Q1010 NOSIG RMK A2982",
        "visib": "6.2",
        "status": "old_data_kept"
    },
    {
        "icaoId": "RCQC",
        "obsTime": 1780740000,
        "rawOb": "METAR RCQC 061000Z 22006KT 9999 FEW012 SCT200 30/26 Q1007 NOSIG RMK A2974",
        "visib": "6",
        "status": "updated"
    }
]