[
    {
        "icaoId": "RCTP",
        "obsTime": 1784741400,
        "rawOb": "METAR RCTP 221730Z 17004KT 9999 FEW020 28/25 Q1008 NOSIG RMK A2977(R)",
        "visib": "6.2",
        "status": "updated"
    },
    {
        "icaoId": "RCSS",
        "obsTime": 1784739600,
        "rawOb": "METAR RCSS 221700Z VRB01KT 9999 FEW020 28/26 Q1008 NOSIG RMK A2977(F)",
        "visib": "6.2",
        "status": "updated"
    },
    {
        "icaoId": "RCKH",
        "obsTime": 1784739600,
        "rawOb": "METAR RCKH 221700Z 25003KT 190V280 9999 FEW014 SCT022 29/26 Q1008 NOSIG RMK A2979(T)",
        "visib": "6.2",
        "status": "updated"
    },
    {
        "icaoId": "RCMQ",
        "obsTime": 1784739600,
        "rawOb": "METAR RCMQ 221700Z 24003KT 9999 FEW010 SCT200 27/25 Q1010 RMK A2983",
        "visib": "6.2",
        "status": "updated"
    },
    {
        "icaoId": "RCBS",
        "obsTime": 1784725200,
        "rawOb": "METAR RCBS 221300Z 21011KT 9999 FEW008 28/28 Q1008 NOSIG RMK 22008KT/R06 A2977(B)",
        "visib": "6.2",
        "status": "updated"
    },
    {
        "icaoId": "RCNN",
        "obsTime": 1784739600,
        "rawOb": "METAR RCNN 221700Z 00000KT 9999 FEW012 25/23 Q1009 RMK A2979",
        "visib": "6.2",
        "status": "updated"
    },
    {
        "icaoId": "RCYU",
        "obsTime": 1784739600,
        "rawOb": "METAR RCYU 221700Z 22004KT 9999 FEW012 SCT060 28/24 Q1009 RMK A2981",
        "visib": "6.2",
        "status": "updated"
    },
    {
        "icaoId": "RCQC",
        "obsTime": 1784739600,
        "rawOb": "METAR RCQC 221700Z 20003KT 9999 FEW012 27/26 Q1008 RMK A2978 AWOS R20 N/A",
        "visib": "6.2",
        "status": "updated"
    }
]