[
    {
        "icaoId": "RCTP",
        "obsTime": 1779949800,
        "rawOb": "METAR RCTP 280630Z 25014KT 9999 FEW020 36/25 Q1006 NOSIG RMK A2972",
        "visib": "6",
        "status": "updated"
    },
    {
        "icaoId": "RCSS",
        "obsTime": 1779949800,
        "rawOb": "METAR RCSS 280630Z 30006KT 250V050 9999 FEW025 38/26 Q1006 NOSIG RMK 31006KT/R10 A2971",
        "visib": "6",
        "status": "updated"
    },
    {
        "icaoId": "RCKH",
        "obsTime": 1779949800,
        "rawOb": "METAR RCKH 280630Z 28011KT 250V310 9999 FEW015 33/24 Q1007 NOSIG RMK 28013KT/R09 A2976",
        "visib": "6",
        "status": "updated"
    },
    {
        "icaoId": "RCMQ",
        "obsTime": 1779949800,
        "rawOb": "METAR RCMQ 280630Z 25010KT 9999 FEW012 SCT200 36/27 Q1008 NOSIG RMK A2978",
        "visib": "6",
        "status": "updated"
    },
    {
        "icaoId": "RCBS",
        "obsTime": 1779233400,
        "rawOb": "METAR RCBS 192330Z 22004KT 180V240 9999 FEW010 SCT018 BKN070 25/25 Q1009 NOSIG RMK A2980(E)",
        "visib": "6.2",
        "status": "old_data_kept"
    },
    {
        "icaoId": "RCNN",
        "obsTime": 1779949800,
        "rawOb": "METAR RCNN 280630Z 28010KT 9999 FEW012 SCT200 34/25 Q1009 NOSIG RMK A2980",
        "visib": "6",
        "status": "updated"
    },
    {
        "icaoId": "RCYU",
        "obsTime": 1779233400,
        "rawOb": "METAR RCYU 192330Z 24004KT 9999 FEW012 SCT040 BKN100 26/20 Q1010 NOSIG RMK A2982",
        "visib": "6.2",
        "status": "old_data_kept"
    },
    {
        "icaoId": "RCQC",
        "obsTime": 1779951000,
        "rawOb": "SPECI RCQC 280650Z 20010KT 9999 FEW010 SCT020 31/28 Q1008 NOSIG RMK A2976",
        "visib": "6",
        "status": "updated"
    }
]