[
    {
        "icaoId": "RCTP",
        "obsTime": 1784408400,
        "rawOb": "METAR RCTP 182100Z 23010KT 9999 FEW020 27/23 Q1005 NOSIG RMK A2969(X)",
        "visib": "6.2",
        "status": "updated"
    },
    {
        "icaoId": "RCSS",
        "obsTime": 1784408400,
        "rawOb": "METAR RCSS 182100Z 29005KT 9999 FEW020 SCT150 28/24 Q1006 NOSIG RMK A2971(A)",
        "visib": "6.2",
        "status": "updated"
    },
    {
        "icaoId": "RCKH",
        "obsTime": 1784408400,
        "rawOb": "METAR RCKH 182100Z 14003KT 050V200 2000 SHRA FEW015 BKN025 BKN080 26/24 Q1007 NOSIG RMK A2976 RA AMT 1.4MM(G)",
        "visib": "1.24",
        "status": "updated"
    },
    {
        "icaoId": "RCMQ",
        "obsTime": 1784408400,
        "rawOb": "METAR RCMQ 182100Z 19007KT 9999 FEW012 SCT150 26/24 Q1008 NOSIG RMK A2977",
        "visib": "6.2",
        "status": "updated"
    },
    {
        "icaoId": "RCBS",
        "obsTime": 1784379600,
        "rawOb": "METAR RCBS 181300Z 23015KT 7000 FEW007 BKN012 BKN035 27/27 Q1005 NOSIG RMK 23011KT/R06 A2969(B)",
        "visib": "4.35",
        "status": "updated"
    },
    {
        "icaoId": "RCNN",
        "obsTime": 1784408400,
        "rawOb": "METAR RCNN 182100Z 14002KT 9999 VCSH FEW010 SCT025 BKN060 25/23 Q1007 NOSIG RMK A2975 VCSH SW",
        "visib": "6.2",
        "status": "updated"
    },
    {
        "icaoId": "RCYU",
        "obsTime": 1784408400,
        "rawOb": "METAR RCYU 182100Z 22002KT 9999 FEW012 SCT080 27/23 Q1006 NOSIG RMK A2972",
        "visib": "6.2",
        "status": "updated"
    },
    {
        "icaoId": "RCQC",
        "obsTime": 1784408400,
        "rawOb": "METAR RCQC 182100Z 19007KT 9999 FEW010 SCT030 BKN120 27/27 Q1006 NOSIG RMK A2972 AWOS R20 N/A",
        "visib": "6.2",
        "status": "updated"
    }
]