[
    {
        "icaoId": "RCTP",
        "obsTime": 1780947000,
        "rawOb": "METAR RCTP 081930Z 04016G26KT 6000 RA SCT004 BKN008 BKN015 25/25 Q1001 WS ALL RWY NOSIG RMK A2958",
        "visib": "3.73",
        "status": "updated"
    },
    {
        "icaoId": "RCSS",
        "obsTime": 1780945200,
        "rawOb": "METAR RCSS 081900Z VRB01KT 4000 -SHRA FEW005 BKN018 BKN030 25/25 Q1001 NOSIG RMK A2958 RA AMT 1.2MM",
        "visib": "2.49",
        "status": "updated"
    },
    {
        "icaoId": "RCKH",
        "obsTime": 1780945200,
        "rawOb": "METAR RCKH 081900Z 20004KT 170V260 9999 SCT014 SCT020 BKN050 27/25 Q1003 NOSIG RMK 19005KT/R09 A2964",
        "visib": "6",
        "status": "updated"
    },
    {
        "icaoId": "RCMQ",
        "obsTime": 1780945200,
        "rawOb": "METAR RCMQ 081900Z 19011KT 6000 -RA FEW004 BKN010 BKN020 26/26 Q1003 RERA RMK A2963 RA AMT 7.0MM",
        "visib": "3.73",
        "status": "updated"
    },
    {
        "icaoId": "RCBS",
        "obsTime": 1779233400,
        "rawOb": "METAR RCBS 192330Z 22004KT 180V240 9999 FEW010 SCT018 BKN070 25/25 Q1009 NOSIG RMK A2980(E)",
        "visib": "6.2",
        "status": "old_data_kept"
    },
    {
        "icaoId": "RCNN",
        "obsTime": 1780945200,
        "rawOb": "METAR RCNN 081900Z 21005KT 7000 -RA FEW012 SCT030 BKN050 27/25 Q1004 RMK A2966 RA AMT 0.3MM",
        "visib": "4.35",
        "status": "updated"
    },
    {
        "icaoId": "RCYU",
        "obsTime": 1779233400,
        "rawOb": "METAR RCYU 192330Z 24004KT 9999 FEW012 SCT040 BKN100 26/20 Q1010 NOSIG RMK A2982",
        "visib": "6.2",
        "status": "old_data_kept"
    },
    {
        "icaoId": "RCQC",
        "obsTime": 1780947720,
        "rawOb": "SPECI RCQC 081942Z 01005KT 4000 -RA BR SCT003 BKN005 BKN016 26/26 Q1002 RERA RMK A2961",
        "visib": "2.49",
        "status": "updated"
    }
]