[
    {
        "icaoId": "RCTP",
        "obsTime": 1778742240,
        "rawOb": "SPECI RCTP 140704Z 35006KT 9999 FEW012 BKN070 BKN090 25/22 Q1007 NOSIG RMK R05 A2976",
        "visib": "6",
        "status": "updated"
    },
    {
        "icaoId": "RCSS",
        "obsTime": 1778742000,
        "rawOb": "METAR RCSS 140700Z VRB02KT 9999 FEW008 SCT025 BKN100 26/24 Q1006 NOSIG RMK A2973",
        "visib": "6",
        "status": "updated"
    },
    {
        "icaoId": "RCKH",
        "obsTime": 1778742000,
        "rawOb": "METAR RCKH 140700Z 27009KT 9999 FEW015 SCT025 BKN150 30/23 Q1006 NOSIG RMK 24009KT/R09 A2972",
        "visib": "6",
        "status": "updated"
    },
    {
        "icaoId": "RCMQ",
        "obsTime": 1778742000,
        "rawOb": "METAR RCMQ 140700Z 15004KT 7000 -RA FEW008 BKN020 BKN040 23/22 Q1008 NOSIG RMK A2978 RA AMT 1.5MM",
        "visib": "4.35",
        "status": "updated"
    },
    {
        "icaoId": "RCBS",
        "obsTime": 0,
        "rawOb": "",
        "visib": "",
        "status": "old_data_kept"
    },
    {
        "icaoId": "RCNN",
        "obsTime": 1778742000,
        "rawOb": "METAR RCNN 140700Z 30007KT 9999 VCSH FEW010 SCT025 BKN050 29/24 Q1007 NOSIG RMK A2976 VCSH NW",
        "visib": "6",
        "status": "updated"
    },
    {
        "icaoId": "RCYU",
        "obsTime": 0,
        "rawOb": "",
        "visib": "",
        "status": "old_data_kept"
    },
    {
        "icaoId": "RCQC",
        "obsTime": 1778743260,
        "rawOb": "SPECI RCQC 140721Z 03009KT 1200 R02/P2000 RA BR BKN004 FEW010CB BKN012 23/23 Q1008 RERA BECMG TL0800 0800 RA FG BKN002 RMK A2977 CB N MOV E",
        "visib": "0.75",
        "status": "updated"
    }
]