[
    {
        "icaoId": "RCTP",
        "obsTime": 1780201800,
        "rawOb": "METAR RCTP 310430Z 02017KT 9999 FEW020 29/21 Q1009 NOSIG RMK A2981",
        "visib": "6",
        "status": "updated"
    },
    {
        "icaoId": "RCSS",
        "obsTime": 1780201800,
        "rawOb": "METAR RCSS 310430Z 10014KT 070V130 9999 FEW025 30/20 Q1009 NOSIG RMK A2980",
        "visib": "6",
        "status": "updated"
    },
    {
        "icaoId": "RCKH",
        "obsTime": 1780201800,
        "rawOb": "METAR RCKH 310430Z 23009KT 200V270 9999 FEW016 SCT025 BKN060 31/24 Q1007 NOSIG RMK 25009KT/R09 A2974",
        "visib": "6",
        "status": "updated"
    },
    {
        "icaoId": "RCMQ",
        "obsTime": 1780201800,
        "rawOb": "METAR RCMQ 310430Z 36016KT 9999 FEW012 SCT100 31/22 Q1009 NOSIG RMK A2981",
        "visib": "6",
        "status": "updated"
    },
    {
        "icaoId": "RCBS",
        "obsTime": 1779233400,
        "rawOb": "METAR RCBS 192330Z 22004KT 180V240 9999 FEW010 SCT018 BKN070 25/25 Q1009 NOSIG RMK A2980(E)",
        "visib": "6.2",
        "status": "old_data_kept"
    },
    {
        "icaoId": "RCNN",
        "obsTime": 1780201800,
        "rawOb": "METAR RCNN 310430Z 28006KT 9999 FEW016 SCT030 35/22 Q1007 NOSIG RMK A2975",
        "visib": "6",
        "status": "updated"
    },
    {
        "icaoId": "RCYU",
        "obsTime": 1779233400,
        "rawOb": "METAR RCYU 192330Z 24004KT 9999 FEW012 SCT040 BKN100 26/20 Q1010 NOSIG RMK A2982",
        "visib": "6.2",
        "status": "old_data_kept"
    },
    {
        "icaoId": "RCQC",
        "obsTime": 1780201800,
        "rawOb": "METAR RCQC 310430Z 02020KT 9999 FEW012 29/22 Q1009 NOSIG RMK A2981",
        "visib": "6",
        "status": "updated"
    }
]