[
    {
        "icaoId": "RCTP",
        "obsTime": 1784604600,
        "rawOb": "METAR RCTP 210330Z 26015KT 9999 FEW020 SCT150 34/25 Q1008 NOSIG RMK A2979(O)",
        "visib": "6.2",
        "status": "updated"
    },
    {
        "icaoId": "RCSS",
        "obsTime": 1784604600,
        "rawOb": "METAR RCSS 210330Z 29007KT 230V330 9999 FEW028 BKN055 BKN200 34/26 Q1008 NOSIG RMK 29006KT/R10 A2978(W)",
        "visib": "6.2",
        "status": "updated"
    },
    {
        "icaoId": "RCKH",
        "obsTime": 1784604600,
        "rawOb": "METAR RCKH 210330Z 25008KT 210V280 9999 FEW015 SCT040 32/24 Q1009 NOSIG RMK A2982(A)",
        "visib": "6.2",
        "status": "updated"
    },
    {
        "icaoId": "RCMQ",
        "obsTime": 1784604600,
        "rawOb": "METAR RCMQ 210330Z 24006KT 9999 FEW010 SCT030 BKN100 33/26 Q1010 NOSIG RMK A2984",
        "visib": "6.2",
        "status": "updated"
    },
    {
        "icaoId": "RCBS",
        "obsTime": 1784604600,
        "rawOb": "METAR RCBS 210330Z 20008KT 9999 FEW005 SCT200 30/29 Q1009 NOSIG RMK A2981(W)",
        "visib": "6.2",
        "status": "updated"
    },
    {
        "icaoId": "RCNN",
        "obsTime": 1784604600,
        "rawOb": "METAR RCNN 210330Z 23004KT 9999 FEW010 SCT060 BKN150 31/26 Q1009 NOSIG RMK A2982",
        "visib": "6",
        "status": "updated"
    },
    {
        "icaoId": "RCYU",
        "obsTime": 1784604600,
        "rawOb": "METAR RCYU 210330Z 08007KT 9999 FEW030 33/25 Q1009 NOSIG RMK A2981",
        "visib": "6.2",
        "status": "updated"
    },
    {
        "icaoId": "RCQC",
        "obsTime": 1784604600,
        "rawOb": "METAR RCQC 210330Z 16007KT 9999 FEW012 SCT200 31/28 Q1009 NOSIG RMK A2980 AWOS R20 N/A",
        "visib": "6.2",
        "status": "updated"
    }
]