[
    {
        "icaoId": "RCTP",
        "obsTime": 1783400400,
        "rawOb": "METAR RCTP 070500Z 29015KT 9999 FEW020 35/25 Q1008 NOSIG RMK A2979(W)",
        "visib": "6.2",
        "status": "updated"
    },
    {
        "icaoId": "RCSS",
        "obsTime": 1783400400,
        "rawOb": "METAR RCSS 070500Z 09007KT 040V120 9999 FEW020 SCT035 BKN220 33/27 Q1008 NOSIG RMK A2978(X)",
        "visib": "6.2",
        "status": "updated"
    },
    {
        "icaoId": "RCKH",
        "obsTime": 1783400400,
        "rawOb": "METAR RCKH 070500Z 22011KT 200V260 9999 FEW016 32/24 Q1009 NOSIG RMK 22011KT/R09 A2980(E)",
        "visib": "6.2",
        "status": "updated"
    },
    {
        "icaoId": "RCMQ",
        "obsTime": 1783400400,
        "rawOb": "METAR RCMQ 070500Z 27009KT 9999 FEW012 SCT025 33/26 Q1010 NOSIG RMK A2984",
        "visib": "6.2",
        "status": "updated"
    },
    {
        "icaoId": "RCBS",
        "obsTime": 1783400400,
        "rawOb": "METAR RCBS 070500Z 19015KT 9999 FEW012 SCT180 31/30 Q1008 NOSIG RMK 20012KT/R06 A2977(U)",
        "visib": "6.2",
        "status": "updated"
    },
    {
        "icaoId": "RCNN",
        "obsTime": 1783400400,
        "rawOb": "METAR RCNN 070500Z 25011KT 9999 FEW014 33/26 Q1010 NOSIG RMK A2982",
        "visib": "6.2",
        "status": "updated"
    },
    {
        "icaoId": "RCYU",
        "obsTime": 1783400400,
        "rawOb": "METAR RCYU 070500Z 19008KT 9999 FEW030 32/25 Q1009 NOSIG RMK A2982",
        "visib": "6.2",
        "status": "updated"
    },
    {
        "icaoId": "RCQC",
        "obsTime": 1783400400,
        "rawOb": "METAR RCQC 070500Z 17008KT 9999 FEW012 32/27 Q1009 NOSIG RMK A2981",
        "visib": "6.2",
        "status": "updated"
    }
]