[
    {
        "icaoId": "RCTP",
        "obsTime": 1784592000,
        "rawOb": "METAR RCTP 210000Z 23012KT 9999 FEW015 31/25 Q1010 NOSIG RMK A2983(H)",
        "visib": "6.2",
        "status": "updated"
    },
    {
        "icaoId": "RCSS",
        "obsTime": 1784592000,
        "rawOb": "METAR RCSS 210000Z 28004KT 240V320 9999 FEW025 SCT180 31/26 Q1009 NOSIG RMK A2982(O)",
        "visib": "6.2",
        "status": "updated"
    },
    {
        "icaoId": "RCKH",
        "obsTime": 1784592000,
        "rawOb": "METAR RCKH 210000Z 05003KT 030V100 9999 VCSH FEW010 FEW012TCU BKN023 BKN090 29/25 Q1010 NOSIG RMK TCU S-W A2985(Q)",
        "visib": "6.2",
        "status": "updated"
    },
    {
        "icaoId": "RCMQ",
        "obsTime": 1784592000,
        "rawOb": "METAR RCMQ 210000Z 19007KT 9999 FEW014 SCT100 31/25 Q1012 NOSIG RMK A2989",
        "visib": "6.2",
        "status": "updated"
    },
    {
        "icaoId": "RCBS",
        "obsTime": 1784592000,
        "rawOb": "METAR RCBS 210000Z 20004KT 9999 FEW007 28/28 Q1009 NOSIG RMK A2982(P)",
        "visib": "6.2",
        "status": "updated"
    },
    {
        "icaoId": "RCNN",
        "obsTime": 1784592000,
        "rawOb": "METAR RCNN 210000Z 15001KT 9999 VCSH FEW010 SCT030 BKN100 27/25 Q1011 NOSIG RMK A2986 RA AMT T VCSH E",
        "visib": "6.2",
        "status": "updated"
    },
    {
        "icaoId": "RCYU",
        "obsTime": 1784592000,
        "rawOb": "METAR RCYU 210000Z 21004KT 9999 FEW012 31/24 Q1010 NOSIG RMK A2983",
        "visib": "6.2",
        "status": "updated"
    },
    {
        "icaoId": "RCQC",
        "obsTime": 1784592000,
        "rawOb": "METAR RCQC 210000Z 15008KT 9999 FEW008 SCT012 BKN200 29/27 Q1010 NOSIG RMK A2983 AWOS R20 N/A",
        "visib": "6.2",
        "status": "updated"
    }
]