[
    {
        "icaoId": "RCTP",
        "obsTime": 1780788600,
        "rawOb": "METAR RCTP 062330Z 24003KT 190V260 9999 FEW008 BKN120 28/26 Q1008 NOSIG RMK A2977",
        "visib": "6",
        "status": "updated"
    },
    {
        "icaoId": "RCSS",
        "obsTime": 1780788600,
        "rawOb": "METAR RCSS 062330Z VRB02KT 9999 FEW025 32/26 Q1008 NOSIG RMK A2977",
        "visib": "6",
        "status": "updated"
    },
    {
        "icaoId": "RCKH",
        "obsTime": 1780789320,
        "rawOb": "SPECI RCKH 062342Z 08004KT 9000 -SHRA FEW006 BKN013 29/25 Q1008 NOSIG RMK A2978",
        "visib": "5.59",
        "status": "updated"
    },
    {
        "icaoId": "RCMQ",
        "obsTime": 1780788600,
        "rawOb": "METAR RCMQ 062330Z 17007KT 9999 FEW012 BKN100 29/24 Q1009 NOSIG RMK A2981",
        "visib": "6",
        "status": "updated"
    },
    {
        "icaoId": "RCBS",
        "obsTime": 1779233400,
        "rawOb": "METAR RCBS 192330Z 22004KT 180V240 9999 FEW010 SCT018 BKN070 25/25 Q1009 NOSIG RMK A2980(E)",
        "visib": "6.2",
        "status": "old_data_kept"
    },
    {
        "icaoId": "RCNN",
        "obsTime": 1780790160,
        "rawOb": "SPECI RCNN 062356Z 15005KT 9999 -RA FEW010 FEW014TCU SCT021 BKN050 29/26 Q1009 NOSIG RMK A2980 TCU SW",
        "visib": "6",
        "status": "updated"
    },
    {
        "icaoId": "RCYU",
        "obsTime": 1779233400,
        "rawOb": "METAR RCYU 192330Z 24004KT 9999 FEW012 SCT040 BKN100 26/20 Q1010 NOSIG RMK A2982",
        "visib": "6.2",
        "status": "old_data_kept"
    },
    {
        "icaoId": "RCQC",
        "obsTime": 1780788600,
        "rawOb": "METAR RCQC 062330Z 14006KT 9999 FEW006 SCT016 BKN040 29/27 Q1008 NOSIG RMK A2976",
        "visib": "6",
        "status": "updated"
    }
]