[
    {
        "icaoId": "RCTP",
        "obsTime": 1778823000,
        "rawOb": "METAR RCTP 150530Z 09017KT 9999 FEW015 30/22 Q1010 WS R05L NOSIG RMK A2983",
        "visib": "6",
        "status": "updated"
    },
    {
        "icaoId": "RCSS",
        "obsTime": 1778823000,
        "rawOb": "METAR RCSS 150530Z 09014KT 060V120 9999 FEW018 SCT030 BKN070 28/22 Q1011 NOSIG RMK A2986",
        "visib": "6",
        "status": "updated"
    },
    {
        "icaoId": "RCKH",
        "obsTime": 1778823000,
        "rawOb": "METAR RCKH 150530Z 24012KT 9999 SCT025 SCT120 BKN200 32/21 Q1008 NOSIG RMK 25010KT/R09 A2977",
        "visib": "6",
        "status": "updated"
    },
    {
        "icaoId": "RCMQ",
        "obsTime": 1778823000,
        "rawOb": "METAR RCMQ 150530Z 34011KT 9999 FEW016 BKN100 29/25 Q1010 NOSIG RMK A2983",
        "visib": "6",
        "status": "updated"
    },
    {
        "icaoId": "RCBS",
        "obsTime": 0,
        "rawOb": "",
        "visib": "",
        "status": "old_data_kept"
    },
    {
        "icaoId": "RCNN",
        "obsTime": 1778823000,
        "rawOb": "METAR RCNN 150530Z 31011KT 9999 FEW012 SCT025 BKN100 34/22 Q1008 NOSIG RMK A2979",
        "visib": "6",
        "status": "updated"
    },
    {
        "icaoId": "RCYU",
        "obsTime": 0,
        "rawOb": "",
        "visib": "",
        "status": "old_data_kept"
    },
    {
        "icaoId": "RCQC",
        "obsTime": 1778823000,
        "rawOb": "METAR RCQC 150530Z 01016KT 9999 FEW010 SCT020 BKN080 27/24 Q1009 NOSIG RMK A2981",
        "visib": "6",
        "status": "updated"
    }
]