[
    {
        "icaoId": "RCTP",
        "obsTime": 1784644200,
        "rawOb": "METAR RCTP 211430Z 18005KT 9999 FEW015 BKN150 28/25 Q1010 NOSIG RMK A2984(M)",
        "visib": "6.2",
        "status": "updated"
    },
    {
        "icaoId": "RCSS",
        "obsTime": 1784644200,
        "rawOb": "METAR RCSS 211430Z 34002KT 9999 FEW025 SCT090 27/26 Q1010 NOSIG RMK A2984(I)",
        "visib": "6.2",
        "status": "updated"
    },
    {
        "icaoId": "RCKH",
        "obsTime": 1784644200,
        "rawOb": "METAR RCKH 211430Z VRB03KT 9999 FEW010 SCT020 29/25 Q1010 NOSIG RMK A2984(Y)",
        "visib": "6.2",
        "status": "updated"
    },
    {
        "icaoId": "RCMQ",
        "obsTime": 1784642400,
        "rawOb": "METAR RCMQ 211400Z 00000KT 9999 FEW010 BKN120 27/25 Q1011 RMK A2988",
        "visib": "6.2",
        "status": "updated"
    },
    {
        "icaoId": "RCBS",
        "obsTime": 1784638800,
        "rawOb": "METAR RCBS 211300Z 20010KT 8000 FEW012 SCT200 28/28 Q1008 NOSIG RMK 21007KT/R06 A2979(Q)",
        "visib": "4.97",
        "status": "updated"
    },
    {
        "icaoId": "RCNN",
        "obsTime": 1784642400,
        "rawOb": "METAR RCNN 211400Z 11002KT 9999 FEW012 SCT060 26/23 Q1010 RMK A2984",
        "visib": "6.2",
        "status": "updated"
    },
    {
        "icaoId": "RCYU",
        "obsTime": 1784642400,
        "rawOb": "METAR RCYU 211400Z 23002KT 9999 FEW012 SCT060 28/24 Q1011 RMK A2986",
        "visib": "6.2",
        "status": "updated"
    },
    {
        "icaoId": "RCQC",
        "obsTime": 1784642400,
        "rawOb": "METAR RCQC 211400Z 18002KT 9999 FEW012 SCT200 28/27 Q1010 RMK A2982 AWOS R20 N/A",
        "visib": "6.2",
        "status": "updated"
    }
]