[
    {
        "icaoId": "RCTP",
        "obsTime": 1783875600,
        "rawOb": "METAR RCTP 121700Z 32003KT 9999 FEW020 BKN032 29/27 Q1004 NOSIG RMK A2966(T)",
        "visib": "6.2",
        "status": "updated"
    },
    {
        "icaoId": "RCSS",
        "obsTime": 1783875600,
        "rawOb": "METAR RCSS 121700Z VRB02KT 9999 FEW018 BKN200 28/27 Q1004 NOSIG RMK A2965(Y)",
        "visib": "6.2",
        "status": "updated"
    },
    {
        "icaoId": "RCKH",
        "obsTime": 1783875600,
        "rawOb": "METAR RCKH 121700Z 14014KT 110V170 9999 -RA FEW010 SCT018 29/26 Q1005 NOSIG RMK A2969 RA AMT 0.2MM(U)",
        "visib": "6.2",
        "status": "updated"
    },
    {
        "icaoId": "RCMQ",
        "obsTime": 1783875600,
        "rawOb": "METAR RCMQ 121700Z 20005KT 9999 FEW012 28/26 Q1005 RMK A2969",
        "visib": "6.2",
        "status": "updated"
    },
    {
        "icaoId": "RCBS",
        "obsTime": 1783861200,
        "rawOb": "METAR RCBS 121300Z 19015KT 7000 FEW009 BKN200 28/28 Q1002 NOSIG RMK 20013KT/R06 A2959(C)",
        "visib": "4.35",
        "status": "updated"
    },
    {
        "icaoId": "RCNN",
        "obsTime": 1783875600,
        "rawOb": "METAR RCNN 121700Z 16008KT 9999 FEW010 SCT025 27/24 Q1005 RMK A2968",
        "visib": "6.2",
        "status": "updated"
    },
    {
        "icaoId": "RCYU",
        "obsTime": 1783875600,
        "rawOb": "METAR RCYU 121700Z 22006KT 9999 FEW012 SCT060 28/27 Q1006 RMK A2971",
        "visib": "6.2",
        "status": "updated"
    },
    {
        "icaoId": "RCQC",
        "obsTime": 1783875600,
        "rawOb": "METAR RCQC 121700Z 16008KT 9999 FEW012 SCT020 30/29 Q1004 RMK A2965 VIS N 9999M RVR N/A AWOS R20 N/A",
        "visib": "6.2",
        "status": "updated"
    }
]