[
    {
        "icaoId": "RCTP",
        "obsTime": 1784818800,
        "rawOb": "METAR RCTP 231500Z 07009KT 040V100 9999 FEW020 SCT200 29/24 Q1007 NOSIG RMK A2976(J)",
        "visib": "6.2",
        "status": "updated"
    },
    {
        "icaoId": "RCSS",
        "obsTime": 1784818800,
        "rawOb": "METAR RCSS 231500Z 10009KT 9999 FEW025 SCT200 28/26 Q1008 NOSIG RMK A2978(U)",
        "visib": "6.2",
        "status": "updated"
    },
    {
        "icaoId": "RCKH",
        "obsTime": 1784818800,
        "rawOb": "METAR RCKH 231500Z 07004KT 030V100 9999 FEW018 30/25 Q1007 NOSIG RMK A2976(I)",
        "visib": "6.2",
        "status": "updated"
    },
    {
        "icaoId": "RCMQ",
        "obsTime": 1784818800,
        "rawOb": "METAR RCMQ 231500Z 00000KT 9999 FEW010 27/25 Q1009 RMK A2981",
        "visib": "6.2",
        "status": "updated"
    },
    {
        "icaoId": "RCBS",
        "obsTime": 1784811600,
        "rawOb": "METAR RCBS 231300Z 21009KT 9999 FEW015 28/28 Q1007 NOSIG RMK 22005KT/R06 A2975(J)",
        "visib": "6.2",
        "status": "updated"
    },
    {
        "icaoId": "RCNN",
        "obsTime": 1784818800,
        "rawOb": "METAR RCNN 231500Z 00000KT 9999 FEW014 27/23 Q1008 RMK A2977 AWOS R36 N/A",
        "visib": "6.2",
        "status": "updated"
    },
    {
        "icaoId": "RCYU",
        "obsTime": 1784818800,
        "rawOb": "METAR RCYU 231500Z 21001KT 9999 FEW012 SCT020 BKN050 28/25 Q1010 RMK A2983",
        "visib": "6.2",
        "status": "updated"
    },
    {
        "icaoId": "RCQC",
        "obsTime": 1784818800,
        "rawOb": "METAR RCQC 231500Z 20001KT 9999 FEW012 28/26 Q1007 NOSIG RMK A2976",
        "visib": "6.2",
        "status": "updated"
    }
]