[
    {
        "icaoId": "RCTP",
        "obsTime": 1784714400,
        "rawOb": "METAR RCTP 221000Z 28007KT 9999 FEW020 BKN200 33/25 Q1007 NOSIG RMK A2975(B)",
        "visib": "6.2",
        "status": "updated"
    },
    {
        "icaoId": "RCSS",
        "obsTime": 1784714400,
        "rawOb": "METAR RCSS 221000Z 12009KT 9999 VCSH FEW015 SCT028 BKN037 31/27 Q1007 RETS NOSIG RMK A2976(S)",
        "visib": "6.2",
        "status": "updated"
    },
    {
        "icaoId": "RCKH",
        "obsTime": 1784714400,
        "rawOb": "METAR RCKH 221000Z 27006KT 230V310 9999 FEW020 SCT220 31/24 Q1007 NOSIG RMK A2976(G)",
        "visib": "6.2",
        "status": "updated"
    },
    {
        "icaoId": "RCMQ",
        "obsTime": 1784714400,
        "rawOb": "METAR RCMQ 221000Z 27003KT 9999 FEW010 SCT200 31/26 Q1009 NOSIG RMK A2980",
        "visib": "6.2",
        "status": "updated"
    },
    {
        "icaoId": "RCBS",
        "obsTime": 1784714400,
        "rawOb": "METAR RCBS 221000Z 19013KT 9999 FEW012 29/29 Q1006 NOSIG RMK 19010KT/R06 A2972(V)",
        "visib": "6.2",
        "status": "updated"
    },
    {
        "icaoId": "RCNN",
        "obsTime": 1784714400,
        "rawOb": "METAR RCNN 221000Z 26003KT 9999 FEW012 SCT025 BKN100 30/24 Q1008 NOSIG RMK A2976",
        "visib": "6.2",
        "status": "updated"
    },
    {
        "icaoId": "RCYU",
        "obsTime": 1784714400,
        "rawOb": "METAR RCYU 221000Z 05004KT 9999 VCSH FEW012 SCT025 BKN060 30/26 Q1009 NOSIG RMK A2980 VCSH N",
        "visib": "6.2",
        "status": "updated"
    },
    {
        "icaoId": "RCQC",
        "obsTime": 1784714400,
        "rawOb": "METAR RCQC 221000Z 21005KT 9999 FEW012 31/26 Q1007 NOSIG RMK A2975 AWOS R20 N/A",
        "visib": "6.2",
        "status": "updated"
    }
]