[
    {
        "icaoId": "RCTP",
        "obsTime": 1783514340,
        "rawOb": "SPECI RCTP 081239Z VRB02KT 9999 FEW015 SCT150 30/25 Q1007 NOSIG RMK R05 A2976(I)",
        "visib": "6.2",
        "status": "updated"
    },
    {
        "icaoId": "RCSS",
        "obsTime": 1783513800,
        "rawOb": "METAR RCSS 081230Z 09005KT 9999 FEW020 29/27 Q1007 NOSIG RMK A2975(H)",
        "visib": "6.2",
        "status": "updated"
    },
    {
        "icaoId": "RCKH",
        "obsTime": 1783513800,
        "rawOb": "METAR RCKH 081230Z 30007KT 260V340 9999 FEW016 BKN060 30/24 Q1007 NOSIG RMK A2974(M)",
        "visib": "6.2",
        "status": "updated"
    },
    {
        "icaoId": "RCMQ",
        "obsTime": 1783513800,
        "rawOb": "METAR RCMQ 081230Z 00000KT 9999 FEW012 26/23 Q1009 NOSIG RMK A2979",
        "visib": "6.2",
        "status": "updated"
    },
    {
        "icaoId": "RCBS",
        "obsTime": 1783513800,
        "rawOb": "METAR RCBS 081230Z 20014KT CAVOK 29/29 Q1006 NOSIG RMK 20010KT/R06 A2973(Q)",
        "visib": "",
        "status": "updated"
    },
    {
        "icaoId": "RCNN",
        "obsTime": 1783513800,
        "rawOb": "METAR RCNN 081230Z 32005KT 9999 FEW014 30/25 Q1008 RMK A2977",
        "visib": "6.2",
        "status": "updated"
    },
    {
        "icaoId": "RCYU",
        "obsTime": 1783513800,
        "rawOb": "METAR RCYU 081230Z 00000KT 9999 FEW012 BKN040 29/25 Q1008 NOSIG RMK A2978",
        "visib": "6.2",
        "status": "updated"
    },
    {
        "icaoId": "RCQC",
        "obsTime": 1783513800,
        "rawOb": "METAR RCQC 081230Z 22003KT 9999 FEW012 28/26 Q1007 NOSIG RMK A2975 AWOS R20 N/A",
        "visib": "6.2",
        "status": "updated"
    }
]