[
    {
        "icaoId": "RCTP",
        "obsTime": 1783879200,
        "rawOb": "METAR RCTP 121800Z 34003KT 310V010 9999 FEW020 BKN032 29/27 Q1004 NOSIG RMK A2965(V)",
        "visib": "6.2",
        "status": "updated"
    },
    {
        "icaoId": "RCSS",
        "obsTime": 1783879200,
        "rawOb": "METAR RCSS 121800Z 34002KT 9999 FEW018 BKN100 28/27 Q1003 NOSIG RMK A2964(Z)",
        "visib": "6.2",
        "status": "updated"
    },
    {
        "icaoId": "RCKH",
        "obsTime": 1783879200,
        "rawOb": "METAR RCKH 121800Z 14012KT 110V170 9999 FEW012 SCT020 29/25 Q1004 NOSIG RMK A2967(W)",
        "visib": "6.2",
        "status": "updated"
    },
    {
        "icaoId": "RCMQ",
        "obsTime": 1783879200,
        "rawOb": "METAR RCMQ 121800Z 20005KT 9999 FEW016 28/26 Q1005 RMK A2970",
        "visib": "6.2",
        "status": "updated"
    },
    {
        "icaoId": "RCBS",
        "obsTime": 1783861200,
        "rawOb": "METAR RCBS 121300Z 19015KT 7000 FEW009 BKN200 28/28 Q1002 NOSIG RMK 20013KT/R06 A2959(C)",
        "visib": "4.35",
        "status": "updated"
    },
    {
        "icaoId": "RCNN",
        "obsTime": 1783879200,
        "rawOb": "METAR RCNN 121800Z 16009KT 9999 FEW010 27/24 Q1004 RMK A2967",
        "visib": "6.2",
        "status": "updated"
    },
    {
        "icaoId": "RCYU",
        "obsTime": 1783879200,
        "rawOb": "METAR RCYU 121800Z 22006KT 9999 FEW012 SCT060 28/27 Q1006 RMK A2970",
        "visib": "6.2",
        "status": "updated"
    },
    {
        "icaoId": "RCQC",
        "obsTime": 1783879200,
        "rawOb": "METAR RCQC 121800Z 16008KT 9999 FEW012 SCT020 29/27 Q1004 RMK A2966 VIS N 9999M RVR N/A AWOS R20 N/A",
        "visib": "6.2",
        "status": "updated"
    }
]