[
    {
        "icaoId": "RCTP",
        "obsTime": 1784685600,
        "rawOb": "METAR RCTP 220200Z 26011KT 9999 FEW015 SCT025 32/25 Q1010 NOSIG RMK A2983(L)",
        "visib": "6.2",
        "status": "updated"
    },
    {
        "icaoId": "RCSS",
        "obsTime": 1784685600,
        "rawOb": "METAR RCSS 220200Z 27007KT 210V310 9999 FEW015 SCT030 33/26 Q1009 NOSIG RMK 31005KT/R10 A2982(A)",
        "visib": "6.2",
        "status": "updated"
    },
    {
        "icaoId": "RCKH",
        "obsTime": 1784685600,
        "rawOb": "METAR RCKH 220200Z 21003KT 150V300 9999 SCT016 33/25 Q1010 NOSIG RMK A2983(P)",
        "visib": "6.2",
        "status": "updated"
    },
    {
        "icaoId": "RCMQ",
        "obsTime": 1784685600,
        "rawOb": "METAR RCMQ 220200Z 22006KT 9999 FEW010 BKN020 33/26 Q1011 NOSIG RMK A2987",
        "visib": "6.2",
        "status": "updated"
    },
    {
        "icaoId": "RCBS",
        "obsTime": 1784685600,
        "rawOb": "METAR RCBS 220200Z 20009KT 180V250 9000 SCT012 30/29 Q1009 NOSIG RMK A2982(F)",
        "visib": "5.59",
        "status": "updated"
    },
    {
        "icaoId": "RCNN",
        "obsTime": 1784685600,
        "rawOb": "METAR RCNN 220200Z 20003KT 9999 FEW010 SCT020 31/25 Q1010 NOSIG RMK A2984",
        "visib": "6.2",
        "status": "updated"
    },
    {
        "icaoId": "RCYU",
        "obsTime": 1784685600,
        "rawOb": "METAR RCYU 220200Z 12004KT 9999 FEW030 33/24 Q1009 NOSIG RMK A2982",
        "visib": "6.2",
        "status": "updated"
    },
    {
        "icaoId": "RCQC",
        "obsTime": 1784685600,
        "rawOb": "METAR RCQC 220200Z 21005KT 9999 FEW008 SCT012 BKN200 30/28 Q1010 NOSIG RMK A2983 AWOS R20 N/A",
        "visib": "6.2",
        "status": "updated"
    }
]