[
    {
        "icaoId": "RCTP",
        "obsTime": 1783872000,
        "rawOb": "METAR RCTP 121600Z 01004KT 9999 FEW020 BKN032 29/27 Q1004 NOSIG RMK A2967(R)",
        "visib": "6.2",
        "status": "updated"
    },
    {
        "icaoId": "RCSS",
        "obsTime": 1783872000,
        "rawOb": "METAR RCSS 121600Z 31002KT 9999 FEW020 SCT080 BKN110 29/27 Q1004 NOSIG RMK A2966(X)",
        "visib": "6.2",
        "status": "updated"
    },
    {
        "icaoId": "RCKH",
        "obsTime": 1783872000,
        "rawOb": "METAR RCKH 121600Z 14012G22KT 110V170 9999 FEW010CB FEW012 SCT020 29/26 Q1005 NOSIG RMK CB S A2970(S)",
        "visib": "6.2",
        "status": "updated"
    },
    {
        "icaoId": "RCMQ",
        "obsTime": 1783868400,
        "rawOb": "METAR RCMQ 121500Z 19008KT 9999 FEW012 28/26 Q1006 RMK A2971",
        "visib": "6.2",
        "status": "updated"
    },
    {
        "icaoId": "RCBS",
        "obsTime": 1783861200,
        "rawOb": "METAR RCBS 121300Z 19015KT 7000 FEW009 BKN200 28/28 Q1002 NOSIG RMK 20013KT/R06 A2959(C)",
        "visib": "4.35",
        "status": "updated"
    },
    {
        "icaoId": "RCNN",
        "obsTime": 1783868400,
        "rawOb": "METAR RCNN 121500Z 16008KT 9999 FEW010 SCT080 27/24 Q1005 RMK A2970",
        "visib": "6.2",
        "status": "updated"
    },
    {
        "icaoId": "RCYU",
        "obsTime": 1783868400,
        "rawOb": "METAR RCYU 121500Z 23004KT 9999 FEW012 SCT080 28/27 Q1006 RMK A2973",
        "visib": "6.2",
        "status": "updated"
    },
    {
        "icaoId": "RCQC",
        "obsTime": 1783868400,
        "rawOb": "METAR RCQC 121500Z 16007KT 9999 FEW012 SCT020 29/28 Q1004 RMK A2967 VIS N 9999M RVR N/A AWOS R20 N/A",
        "visib": "6.2",
        "status": "updated"
    }
]