[
    {
        "icaoId": "RCTP",
        "obsTime": 1784388600,
        "rawOb": "METAR RCTP 181530Z 21010KT 9999 FEW020 28/24 Q1006 NOSIG RMK A2972(L)",
        "visib": "6.2",
        "status": "updated"
    },
    {
        "icaoId": "RCSS",
        "obsTime": 1784388600,
        "rawOb": "METAR RCSS 181530Z 27003KT 9999 FEW020 SCT080 29/25 Q1006 NOSIG RMK A2971(U)",
        "visib": "6.2",
        "status": "updated"
    },
    {
        "icaoId": "RCKH",
        "obsTime": 1784388600,
        "rawOb": "METAR RCKH 181530Z VRB02KT 9999 FEW015 SCT020 28/25 Q1008 NOSIG RMK A2977(Z)",
        "visib": "6.2",
        "status": "updated"
    },
    {
        "icaoId": "RCMQ",
        "obsTime": 1784386800,
        "rawOb": "METAR RCMQ 181500Z 19008KT 9999 FEW012 SCT150 27/25 Q1009 RMK A2980",
        "visib": "6.2",
        "status": "updated"
    },
    {
        "icaoId": "RCBS",
        "obsTime": 1784379600,
        "rawOb": "METAR RCBS 181300Z 23015KT 7000 FEW007 BKN012 BKN035 27/27 Q1005 NOSIG RMK 23011KT/R06 A2969(B)",
        "visib": "4.35",
        "status": "updated"
    },
    {
        "icaoId": "RCNN",
        "obsTime": 1784386800,
        "rawOb": "METAR RCNN 181500Z 15004KT 9999 FEW012 SCT040 BKN080 25/23 Q1008 RMK A2978",
        "visib": "6.2",
        "status": "updated"
    },
    {
        "icaoId": "RCYU",
        "obsTime": 1784386800,
        "rawOb": "METAR RCYU 181500Z 23002KT 9999 FEW012 SCT080 29/25 Q1006 RMK A2972",
        "visib": "6.2",
        "status": "updated"
    },
    {
        "icaoId": "RCQC",
        "obsTime": 1784386800,
        "rawOb": "METAR RCQC 181500Z 17007KT 9999 FEW010 SCT040 BKN120 28/27 Q1007 RMK A2977 AWOS R20 N/A",
        "visib": "6.2",
        "status": "updated"
    }
]