[
    {
        "icaoId": "RCTP",
        "obsTime": 1782637200,
        "rawOb": "METAR RCTP 280900Z 36005KT 9999 FEW015 FEW020TCU SCT035 BKN180 29/26 Q1008 NOSIG RMK TCU E A2977",
        "visib": "6",
        "status": "updated"
    },
    {
        "icaoId": "RCSS",
        "obsTime": 1782637620,
        "rawOb": "SPECI RCSS 280907Z VRB02KT 1100 R10/1200D SHRA FEW006 BKN016 FEW020CB BKN025 25/25 Q1008 NOSIG RMK CB NW A2978",
        "visib": "0.68",
        "status": "updated"
    },
    {
        "icaoId": "RCKH",
        "obsTime": 1782637200,
        "rawOb": "METAR RCKH 280900Z 21006KT 170V250 9999 FEW023 SCT150 32/25 Q1006 NOSIG RMK A2972",
        "visib": "6",
        "status": "updated"
    },
    {
        "icaoId": "RCMQ",
        "obsTime": 1782637200,
        "rawOb": "METAR RCMQ 280900Z 29005KT 9999 FEW012 BKN100 30/27 Q1008 NOSIG RMK A2978",
        "visib": "6",
        "status": "updated"
    },
    {
        "icaoId": "RCBS",
        "obsTime": 1779233400,
        "rawOb": "METAR RCBS 192330Z 22004KT 180V240 9999 FEW010 SCT018 BKN070 25/25 Q1009 NOSIG RMK A2980(E)",
        "visib": "6.2",
        "status": "old_data_kept"
    },
    {
        "icaoId": "RCNN",
        "obsTime": 1782637200,
        "rawOb": "METAR RCNN 280900Z 24005KT 9999 FEW012 SCT080 BKN200 31/25 Q1007 NOSIG RMK A2975",
        "visib": "6",
        "status": "updated"
    },
    {
        "icaoId": "RCYU",
        "obsTime": 1779233400,
        "rawOb": "METAR RCYU 192330Z 24004KT 9999 FEW012 SCT040 BKN100 26/20 Q1010 NOSIG RMK A2982",
        "visib": "6.2",
        "status": "old_data_kept"
    },
    {
        "icaoId": "RCQC",
        "obsTime": 1782637200,
        "rawOb": "METAR RCQC 280900Z 16004KT 9999 FEW010 SCT030 BKN100 31/28 Q1006 NOSIG RMK A2972",
        "visib": "6",
        "status": "updated"
    }
]