[
    {
        "icaoId": "RCTP",
        "obsTime": 1783629000,
        "rawOb": "METAR RCTP 092030Z 05009KT 9999 FEW012 SCT040 28/25 Q1002 NOSIG RMK A2961(V)",
        "visib": "6.2",
        "status": "updated"
    },
    {
        "icaoId": "RCSS",
        "obsTime": 1783629300,
        "rawOb": "SPECI RCSS 092035Z 10006KT 9999 FEW015 28/26 Q1002 NOSIG RMK A2960(N)",
        "visib": "6.2",
        "status": "updated"
    },
    {
        "icaoId": "RCKH",
        "obsTime": 1783627200,
        "rawOb": "METAR RCKH 092000Z 33008KT 290V360 9999 FEW013 SCT018 BKN032 29/25 Q1001 NOSIG RMK QFF 1001.7HPA A2958(P)",
        "visib": "6.2",
        "status": "updated"
    },
    {
        "icaoId": "RCMQ",
        "obsTime": 1783629000,
        "rawOb": "METAR RCMQ 092030Z 34002KT 9999 FEW012 BKN020 26/25 Q1003 RMK A2962 QFF1003.2HPA",
        "visib": "6.2",
        "status": "updated"
    },
    {
        "icaoId": "RCBS",
        "obsTime": 1783623600,
        "rawOb": "METAR RCBS 091900Z 34002KT 9999 FEW015 26/26 Q1004 NOSIG RMK QFF 1004.0HPA A2965(G)",
        "visib": "6.2",
        "status": "updated"
    },
    {
        "icaoId": "RCNN",
        "obsTime": 1783629000,
        "rawOb": "METAR RCNN 092030Z COR 33004KT 9999 FEW010 BKN025 27/24 Q1001 RMK A2958",
        "visib": "6",
        "status": "updated"
    },
    {
        "icaoId": "RCYU",
        "obsTime": 1783629000,
        "rawOb": "METAR RCYU 092030Z 22001KT 9999 FEW012 26/21 Q1000 RMK A2955",
        "visib": "6.2",
        "status": "updated"
    },
    {
        "icaoId": "RCQC",
        "obsTime": 1783629000,
        "rawOb": "METAR RCQC 092030Z 34010KT 9999 FEW010 BKN030 28/27 Q1002 RMK A2959",
        "visib": "6.2",
        "status": "updated"
    }
]