[
    {
        "icaoId": "RCTP",
        "obsTime": 1781098200,
        "rawOb": "METAR RCTP 101330Z 07008KT 9999 FEW012 SCT030 BKN050 23/21 Q1012 NOSIG RMK A2989",
        "visib": "6",
        "status": "updated"
    },
    {
        "icaoId": "RCSS",
        "obsTime": 1781098200,
        "rawOb": "METAR RCSS 101330Z 11004KT 090V150 9999 FEW012 SCT023 BKN033 23/22 Q1012 NOSIG RMK A2989",
        "visib": "6",
        "status": "updated"
    },
    {
        "icaoId": "RCKH",
        "obsTime": 1781098200,
        "rawOb": "METAR RCKH 101330Z 21006KT 170V240 9999 FEW014 SCT040 BKN060 28/25 Q1010 NOSIG RMK A2984",
        "visib": "6",
        "status": "updated"
    },
    {
        "icaoId": "RCMQ",
        "obsTime": 1781098200,
        "rawOb": "METAR RCMQ 101330Z 04006KT 9999 FEW006 SCT014 BKN020 23/22 Q1011 NOSIG RMK A2988",
        "visib": "6",
        "status": "updated"
    },
    {
        "icaoId": "RCBS",
        "obsTime": 1779233400,
        "rawOb": "METAR RCBS 192330Z 22004KT 180V240 9999 FEW010 SCT018 BKN070 25/25 Q1009 NOSIG RMK A2980(E)",
        "visib": "6.2",
        "status": "old_data_kept"
    },
    {
        "icaoId": "RCNN",
        "obsTime": 1781098200,
        "rawOb": "METAR RCNN 101330Z 36003KT 9999 FEW010 SCT021 BKN050 26/23 Q1011 RMK A2986",
        "visib": "6",
        "status": "updated"
    },
    {
        "icaoId": "RCYU",
        "obsTime": 1779233400,
        "rawOb": "METAR RCYU 192330Z 24004KT 9999 FEW012 SCT040 BKN100 26/20 Q1010 NOSIG RMK A2982",
        "visib": "6.2",
        "status": "old_data_kept"
    },
    {
        "icaoId": "RCQC",
        "obsTime": 1781098200,
        "rawOb": "METAR RCQC 101330Z 03012KT 9999 SCT006 BKN012 BKN018 26/23 Q1011 NOSIG RMK A2985",
        "visib": "6",
        "status": "updated"
    }
]