[
    {
        "icaoId": "RCTP",
        "obsTime": 1779015600,
        "rawOb": "METAR RCTP 171100Z 07015KT CAVOK 26/18 Q1010 WS R05L NOSIG RMK A2984",
        "visib": "6",
        "status": "updated"
    },
    {
        "icaoId": "RCSS",
        "obsTime": 1779015600,
        "rawOb": "METAR RCSS 171100Z 09015KT 9999 FEW025 SCT045 25/19 Q1012 NOSIG RMK A2989",
        "visib": "6",
        "status": "updated"
    },
    {
        "icaoId": "RCKH",
        "obsTime": 1779015600,
        "rawOb": "METAR RCKH 171100Z 07005KT 9999 VCSH SCT014 SCT022 BKN052 26/21 Q1010 NOSIG RMK A2984",
        "visib": "6",
        "status": "updated"
    },
    {
        "icaoId": "RCMQ",
        "obsTime": 1779015600,
        "rawOb": "METAR RCMQ 171100Z 28002KT 9999 FEW012 26/21 Q1011 NOSIG RMK A2985",
        "visib": "6",
        "status": "updated"
    },
    {
        "icaoId": "RCBS",
        "obsTime": 0,
        "rawOb": "",
        "visib": "",
        "status": "old_data_kept"
    },
    {
        "icaoId": "RCNN",
        "obsTime": 1779015600,
        "rawOb": "METAR RCNN 171100Z 24003KT 9999 FEW012 SCT025 BKN080 27/23 Q1011 NOSIG RMK A2986",
        "visib": "6",
        "status": "updated"
    },
    {
        "icaoId": "RCYU",
        "obsTime": 0,
        "rawOb": "",
        "visib": "",
        "status": "old_data_kept"
    },
    {
        "icaoId": "RCQC",
        "obsTime": 1779015600,
        "rawOb": "METAR RCQC 171100Z 01012KT 9999 FEW012 SCT100 26/22 Q1010 NOSIG RMK A2985",
        "visib": "6",
        "status": "updated"
    }
]