[
    {
        "icaoId": "RCTP",
        "obsTime": 1783616400,
        "rawOb": "METAR RCTP 091700Z 06010KT 9999 FEW020 28/25 Q1004 NOSIG RMK QFF 1004.0HPA A2965(O)",
        "visib": "6.2",
        "status": "updated"
    },
    {
        "icaoId": "RCSS",
        "obsTime": 1783616400,
        "rawOb": "METAR RCSS 091700Z 10008KT 9999 VCSH FEW013 SCT020 28/27 Q1004 NOSIG RMK QFF 1004.1HPA A2965(I)",
        "visib": "6.2",
        "status": "updated"
    },
    {
        "icaoId": "RCKH",
        "obsTime": 1783616400,
        "rawOb": "METAR RCKH 091700Z 31008KT 9999 FEW013 SCT018 BKN032 29/25 Q1003 NOSIG RMK QFF 1003.0HPA A2962(M)",
        "visib": "6.2",
        "status": "updated"
    },
    {
        "icaoId": "RCMQ",
        "obsTime": 1783616400,
        "rawOb": "METAR RCMQ 091700Z 35004KT 9999 FEW012 25/22 Q1004 RMK A2965 QFF1004.0HPA",
        "visib": "6.2",
        "status": "updated"
    },
    {
        "icaoId": "RCBS",
        "obsTime": 1783616400,
        "rawOb": "METAR RCBS 091700Z 05004KT 9999 FEW015 26/26 Q1005 NOSIG RMK QFF 1005.1HPA A2968(E)",
        "visib": "6.2",
        "status": "updated"
    },
    {
        "icaoId": "RCNN",
        "obsTime": 1783616400,
        "rawOb": "METAR RCNN 091700Z 33006KT 9999 FEW010 BKN025 28/24 Q1003 RMK A2962 QFF1003.3HPA",
        "visib": "6.2",
        "status": "updated"
    },
    {
        "icaoId": "RCYU",
        "obsTime": 1783616400,
        "rawOb": "METAR RCYU 091700Z 35001KT 9999 FEW012 27/23 Q1003 RMK A2964 QFF1003.7HPA",
        "visib": "6.2",
        "status": "updated"
    },
    {
        "icaoId": "RCQC",
        "obsTime": 1783616400,
        "rawOb": "METAR RCQC 091700Z 34008KT 9999 FEW010 SCT020 28/27 Q1003 RMK A2964 QFF1003.9HPA",
        "visib": "6.2",
        "status": "updated"
    }
]