[
    {
        "icaoId": "RCTP",
        "obsTime": 1781024400,
        "rawOb": "METAR RCTP 091700Z 03013KT 9999 -SHRA FEW005 BKN008 BKN015 23/23 Q1006 NOSIG RMK A2972 RA AMT 0.2MM",
        "visib": "6",
        "status": "updated"
    },
    {
        "icaoId": "RCSS",
        "obsTime": 1781020800,
        "rawOb": "METAR RCSS 091600Z 10007KT 9999 -SHRA FEW008 SCT020 BKN050 23/23 Q1006 NOSIG RMK A2971",
        "visib": "6",
        "status": "updated"
    },
    {
        "icaoId": "RCKH",
        "obsTime": 1781024640,
        "rawOb": "SPECI RCKH 091704Z 18008KT 130V240 6000 -SHRA FEW004 SCT010 BKN015 27/25 Q1004 NOSIG RMK A2967",
        "visib": "3.73",
        "status": "updated"
    },
    {
        "icaoId": "RCMQ",
        "obsTime": 1781020800,
        "rawOb": "METAR RCMQ 091600Z 03006KT 1600 RA BR SCT004 BKN006 OVC020 24/24 Q1006 RMK A2971 RA AMT 4.0MM",
        "visib": "0.99",
        "status": "updated"
    },
    {
        "icaoId": "RCBS",
        "obsTime": 1779233400,
        "rawOb": "METAR RCBS 192330Z 22004KT 180V240 9999 FEW010 SCT018 BKN070 25/25 Q1009 NOSIG RMK A2980(E)",
        "visib": "6.2",
        "status": "old_data_kept"
    },
    {
        "icaoId": "RCNN",
        "obsTime": 1781023260,
        "rawOb": "SPECI RCNN 091641Z 15007KT 2400 RA VCTS BR SCT006 FEW010CB BKN012 OVC030 26/25 Q1005 RMK A2969 TS SW MOV E",
        "visib": "1.49",
        "status": "updated"
    },
    {
        "icaoId": "RCYU",
        "obsTime": 1779233400,
        "rawOb": "METAR RCYU 192330Z 24004KT 9999 FEW012 SCT040 BKN100 26/20 Q1010 NOSIG RMK A2982",
        "visib": "6.2",
        "status": "old_data_kept"
    },
    {
        "icaoId": "RCQC",
        "obsTime": 1781020800,
        "rawOb": "METAR RCQC 091600Z 13004KT 9999 SCT003 BKN006 BKN016 27/26 Q1003 RMK A2964",
        "visib": "6",
        "status": "updated"
    }
]