[
    {
        "icaoId": "RCTP",
        "obsTime": 1783533600,
        "rawOb": "METAR RCTP 081800Z 27002KT 9999 FEW015 28/24 Q1006 NOSIG RMK A2972(U)",
        "visib": "6.2",
        "status": "updated"
    },
    {
        "icaoId": "RCSS",
        "obsTime": 1783533600,
        "rawOb": "METAR RCSS 081800Z 08003KT 9999 FEW025 27/25 Q1006 NOSIG RMK A2972(Q)",
        "visib": "6.2",
        "status": "updated"
    },
    {
        "icaoId": "RCKH",
        "obsTime": 1783533600,
        "rawOb": "METAR RCKH 081800Z 33003KT 290V010 9999 FEW018 SCT030 30/23 Q1006 NOSIG RMK A2971(V)",
        "visib": "6.2",
        "status": "updated"
    },
    {
        "icaoId": "RCMQ",
        "obsTime": 1783533600,
        "rawOb": "METAR RCMQ 081800Z 24002KT 9999 FEW012 25/23 Q1008 RMK A2977",
        "visib": "6.2",
        "status": "updated"
    },
    {
        "icaoId": "RCBS",
        "obsTime": 1783515600,
        "rawOb": "METAR RCBS 081300Z 20014KT 9999 FEW020 29/29 Q1006 NOSIG RMK 21010KT/R06 A2973(R)",
        "visib": "6.2",
        "status": "updated"
    },
    {
        "icaoId": "RCNN",
        "obsTime": 1783533600,
        "rawOb": "METAR RCNN 081800Z 35002KT 9999 FEW012 27/24 Q1007 RMK A2974",
        "visib": "6.2",
        "status": "updated"
    },
    {
        "icaoId": "RCYU",
        "obsTime": 1783533600,
        "rawOb": "METAR RCYU 081800Z 25001KT 9999 FEW012 27/24 Q1007 RMK A2975",
        "visib": "6.2",
        "status": "updated"
    },
    {
        "icaoId": "RCQC",
        "obsTime": 1783533600,
        "rawOb": "METAR RCQC 081800Z 23001KT 9999 FEW012 27/26 Q1006 RMK A2971 AWOS R20 N/A",
        "visib": "6.2",
        "status": "updated"
    }
]