[
    {
        "icaoId": "RCTP",
        "obsTime": 1784665800,
        "rawOb": "METAR RCTP 212030Z 17006KT 150V210 9999 FEW015 BKN200 27/23 Q1009 NOSIG RMK A2980(Z)",
        "visib": "6.2",
        "status": "updated"
    },
    {
        "icaoId": "RCSS",
        "obsTime": 1784664000,
        "rawOb": "METAR RCSS 212000Z VRB02KT 9999 FEW020 SCT150 26/26 Q1009 NOSIG RMK A2981(P)",
        "visib": "6.2",
        "status": "updated"
    },
    {
        "icaoId": "RCKH",
        "obsTime": 1784664000,
        "rawOb": "METAR RCKH 212000Z 06003KT 9999 FEW014 SCT022 BKN056 27/25 Q1009 NOSIG RMK A2981(F)",
        "visib": "6.2",
        "status": "updated"
    },
    {
        "icaoId": "RCMQ",
        "obsTime": 1784665800,
        "rawOb": "METAR RCMQ 212030Z 19005KT 9999 FEW006 SCT010 BKN020 26/24 Q1011 RMK A2985",
        "visib": "6.2",
        "status": "updated"
    },
    {
        "icaoId": "RCBS",
        "obsTime": 1784638800,
        "rawOb": "METAR RCBS 211300Z 20010KT 8000 FEW012 SCT200 28/28 Q1008 NOSIG RMK 21007KT/R06 A2979(Q)",
        "visib": "4.97",
        "status": "updated"
    },
    {
        "icaoId": "RCNN",
        "obsTime": 1784665800,
        "rawOb": "METAR RCNN 212030Z 10002KT 9999 FEW008 SCT040 25/22 Q1009 RMK A2981",
        "visib": "6.2",
        "status": "updated"
    },
    {
        "icaoId": "RCYU",
        "obsTime": 1784665800,
        "rawOb": "METAR RCYU 212030Z 23002KT 9999 FEW012 SCT080 27/24 Q1010 RMK A2982",
        "visib": "6.2",
        "status": "updated"
    },
    {
        "icaoId": "RCQC",
        "obsTime": 1784665800,
        "rawOb": "METAR RCQC 212030Z 19003KT 9999 FEW012 27/27 Q1009 RMK A2980 AWOS R20 N/A",
        "visib": "6.2",
        "status": "updated"
    }
]