[
    {
        "icaoId": "RCTP",
        "obsTime": 1778954400,
        "rawOb": "METAR RCTP 161800Z 07016KT 9999 FEW015 24/18 Q1012 WS ALL RWY NOSIG RMK A2989",
        "visib": "6",
        "status": "updated"
    },
    {
        "icaoId": "RCSS",
        "obsTime": 1778954400,
        "rawOb": "METAR RCSS 161800Z 09010KT 9999 FEW020 24/19 Q1013 NOSIG RMK A2993",
        "visib": "6",
        "status": "updated"
    },
    {
        "icaoId": "RCKH",
        "obsTime": 1778954400,
        "rawOb": "METAR RCKH 161800Z 03003KT 360V060 9999 VCSH FEW016 SCT030 BKN100 25/22 Q1011 NOSIG RMK A2986",
        "visib": "6",
        "status": "updated"
    },
    {
        "icaoId": "RCMQ",
        "obsTime": 1778954400,
        "rawOb": "METAR RCMQ 161800Z 18005KT 9999 FEW012 SCT200 25/22 Q1012 RMK A2989",
        "visib": "6",
        "status": "updated"
    },
    {
        "icaoId": "RCBS",
        "obsTime": 0,
        "rawOb": "",
        "visib": "",
        "status": "old_data_kept"
    },
    {
        "icaoId": "RCNN",
        "obsTime": 1778954400,
        "rawOb": "METAR RCNN 161800Z 09004KT 9999 FEW012 BKN080 25/21 Q1011 RMK A2988",
        "visib": "6",
        "status": "updated"
    },
    {
        "icaoId": "RCYU",
        "obsTime": 0,
        "rawOb": "",
        "visib": "",
        "status": "old_data_kept"
    },
    {
        "icaoId": "RCQC",
        "obsTime": 1778954400,
        "rawOb": "METAR RCQC 161800Z 35006KT 9999 FEW012 BKN200 25/23 Q1011 RMK A2985",
        "visib": "6",
        "status": "updated"
    }
]