[
    {
        "icaoId": "RCTP",
        "obsTime": 1781011800,
        "rawOb": "METAR RCTP 091330Z 04014KT 9999 -SHRA FEW007 BKN010 BKN015 23/23 Q1007 NOSIG RMK A2975",
        "visib": "6",
        "status": "updated"
    },
    {
        "icaoId": "RCSS",
        "obsTime": 1781011800,
        "rawOb": "METAR RCSS 091330Z 11004KT 9000 -SHRA FEW008 BKN018 BKN035 23/23 Q1007 NOSIG RMK A2974",
        "visib": "5.59",
        "status": "updated"
    },
    {
        "icaoId": "RCKH",
        "obsTime": 1781011800,
        "rawOb": "METAR RCKH 091330Z 11006KT 9999 FEW015 SCT045 BKN075 27/24 Q1005 NOSIG RMK A2970",
        "visib": "6",
        "status": "updated"
    },
    {
        "icaoId": "RCMQ",
        "obsTime": 1781011800,
        "rawOb": "METAR RCMQ 091330Z 00000KT 4800 -RA BR SCT004 BKN006 OVC020 25/25 Q1007 NOSIG RMK A2973",
        "visib": "2.98",
        "status": "updated"
    },
    {
        "icaoId": "RCBS",
        "obsTime": 1779233400,
        "rawOb": "METAR RCBS 192330Z 22004KT 180V240 9999 FEW010 SCT018 BKN070 25/25 Q1009 NOSIG RMK A2980(E)",
        "visib": "6.2",
        "status": "old_data_kept"
    },
    {
        "icaoId": "RCNN",
        "obsTime": 1781011800,
        "rawOb": "METAR RCNN 091330Z 15006KT 7000 -RA FEW006 BKN016 BKN040 26/25 Q1006 RMK A2971",
        "visib": "4.35",
        "status": "updated"
    },
    {
        "icaoId": "RCYU",
        "obsTime": 1779233400,
        "rawOb": "METAR RCYU 192330Z 24004KT 9999 FEW012 SCT040 BKN100 26/20 Q1010 NOSIG RMK A2982",
        "visib": "6.2",
        "status": "old_data_kept"
    },
    {
        "icaoId": "RCQC",
        "obsTime": 1781011800,
        "rawOb": "METAR RCQC 091330Z 04011KT 3000 RA BR SCT003 BKN006 BKN016 25/25 Q1004 NOSIG RMK A2966",
        "visib": "1.86",
        "status": "updated"
    }
]