[
    {
        "icaoId": "RCTP",
        "obsTime": 1783528200,
        "rawOb": "METAR RCTP 081630Z 25003KT 140V310 9999 FEW015 29/25 Q1007 NOSIG RMK A2974(Q)",
        "visib": "6.2",
        "status": "updated"
    },
    {
        "icaoId": "RCSS",
        "obsTime": 1783526400,
        "rawOb": "METAR RCSS 081600Z 11003KT 9999 FEW025 28/25 Q1007 NOSIG RMK A2974(O)",
        "visib": "6.2",
        "status": "updated"
    },
    {
        "icaoId": "RCKH",
        "obsTime": 1783526400,
        "rawOb": "METAR RCKH 081600Z 32005KT 9999 FEW016 SCT040 BKN060 30/24 Q1007 NOSIG RMK A2975(T)",
        "visib": "6.2",
        "status": "updated"
    },
    {
        "icaoId": "RCMQ",
        "obsTime": 1783526400,
        "rawOb": "METAR RCMQ 081600Z 00000KT 9999 FEW012 25/23 Q1009 RMK A2979",
        "visib": "6.2",
        "status": "updated"
    },
    {
        "icaoId": "RCBS",
        "obsTime": 1783515600,
        "rawOb": "METAR RCBS 081300Z 20014KT 9999 FEW020 29/29 Q1006 NOSIG RMK 21010KT/R06 A2973(R)",
        "visib": "6.2",
        "status": "updated"
    },
    {
        "icaoId": "RCNN",
        "obsTime": 1783526400,
        "rawOb": "METAR RCNN 081600Z 00000KT 9999 FEW012 SCT060 29/24 Q1008 RMK A2977",
        "visib": "6.2",
        "status": "updated"
    },
    {
        "icaoId": "RCYU",
        "obsTime": 1783526400,
        "rawOb": "METAR RCYU 081600Z 25002KT 9999 FEW012 28/25 Q1008 RMK A2978",
        "visib": "6.2",
        "status": "updated"
    },
    {
        "icaoId": "RCQC",
        "obsTime": 1783526400,
        "rawOb": "METAR RCQC 081600Z 21003KT 9999 FEW012 27/26 Q1007 RMK A2975 AWOS R20 N/A",
        "visib": "6.2",
        "status": "updated"
    }
]