[
    {
        "icaoId": "RCTP",
        "obsTime": 1784073600,
        "rawOb": "METAR RCTP 150000Z 23011KT 9999 FEW015 SCT200 31/26 Q1010 NOSIG RMK A2983(V)",
        "visib": "6.2",
        "status": "updated"
    },
    {
        "icaoId": "RCSS",
        "obsTime": 1784073600,
        "rawOb": "METAR RCSS 150000Z VRB02KT 9999 FEW020 33/28 Q1010 NOSIG RMK A2983(J)",
        "visib": "6.2",
        "status": "updated"
    },
    {
        "icaoId": "RCKH",
        "obsTime": 1784073600,
        "rawOb": "METAR RCKH 150000Z 10010KT 9999 FEW014 SCT024 BKN200 29/25 Q1011 NOSIG RMK A2987(E)",
        "visib": "6.2",
        "status": "updated"
    },
    {
        "icaoId": "RCMQ",
        "obsTime": 1784073600,
        "rawOb": "METAR RCMQ 150000Z 18012KT 9999 FEW010 30/25 Q1011 NOSIG RMK A2987",
        "visib": "6.2",
        "status": "updated"
    },
    {
        "icaoId": "RCBS",
        "obsTime": 1784073600,
        "rawOb": "METAR RCBS 150000Z 14006KT 090V180 7000 -SHRA FEW006 SCT011 FEW016TCU BKN070 27/27 Q1008 RESHRA NOSIG RMK TCU SE A2979 RA AMT 4.8MM(T)",
        "visib": "4.35",
        "status": "updated"
    },
    {
        "icaoId": "RCNN",
        "obsTime": 1784073600,
        "rawOb": "METAR RCNN 150000Z 14006KT 9999 FEW014 SCT025 BKN080 29/26 Q1011 NOSIG RMK A2985",
        "visib": "6.2",
        "status": "updated"
    },
    {
        "icaoId": "RCYU",
        "obsTime": 1784073600,
        "rawOb": "METAR RCYU 150000Z 11004KT 9999 FEW025 32/26 Q1010 NOSIG RMK A2983",
        "visib": "6.2",
        "status": "updated"
    },
    {
        "icaoId": "RCQC",
        "obsTime": 1784073600,
        "rawOb": "METAR RCQC 150000Z 16007KT 9999 FEW012 30/28 Q1009 NOSIG RMK A2982 AWOS R20 N/A",
        "visib": "6.2",
        "status": "updated"
    }
]