[
    {
        "icaoId": "RCTP",
        "obsTime": 1784059200,
        "rawOb": "METAR RCTP 142000Z 15003KT 9999 FEW015 SCT100 27/25 Q1008 NOSIG RMK A2979(N)",
        "visib": "6.2",
        "status": "updated"
    },
    {
        "icaoId": "RCSS",
        "obsTime": 1784059200,
        "rawOb": "METAR RCSS 142000Z VRB01KT 9999 FEW020 SCT050 BKN120 27/27 Q1008 NOSIG RMK A2979(D)",
        "visib": "6.2",
        "status": "updated"
    },
    {
        "icaoId": "RCKH",
        "obsTime": 1784059200,
        "rawOb": "METAR RCKH 142000Z 18007KT 140V220 9999 -RA FEW008CB FEW014 SCT022 29/26 Q1009 NOSIG RMK CB NE A2982(V)",
        "visib": "6.2",
        "status": "updated"
    },
    {
        "icaoId": "RCMQ",
        "obsTime": 1784059200,
        "rawOb": "METAR RCMQ 142000Z 19005KT 9999 FEW010 SCT050 26/24 Q1010 RMK A2984",
        "visib": "6.2",
        "status": "updated"
    },
    {
        "icaoId": "RCBS",
        "obsTime": 1784034000,
        "rawOb": "METAR RCBS 141300Z 19011KT 9999 FEW008 SCT013 BKN045 28/28 Q1008 BECMG 5000 SHRA RMK 19010KT/R06 A2978(I)",
        "visib": "6.2",
        "status": "updated"
    },
    {
        "icaoId": "RCNN",
        "obsTime": 1784059200,
        "rawOb": "METAR RCNN 142000Z 20005KT 8000 -RA FEW012 BKN025 BKN040 24/22 Q1010 RMK A2983 RA AMT 0.6MM",
        "visib": "4.97",
        "status": "updated"
    },
    {
        "icaoId": "RCYU",
        "obsTime": 1784059200,
        "rawOb": "METAR RCYU 142000Z 03003KT 9999 FEW012 SCT030 28/26 Q1009 RMK A2981",
        "visib": "6.2",
        "status": "updated"
    },
    {
        "icaoId": "RCQC",
        "obsTime": 1784059200,
        "rawOb": "METAR RCQC 142000Z 19004KT 9999 FEW012 SCT030 BKN060 28/27 Q1008 RMK A2978 AWOS R20 N/A",
        "visib": "6.2",
        "status": "updated"
    }
]