[
    {
        "icaoId": "RCTP",
        "obsTime": 1782342000,
        "rawOb": "METAR RCTP 242300Z 25010KT 9999 VCSH FEW007 FEW010TCU BKN015 29/26 Q1003 NOSIG RMK TCU N-NE A2962",
        "visib": "6",
        "status": "updated"
    },
    {
        "icaoId": "RCSS",
        "obsTime": 1782342120,
        "rawOb": "SPECI RCSS 242302Z 35004KT 300V040 3800 SHRA SCT008 BKN018 BKN025 27/27 Q1003 RESHRA NOSIG RMK 36003KT/R10 A2962",
        "visib": "2.36",
        "status": "updated"
    },
    {
        "icaoId": "RCKH",
        "obsTime": 1782342000,
        "rawOb": "METAR RCKH 242300Z 28011KT 250V320 9000 -SHRA FEW006 FEW009CB SCT014 BKN042 29/27 Q1003 NOSIG RMK 27011KT/R09 CB E A2964",
        "visib": "5.59",
        "status": "updated"
    },
    {
        "icaoId": "RCMQ",
        "obsTime": 1782340800,
        "rawOb": "SPECI RCMQ 242240Z 18005KT 6000 FEW010 SCT030 BKN200 28/27 Q1005 NOSIG RMK A2968",
        "visib": "3.73",
        "status": "updated"
    },
    {
        "icaoId": "RCBS",
        "obsTime": 1779233400,
        "rawOb": "METAR RCBS 192330Z 22004KT 180V240 9999 FEW010 SCT018 BKN070 25/25 Q1009 NOSIG RMK A2980(E)",
        "visib": "6.2",
        "status": "old_data_kept"
    },
    {
        "icaoId": "RCNN",
        "obsTime": 1782340200,
        "rawOb": "METAR RCNN 242230Z 30008KT 9000 VCTS VCSH SCT010 FEW012CB BKN020 BKN030 28/26 Q1004 NOSIG RMK A2965 TS SE STNRY VCSH E-SE",
        "visib": "5.59",
        "status": "updated"
    },
    {
        "icaoId": "RCYU",
        "obsTime": 1779233400,
        "rawOb": "METAR RCYU 192330Z 24004KT 9999 FEW012 SCT040 BKN100 26/20 Q1010 NOSIG RMK A2982",
        "visib": "6.2",
        "status": "old_data_kept"
    },
    {
        "icaoId": "RCQC",
        "obsTime": 1782342180,
        "rawOb": "SPECI RCQC 242303Z 17006KT 6000 FEW002 BKN006 FEW010CB BKN040 29/28 Q1003 NOSIG RMK A2965 CB SW MOV S",
        "visib": "3.73",
        "status": "updated"
    }
]