[
    {
        "icaoId": "RCTP",
        "obsTime": 1779042600,
        "rawOb": "METAR RCTP 171830Z 10014KT 9999 FEW020 BKN040 25/18 Q1010 NOSIG RMK A2983",
        "visib": "6",
        "status": "updated"
    },
    {
        "icaoId": "RCSS",
        "obsTime": 1779040800,
        "rawOb": "METAR RCSS 171800Z 09009KT 9999 FEW020 23/19 Q1011 NOSIG RMK A2986",
        "visib": "6",
        "status": "updated"
    },
    {
        "icaoId": "RCKH",
        "obsTime": 1779040800,
        "rawOb": "METAR RCKH 171800Z 05003KT 360V090 9999 FEW022 SCT040 BKN080 26/21 Q1010 NOSIG RMK A2983",
        "visib": "6",
        "status": "updated"
    },
    {
        "icaoId": "RCMQ",
        "obsTime": 1779040800,
        "rawOb": "METAR RCMQ 171800Z 17005KT 9999 FEW012 BKN025 25/23 Q1011 RMK A2986",
        "visib": "6",
        "status": "updated"
    },
    {
        "icaoId": "RCBS",
        "obsTime": 0,
        "rawOb": "",
        "visib": "",
        "status": "old_data_kept"
    },
    {
        "icaoId": "RCNN",
        "obsTime": 1779040800,
        "rawOb": "METAR RCNN 171800Z 00000KT 9999 FEW012 BKN060 25/22 Q1011 RMK A2985",
        "visib": "6",
        "status": "updated"
    },
    {
        "icaoId": "RCYU",
        "obsTime": 0,
        "rawOb": "",
        "visib": "",
        "status": "old_data_kept"
    },
    {
        "icaoId": "RCQC",
        "obsTime": 1779040800,
        "rawOb": "METAR RCQC 171800Z 33005KT 9999 FEW010 SCT020 25/23 Q1010 RMK A2984",
        "visib": "6",
        "status": "updated"
    }
]