[
    {
        "icaoId": "RCTP",
        "obsTime": 1782376200,
        "rawOb": "METAR RCTP 250830Z 32007KT 9999 VCSH FEW008 BKN012 FEW015CB BKN020 29/26 Q1002 NOSIG RMK CB S-SW A2960",
        "visib": "6",
        "status": "updated"
    },
    {
        "icaoId": "RCSS",
        "obsTime": 1782376500,
        "rawOb": "SPECI RCSS 250835Z 29009KT 260V320 9000 FEW010 BKN020 BKN060 29/27 Q1001 NOSIG RMK 30009KT/R10 A2958",
        "visib": "5.59",
        "status": "updated"
    },
    {
        "icaoId": "RCKH",
        "obsTime": 1782376200,
        "rawOb": "METAR RCKH 250830Z 28008KT 250V320 8000 VCTS -SHRA SCT008 SCT010CB SCT012 BKN040 29/28 Q1003 NOSIG RMK 28008KT/R09 TS N-E MOV SE A2963",
        "visib": "4.97",
        "status": "updated"
    },
    {
        "icaoId": "RCMQ",
        "obsTime": 1782376680,
        "rawOb": "SPECI RCMQ 250838Z 18010KT 2400 RA VCTS BR SCT004 BKN008 FEW010CB BKN030 26/26 Q1003 RETS RERA NOSIG RMK A2964 TS NE MOV VRBL",
        "visib": "1.49",
        "status": "updated"
    },
    {
        "icaoId": "RCBS",
        "obsTime": 1779233400,
        "rawOb": "METAR RCBS 192330Z 22004KT 180V240 9999 FEW010 SCT018 BKN070 25/25 Q1009 NOSIG RMK A2980(E)",
        "visib": "6.2",
        "status": "old_data_kept"
    },
    {
        "icaoId": "RCNN",
        "obsTime": 1782376200,
        "rawOb": "METAR RCNN 250830Z 36004KT 7000 -RA SCT008 FEW010CB BKN020 BKN040 28/25 Q1004 NOSIG RMK A2966 CB S MOV SE",
        "visib": "4.35",
        "status": "updated"
    },
    {
        "icaoId": "RCYU",
        "obsTime": 1779233400,
        "rawOb": "METAR RCYU 192330Z 24004KT 9999 FEW012 SCT040 BKN100 26/20 Q1010 NOSIG RMK A2982",
        "visib": "6.2",
        "status": "old_data_kept"
    },
    {
        "icaoId": "RCQC",
        "obsTime": 1782376500,
        "rawOb": "SPECI RCQC 250835Z 20008KT 9999 SCT005 BKN010 BKN040 30/28 Q1002 NOSIG RMK A2961",
        "visib": "6",
        "status": "updated"
    }
]