[
    {
        "icaoId": "RCTP",
        "obsTime": 1783708200,
        "rawOb": "METAR RCTP 101830Z 03019G33KT 350V050 7000 -SHRA SCT010 BKN020 BKN035 27/26 Q0991 RESHRA WS ALL RWY NOSIG RMK A2929(L)",
        "visib": "4.35",
        "status": "updated"
    },
    {
        "icaoId": "RCSS",
        "obsTime": 1783707120,
        "rawOb": "SPECI RCSS 101812Z 05009G19KT 330V130 3000 SHRA SCT005 BKN020 BKN035 27/25 Q0991 WS R10 NOSIG RMK A2927(B)",
        "visib": "1.86",
        "status": "updated"
    },
    {
        "icaoId": "RCKH",
        "obsTime": 1783706520,
        "rawOb": "SPECI RCKH 101802Z 34020G32KT 9999 -SHRA FEW014 FEW016TCU SCT025 BKN150 29/23 Q0991 NOSIG RMK TCU W A2927(J)",
        "visib": "6.2",
        "status": "updated"
    },
    {
        "icaoId": "RCMQ",
        "obsTime": 1783706400,
        "rawOb": "METAR RCMQ 101800Z 01025G35KT 5000 RA BR FEW004 FEW010CB BKN016 BKN030 26/26 Q0993 RMK A2932 RA AMT 4.0MM CB SW QFF993.0HPA",
        "visib": "3.11",
        "status": "updated"
    },
    {
        "icaoId": "RCBS",
        "obsTime": 1783688400,
        "rawOb": "METAR RCBS 101300Z 03009KT 360V060 CAVOK 31/24 Q1000 NOSIG RMK QFF 1000.6HPA A2955(N)",
        "visib": "",
        "status": "updated"
    },
    {
        "icaoId": "RCNN",
        "obsTime": 1783706400,
        "rawOb": "METAR RCNN 101800Z 02019G29KT 6000 -RA FEW010 BKN020 BKN040 26/23 Q0992 RMK A2930 RA AMT 0.2MM QFF992.3HPA",
        "visib": "3.73",
        "status": "updated"
    },
    {
        "icaoId": "RCYU",
        "obsTime": 1783706700,
        "rawOb": "SPECI RCYU 101805Z 25003KT 9999 -RA FEW012 SCT030 BKN060 30/23 Q0988 RMK A2918",
        "visib": "6.2",
        "status": "updated"
    },
    {
        "icaoId": "RCQC",
        "obsTime": 1783706400,
        "rawOb": "METAR RCQC 101800Z 35024G35KT 9000 SCT006 BKN012 BKN020 28/26 Q0994 RMK A2937 QFF994.4HPA",
        "visib": "5.59",
        "status": "updated"
    }
]