[
    {
        "icaoId": "RCTP",
        "obsTime": 1783782000,
        "rawOb": "METAR RCTP 111500Z 21022G33KT 9999 FEW012 BKN150 28/23 Q0991 WS ALL RWY NOSIG RMK QFF 991.5HPA A2928(O)",
        "visib": "6.2",
        "status": "updated"
    },
    {
        "icaoId": "RCSS",
        "obsTime": 1783782000,
        "rawOb": "METAR RCSS 111500Z 26009KT 210V290 9999 FEW009 SCT040 BKN080 28/24 Q0992 NOSIG RMK QFF 992.2HPA A2930(D)",
        "visib": "6.2",
        "status": "updated"
    },
    {
        "icaoId": "RCKH",
        "obsTime": 1783782000,
        "rawOb": "METAR RCKH 111500Z 21008KT 170V250 9999 FEW016 SCT020 BKN036 30/27 Q0998 NOSIG RMK QFF 998.0HPA A2947(K)",
        "visib": "6.2",
        "status": "updated"
    },
    {
        "icaoId": "RCMQ",
        "obsTime": 1783782000,
        "rawOb": "METAR RCMQ 111500Z 17013KT 3800 -RA BR FEW008 BKN014 BKN050 25/25 Q0997 RERA RMK A2945 RA AMT 2.5MM",
        "visib": "2.36",
        "status": "updated"
    },
    {
        "icaoId": "RCBS",
        "obsTime": 1783774800,
        "rawOb": "METAR RCBS 111300Z 23010KT 9999 -RA FEW020 SCT120 BKN200 30/29 Q0992 NOSIG RMK QFF 992.9HPA A2932(V)",
        "visib": "6.2",
        "status": "updated"
    },
    {
        "icaoId": "RCNN",
        "obsTime": 1783782000,
        "rawOb": "METAR RCNN 111500Z 13006KT 8000 VCSH SCT008 BKN020 BKN040 27/25 Q0997 RMK A2946 VCSH E",
        "visib": "4.97",
        "status": "updated"
    },
    {
        "icaoId": "RCYU",
        "obsTime": 1783782000,
        "rawOb": "METAR RCYU 111500Z 20004KT 9999 FEW012 SCT030 BKN080 28/27 Q0993 RMK A2933",
        "visib": "6.2",
        "status": "updated"
    },
    {
        "icaoId": "RCQC",
        "obsTime": 1783782000,
        "rawOb": "METAR RCQC 111500Z 22011KT 9999 FEW008 SCT025 BKN060 29/28 Q0995 RMK A2940 AWOS R20 N/A",
        "visib": "6.2",
        "status": "updated"
    }
]