[
    {
        "icaoId": "RCTP",
        "obsTime": 1783126800,
        "rawOb": "METAR RCTP 040100Z 23010KT 190V260 9999 FEW020 BKN200 33/25 Q1012 NOSIG RMK A2991",
        "visib": "6",
        "status": "updated"
    },
    {
        "icaoId": "RCSS",
        "obsTime": 1783126800,
        "rawOb": "METAR RCSS 040100Z VRB03KT 9999 FEW020 33/26 Q1012 NOSIG RMK A2991",
        "visib": "6",
        "status": "updated"
    },
    {
        "icaoId": "RCKH",
        "obsTime": 1783126800,
        "rawOb": "METAR RCKH 040100Z 17008G18KT 140V200 9999 FEW022 32/22 Q1013 NOSIG RMK A2993",
        "visib": "6",
        "status": "updated"
    },
    {
        "icaoId": "RCMQ",
        "obsTime": 1783126800,
        "rawOb": "METAR RCMQ 040100Z 20004KT 9999 FEW012 SCT025 33/27 Q1014 NOSIG RMK A2996",
        "visib": "6",
        "status": "updated"
    },
    {
        "icaoId": "RCBS",
        "obsTime": 1779233400,
        "rawOb": "METAR RCBS 192330Z 22004KT 180V240 9999 FEW010 SCT018 BKN070 25/25 Q1009 NOSIG RMK A2980(E)",
        "visib": "6.2",
        "status": "old_data_kept"
    },
    {
        "icaoId": "RCNN",
        "obsTime": 1783126800,
        "rawOb": "METAR RCNN 040100Z 21005KT 9999 FEW012 33/23 Q1014 NOSIG RMK A2995",
        "visib": "6",
        "status": "updated"
    },
    {
        "icaoId": "RCYU",
        "obsTime": 1779233400,
        "rawOb": "METAR RCYU 192330Z 24004KT 9999 FEW012 SCT040 BKN100 26/20 Q1010 NOSIG RMK A2982",
        "visib": "6.2",
        "status": "old_data_kept"
    },
    {
        "icaoId": "RCQC",
        "obsTime": 1783126800,
        "rawOb": "METAR RCQC 040100Z 14009KT 9999 FEW012 31/28 Q1013 NOSIG RMK A2991",
        "visib": "6",
        "status": "updated"
    }
]