[
    {
        "icaoId": "RCTP",
        "obsTime": 1778806800,
        "rawOb": "METAR RCTP 150100Z 07009KT 9999 FEW010 SCT065 BKN110 28/23 Q1011 NOSIG RMK A2987",
        "visib": "6",
        "status": "updated"
    },
    {
        "icaoId": "RCSS",
        "obsTime": 1778806800,
        "rawOb": "METAR RCSS 150100Z 11011KT 9999 FEW013 SCT022 BKN080 27/24 Q1011 NOSIG RMK A2988",
        "visib": "6",
        "status": "updated"
    },
    {
        "icaoId": "RCKH",
        "obsTime": 1778806800,
        "rawOb": "METAR RCKH 150100Z 36007KT 310V050 9999 FEW025 SCT090 31/18 Q1009 NOSIG RMK A2981",
        "visib": "6",
        "status": "updated"
    },
    {
        "icaoId": "RCMQ",
        "obsTime": 1778806800,
        "rawOb": "METAR RCMQ 150100Z 01005KT 9999 FEW010 BKN100 26/23 Q1011 NOSIG RMK A2988",
        "visib": "6",
        "status": "updated"
    },
    {
        "icaoId": "RCBS",
        "obsTime": 0,
        "rawOb": "",
        "visib": "",
        "status": "old_data_kept"
    },
    {
        "icaoId": "RCNN",
        "obsTime": 1778806800,
        "rawOb": "METAR RCNN 150100Z 03006KT 9999 FEW012 SCT050 BKN080 31/21 Q1010 NOSIG RMK A2984",
        "visib": "6",
        "status": "updated"
    },
    {
        "icaoId": "RCYU",
        "obsTime": 0,
        "rawOb": "",
        "visib": "",
        "status": "old_data_kept"
    },
    {
        "icaoId": "RCQC",
        "obsTime": 1778806800,
        "rawOb": "METAR RCQC 150100Z 04012KT 9999 FEW010 SCT040 BKN080 28/25 Q1010 NOSIG RMK A2985",
        "visib": "6",
        "status": "updated"
    }
]