[
    {
        "icaoId": "RCTP",
        "obsTime": 1784115000,
        "rawOb": "METAR RCTP 151130Z 23009KT 9999 FEW020 SCT050 29/25 Q1008 NOSIG RMK A2978(T)",
        "visib": "6.2",
        "status": "updated"
    },
    {
        "icaoId": "RCSS",
        "obsTime": 1784115000,
        "rawOb": "METAR RCSS 151130Z 10010KT 9999 -RA FEW015 BKN025 BKN040 28/27 Q1008 NOSIG RMK A2978(M)",
        "visib": "6.2",
        "status": "updated"
    },
    {
        "icaoId": "RCKH",
        "obsTime": 1784115000,
        "rawOb": "METAR RCKH 151130Z 07005KT 9999 SCT012TCU FEW014 SCT040 28/25 Q1010 NOSIG RMK TCU SW-W-NW A2983(I)",
        "visib": "6.2",
        "status": "updated"
    },
    {
        "icaoId": "RCMQ",
        "obsTime": 1784115000,
        "rawOb": "METAR RCMQ 151130Z 23011KT 9999 FEW010 SCT100 30/25 Q1010 NOSIG RMK A2984",
        "visib": "6.2",
        "status": "updated"
    },
    {
        "icaoId": "RCBS",
        "obsTime": 1784115000,
        "rawOb": "METAR RCBS 151130Z 22013KT 9999 FEW016 28/28 Q1007 NOSIG RMK 23008KT/R06 A2975(S)",
        "visib": "6.2",
        "status": "updated"
    },
    {
        "icaoId": "RCNN",
        "obsTime": 1784115000,
        "rawOb": "METAR RCNN 151130Z 17006KT 9999 FEW012 SCT025 BKN060 27/23 Q1010 RMK A2983",
        "visib": "6.2",
        "status": "updated"
    },
    {
        "icaoId": "RCYU",
        "obsTime": 1784115000,
        "rawOb": "METAR RCYU 151130Z 02008KT 9999 FEW012 SCT040 BKN080 29/28 Q1008 NOSIG RMK A2979",
        "visib": "6.2",
        "status": "updated"
    },
    {
        "icaoId": "RCQC",
        "obsTime": 1784115000,
        "rawOb": "METAR RCQC 151130Z 17007KT 9999 FEW010 SCT030 BKN100 28/27 Q1009 NOSIG RMK A2980 AWOS R20 N/A",
        "visib": "6.2",
        "status": "updated"
    }
]