[
    {
        "icaoId": "RCTP",
        "obsTime": 1783846800,
        "rawOb": "METAR RCTP 120900Z 04006KT 360V070 9999 FEW020 SCT050 BKN130 33/27 Q1000 NOSIG RMK A2955(C)",
        "visib": "6.2",
        "status": "updated"
    },
    {
        "icaoId": "RCSS",
        "obsTime": 1783846800,
        "rawOb": "METAR RCSS 120900Z 12010KT 9999 FEW020 BKN100 34/28 Q1000 NOSIG RMK A2955(J)",
        "visib": "6.2",
        "status": "updated"
    },
    {
        "icaoId": "RCKH",
        "obsTime": 1783846800,
        "rawOb": "METAR RCKH 120900Z 16012KT 9999 FEW016 SCT024 BKN120 31/26 Q1002 NOSIG RMK A2960(D)",
        "visib": "6.2",
        "status": "updated"
    },
    {
        "icaoId": "RCMQ",
        "obsTime": 1783846800,
        "rawOb": "METAR RCMQ 120900Z 22010KT 9999 FEW014 BKN180 33/27 Q1002 NOSIG RMK A2960",
        "visib": "6.2",
        "status": "updated"
    },
    {
        "icaoId": "RCBS",
        "obsTime": 1783846800,
        "rawOb": "METAR RCBS 120900Z 19017KT 9999 FEW010 SCT260 29/29 Q0999 NOSIG RMK 19015KT/R06 A2950(U)",
        "visib": "6.2",
        "status": "updated"
    },
    {
        "icaoId": "RCNN",
        "obsTime": 1783846800,
        "rawOb": "METAR RCNN 120900Z 18013KT 9999 FEW010 SCT025 BKN100 30/25 Q1002 NOSIG RMK A2959",
        "visib": "6.2",
        "status": "updated"
    },
    {
        "icaoId": "RCYU",
        "obsTime": 1783846800,
        "rawOb": "METAR RCYU 120900Z 18013KT 9999 VCSH FEW012 SCT030 BKN060 30/27 Q1002 NOSIG RMK A2961 VCSH SW",
        "visib": "6.2",
        "status": "updated"
    },
    {
        "icaoId": "RCQC",
        "obsTime": 1783846800,
        "rawOb": "METAR RCQC 120900Z 16009KT 9999 FEW006 SCT016 BKN040 30/28 Q1001 NOSIG RMK A2956 APCH CLD SCT006 RVR N/A AWOS R20 N/A",
        "visib": "6.2",
        "status": "updated"
    }
]