[
    {
        "icaoId": "RCTP",
        "obsTime": 1783899000,
        "rawOb": "METAR RCTP 122330Z 25005KT 220V290 9999 FEW010 SCT016 BKN020 29/28 Q1006 NOSIG RMK A2971(N)",
        "visib": "6.2",
        "status": "updated"
    },
    {
        "icaoId": "RCSS",
        "obsTime": 1783899000,
        "rawOb": "METAR RCSS 122330Z 10007KT 9999 FEW012 BKN250 31/28 Q1006 NOSIG RMK A2971(G)",
        "visib": "6.2",
        "status": "updated"
    },
    {
        "icaoId": "RCKH",
        "obsTime": 1783899000,
        "rawOb": "METAR RCKH 122330Z 17013G23KT 140V200 9999 FEW008CB FEW016 SCT200 31/25 Q1006 NOSIG RMK CB SW A2971(D)",
        "visib": "6.2",
        "status": "updated"
    },
    {
        "icaoId": "RCMQ",
        "obsTime": 1783897200,
        "rawOb": "METAR RCMQ 122300Z 21007KT 9999 FEW010 BKN200 29/26 Q1007 NOSIG RMK A2975",
        "visib": "6.2",
        "status": "updated"
    },
    {
        "icaoId": "RCBS",
        "obsTime": 1783899000,
        "rawOb": "METAR RCBS 122330Z 20005KT 9999 VCSH FEW008 BKN030 BKN070 28/28 Q1004 NOSIG RMK A2967(K)",
        "visib": "6.2",
        "status": "updated"
    },
    {
        "icaoId": "RCNN",
        "obsTime": 1783897200,
        "rawOb": "METAR RCNN 122300Z 18006KT 9999 FEW010 BKN200 30/24 Q1005 NOSIG RMK A2969",
        "visib": "6.2",
        "status": "updated"
    },
    {
        "icaoId": "RCYU",
        "obsTime": 1783897200,
        "rawOb": "METAR RCYU 122300Z 24003KT 9999 FEW012 SCT100 BKN200 30/26 Q1007 NOSIG RMK A2974",
        "visib": "6.2",
        "status": "updated"
    },
    {
        "icaoId": "RCQC",
        "obsTime": 1783897200,
        "rawOb": "METAR RCQC 122300Z 16006KT 9999 FEW010 SCT016 BKN060 28/27 Q1005 NOSIG RMK A2969 RA AMT 0.9MM VIS N 9999M RVR N/A AWOS R20 N/A",
        "visib": "6.2",
        "status": "updated"
    }
]