[
    {
        "icaoId": "RCTP",
        "obsTime": 1784419200,
        "rawOb": "METAR RCTP 190000Z 22011KT 9999 FEW020 SCT200 31/25 Q1006 NOSIG RMK A2972(D)",
        "visib": "6.2",
        "status": "updated"
    },
    {
        "icaoId": "RCSS",
        "obsTime": 1784419200,
        "rawOb": "METAR RCSS 190000Z 30004KT 240V330 9999 FEW030 SCT250 32/25 Q1006 NOSIG RMK A2972(F)",
        "visib": "6.2",
        "status": "updated"
    },
    {
        "icaoId": "RCKH",
        "obsTime": 1784419200,
        "rawOb": "METAR RCKH 190000Z VRB02KT 9999 -RA FEW016 SCT038 BKN200 28/25 Q1008 NOSIG RMK A2977(M)",
        "visib": "6.2",
        "status": "updated"
    },
    {
        "icaoId": "RCMQ",
        "obsTime": 1784419200,
        "rawOb": "METAR RCMQ 190000Z 19010KT 9999 FEW012 BKN150 30/25 Q1009 NOSIG RMK A2980",
        "visib": "6.2",
        "status": "updated"
    },
    {
        "icaoId": "RCBS",
        "obsTime": 1784419200,
        "rawOb": "METAR RCBS 190000Z 28005KT 9999 FEW006 SCT018 BKN100 27/27 Q1006 NOSIG RMK A2971(J)",
        "visib": "6.2",
        "status": "updated"
    },
    {
        "icaoId": "RCNN",
        "obsTime": 1784419200,
        "rawOb": "METAR RCNN 190000Z 14001KT 9999 -RA FEW010 SCT040 BKN060 27/25 Q1008 NOSIG RMK A2978 RA AMT T",
        "visib": "6.2",
        "status": "updated"
    },
    {
        "icaoId": "RCYU",
        "obsTime": 1784417400,
        "rawOb": "METAR RCYU 182330Z 00000KT 9999 FEW012 SCT080 BKN200 31/24 Q1007 NOSIG RMK A2973",
        "visib": "6.2",
        "status": "updated"
    },
    {
        "icaoId": "RCQC",
        "obsTime": 1784419200,
        "rawOb": "METAR RCQC 190000Z 21006KT 9999 FEW008 SCT020 BKN100 27/26 Q1007 NOSIG RMK A2976 AWOS R20 N/A",
        "visib": "6.2",
        "status": "updated"
    }
]