[
    {
        "icaoId": "RCTP",
        "obsTime": 1784005200,
        "rawOb": "METAR RCTP 140500Z 35007KT 300V020 9999 FEW020 SCT150 33/27 Q1008 NOSIG RMK A2979(G)",
        "visib": "6.2",
        "status": "updated"
    },
    {
        "icaoId": "RCSS",
        "obsTime": 1784005200,
        "rawOb": "METAR RCSS 140500Z 27009KT 240V310 9999 FEW015 SCT025 35/27 Q1007 NOSIG RMK 29009KT/R10 A2976(U)",
        "visib": "6.2",
        "status": "updated"
    },
    {
        "icaoId": "RCKH",
        "obsTime": 1784005200,
        "rawOb": "METAR RCKH 140500Z 14010G20KT 120V190 9999 -RA FEW016 SCT034 BKN080 31/26 Q1009 NOSIG RMK A2981 RA AMT 1.6MM(M)",
        "visib": "6.2",
        "status": "updated"
    },
    {
        "icaoId": "RCMQ",
        "obsTime": 1784005200,
        "rawOb": "METAR RCMQ 140500Z 30006KT 9999 FEW012 SCT025 BKN100 35/27 Q1010 NOSIG RMK A2983",
        "visib": "6.2",
        "status": "updated"
    },
    {
        "icaoId": "RCBS",
        "obsTime": 1784005200,
        "rawOb": "METAR RCBS 140500Z 15011KT 9999 -SHRA FEW009 BKN016 BKN055 29/29 Q1007 TEMPO 3000 SHRA RMK 17010KT/R06 A2974 RA AMT 14.2MM(O)",
        "visib": "6.2",
        "status": "updated"
    },
    {
        "icaoId": "RCNN",
        "obsTime": 1784005200,
        "rawOb": "METAR RCNN 140500Z 15014KT 9999 VCSH FEW012 SCT025 BKN060 31/25 Q1009 NOSIG RMK A2981 VCSH E",
        "visib": "6.2",
        "status": "updated"
    },
    {
        "icaoId": "RCYU",
        "obsTime": 1784005200,
        "rawOb": "METAR RCYU 140500Z 20015KT 9999 FEW012 SCT030 BKN200 33/26 Q1009 NOSIG RMK A2982",
        "visib": "6.2",
        "status": "updated"
    },
    {
        "icaoId": "RCQC",
        "obsTime": 1784005200,
        "rawOb": "METAR RCQC 140500Z 16010KT 9999 FEW012 SCT200 31/28 Q1008 NOSIG RMK A2978 AWOS R20 N/A",
        "visib": "6.2",
        "status": "updated"
    }
]