[
    {
        "icaoId": "RCTP",
        "obsTime": 1779658200,
        "rawOb": "METAR RCTP 242130Z 22009KT 9999 FEW015 BKN220 26/23 Q1007 NOSIG RMK A2976",
        "visib": "6",
        "status": "updated"
    },
    {
        "icaoId": "RCSS",
        "obsTime": 1779656400,
        "rawOb": "METAR RCSS 242100Z 26003KT 9999 FEW025 SCT200 26/23 Q1007 NOSIG RMK A2974",
        "visib": "6",
        "status": "updated"
    },
    {
        "icaoId": "RCKH",
        "obsTime": 1779656400,
        "rawOb": "METAR RCKH 242100Z 21003KT 180V250 9999 FEW015 SCT200 28/25 Q1009 NOSIG RMK A2981",
        "visib": "6",
        "status": "updated"
    },
    {
        "icaoId": "RCMQ",
        "obsTime": 1779658200,
        "rawOb": "METAR RCMQ 242130Z 19011KT 9999 SCT012 27/24 Q1010 NOSIG RMK A2984",
        "visib": "6",
        "status": "updated"
    },
    {
        "icaoId": "RCBS",
        "obsTime": 1779233400,
        "rawOb": "METAR RCBS 192330Z 22004KT 180V240 9999 FEW010 SCT018 BKN070 25/25 Q1009 NOSIG RMK A2980(E)",
        "visib": "6.2",
        "status": "old_data_kept"
    },
    {
        "icaoId": "RCNN",
        "obsTime": 1779658200,
        "rawOb": "METAR RCNN 242130Z 12003KT 9999 FEW014 SCT200 26/24 Q1010 NOSIG RMK A2984",
        "visib": "6",
        "status": "updated"
    },
    {
        "icaoId": "RCYU",
        "obsTime": 1779233400,
        "rawOb": "METAR RCYU 192330Z 24004KT 9999 FEW012 SCT040 BKN100 26/20 Q1010 NOSIG RMK A2982",
        "visib": "6.2",
        "status": "old_data_kept"
    },
    {
        "icaoId": "RCQC",
        "obsTime": 1779658200,
        "rawOb": "METAR RCQC 242130Z 20003KT 6000 FEW012 27/27 Q1009 NOSIG RMK A2981",
        "visib": "3.73",
        "status": "updated"
    }
]