[
    {
        "icaoId": "RCTP",
        "obsTime": 1778751000,
        "rawOb": "METAR RCTP 140930Z 02004KT 350V050 9999 FEW008 BKN018 BKN025 24/22 Q1008 NOSIG RMK A2978",
        "visib": "6",
        "status": "updated"
    },
    {
        "icaoId": "RCSS",
        "obsTime": 1778751000,
        "rawOb": "METAR RCSS 140930Z 13005KT 9999 FEW008 SCT025 BKN080 25/23 Q1008 NOSIG RMK A2977",
        "visib": "6",
        "status": "updated"
    },
    {
        "icaoId": "RCKH",
        "obsTime": 1778751000,
        "rawOb": "METAR RCKH 140930Z VRB06KT 9999 VCSH FEW013 BKN020 BKN100 29/23 Q1007 NOSIG RMK A2975",
        "visib": "6",
        "status": "updated"
    },
    {
        "icaoId": "RCMQ",
        "obsTime": 1778751600,
        "rawOb": "SPECI RCMQ 140940Z 19005KT 7000 VCSH FEW008 BKN025 BKN060 24/23 Q1009 NOSIG RMK A2980 VCSH S",
        "visib": "4.35",
        "status": "updated"
    },
    {
        "icaoId": "RCBS",
        "obsTime": 0,
        "rawOb": "",
        "visib": "",
        "status": "old_data_kept"
    },
    {
        "icaoId": "RCNN",
        "obsTime": 1778751000,
        "rawOb": "METAR RCNN 140930Z 04010KT 9999 -RA SCT008 BKN016 BKN030 25/22 Q1008 NOSIG RMK A2979",
        "visib": "6",
        "status": "updated"
    },
    {
        "icaoId": "RCYU",
        "obsTime": 0,
        "rawOb": "",
        "visib": "",
        "status": "old_data_kept"
    },
    {
        "icaoId": "RCQC",
        "obsTime": 1778751720,
        "rawOb": "SPECI RCQC 140942Z 16002KT 6000 -RA SCT006 BKN010 BKN025 23/23 Q1007 BECMG BKN015 RMK A2976",
        "visib": "3.73",
        "status": "updated"
    }
]