[
    {
        "icaoId": "RCTP",
        "obsTime": 1783965600,
        "rawOb": "METAR RCTP 131800Z 15005KT 130V200 9999 FEW015 SCT025 BKN050 28/26 Q1007 NOSIG RMK A2976(J)",
        "visib": "6.2",
        "status": "updated"
    },
    {
        "icaoId": "RCSS",
        "obsTime": 1783965600,
        "rawOb": "METAR RCSS 131800Z VRB01KT 9999 FEW018 BKN028 BKN060 28/28 Q1007 NOSIG RMK A2976(B)",
        "visib": "6.2",
        "status": "updated"
    },
    {
        "icaoId": "RCKH",
        "obsTime": 1783965600,
        "rawOb": "METAR RCKH 131800Z 16014G24KT 140V200 9999 FEW010 SCT090 28/25 Q1007 NOSIG RMK A2974(W)",
        "visib": "6.2",
        "status": "updated"
    },
    {
        "icaoId": "RCMQ",
        "obsTime": 1783965600,
        "rawOb": "METAR RCMQ 131800Z 00000KT 9999 FEW010 SCT060 26/26 Q1008 RMK A2978",
        "visib": "6.2",
        "status": "updated"
    },
    {
        "icaoId": "RCBS",
        "obsTime": 1783947600,
        "rawOb": "METAR RCBS 131300Z 12007KT 9000 SCT018 SCT080 BKN210 29/29 Q1006 NOSIG RMK 12006KT/R06 A2971(N)",
        "visib": "5.59",
        "status": "updated"
    },
    {
        "icaoId": "RCNN",
        "obsTime": 1783965600,
        "rawOb": "METAR RCNN 131800Z 18011KT 9000 -RA FEW010 BKN021 BKN050 27/25 Q1006 RMK A2973 RA AMT 0.2MM",
        "visib": "5.59",
        "status": "updated"
    },
    {
        "icaoId": "RCYU",
        "obsTime": 1783965600,
        "rawOb": "METAR RCYU 131800Z 23001KT 9999 FEW012 SCT120 28/24 Q1008 RMK A2979",
        "visib": "6.2",
        "status": "updated"
    },
    {
        "icaoId": "RCQC",
        "obsTime": 1783965600,
        "rawOb": "METAR RCQC 131800Z 17018G29KT 9999 FEW012 SCT030 BKN200 28/26 Q1007 RMK A2974 RA AMT T AWOS R20 N/A",
        "visib": "6.2",
        "status": "updated"
    }
]