[
    {
        "icaoId": "RCTP",
        "obsTime": 1780979400,
        "rawOb": "METAR RCTP 090430Z 03016KT 4500 -RA BR SCT006 BKN010 BKN012 24/24 Q1004 NOSIG RMK A2965",
        "visib": "2.8",
        "status": "updated"
    },
    {
        "icaoId": "RCSS",
        "obsTime": 1780979400,
        "rawOb": "METAR RCSS 090430Z VRB04KT 4500 -SHRA FEW006 BKN010 BKN035 26/24 Q1004 NOSIG RMK A2965",
        "visib": "2.8",
        "status": "updated"
    },
    {
        "icaoId": "RCKH",
        "obsTime": 1780979640,
        "rawOb": "SPECI RCKH 090434Z 24011KT 3500 SHRA SCT006 SCT009TCU BKN010 OVC016 25/24 Q1004 RETS TEMPO 1500 SHRA RMK 24011KT/R09 TCU NW A2966",
        "visib": "2.17",
        "status": "updated"
    },
    {
        "icaoId": "RCMQ",
        "obsTime": 1780979400,
        "rawOb": "METAR RCMQ 090430Z 12002KT 3200 -RA BR SCT004 BKN010 BKN025 26/26 Q1004 NOSIG RMK A2967",
        "visib": "1.99",
        "status": "updated"
    },
    {
        "icaoId": "RCBS",
        "obsTime": 1779233400,
        "rawOb": "METAR RCBS 192330Z 22004KT 180V240 9999 FEW010 SCT018 BKN070 25/25 Q1009 NOSIG RMK A2980(E)",
        "visib": "6.2",
        "status": "old_data_kept"
    },
    {
        "icaoId": "RCNN",
        "obsTime": 1780979400,
        "rawOb": "METAR RCNN 090430Z 20010KT 2400 TSRA SCT006 FEW010CB BKN016 BKN030 26/24 Q1004 BECMG TL0500 TSRA RMK A2967 TS SE MOV E",
        "visib": "1.49",
        "status": "updated"
    },
    {
        "icaoId": "RCYU",
        "obsTime": 1779233400,
        "rawOb": "METAR RCYU 192330Z 24004KT 9999 FEW012 SCT040 BKN100 26/20 Q1010 NOSIG RMK A2982",
        "visib": "6.2",
        "status": "old_data_kept"
    },
    {
        "icaoId": "RCQC",
        "obsTime": 1780979700,
        "rawOb": "SPECI RCQC 090435Z 16009G19KT 2400 -RA BR SCT003 BKN005 BKN016 27/26 Q1002 RERA BECMG 3000 -RA BR RMK A2960",
        "visib": "1.49",
        "status": "updated"
    }
]