[
    {
        "icaoId": "RCTP",
        "obsTime": 1783230000,
        "rawOb": "SPECI RCTP 050540Z 28014KT 9999 FEW020 SCT250 35/25 Q1010 WS R23R NOSIG RMK A2983",
        "visib": "6",
        "status": "updated"
    },
    {
        "icaoId": "RCSS",
        "obsTime": 1783229400,
        "rawOb": "METAR RCSS 050530Z 29010KT 260V330 9999 FEW020 BKN045 36/27 Q1009 NOSIG RMK 31008KT/R10 A2982",
        "visib": "6",
        "status": "updated"
    },
    {
        "icaoId": "RCKH",
        "obsTime": 1783229400,
        "rawOb": "METAR RCKH 050530Z 22011KT 180V250 9999 FEW032 33/24 Q1010 NOSIG RMK 19010KT/R09 A2985",
        "visib": "6",
        "status": "updated"
    },
    {
        "icaoId": "RCMQ",
        "obsTime": 1783229400,
        "rawOb": "METAR RCMQ 050530Z 27010KT 9999 FEW012 BKN025 34/27 Q1012 NOSIG RMK A2988",
        "visib": "6",
        "status": "updated"
    },
    {
        "icaoId": "RCBS",
        "obsTime": 1779233400,
        "rawOb": "METAR RCBS 192330Z 22004KT 180V240 9999 FEW010 SCT018 BKN070 25/25 Q1009 NOSIG RMK A2980(E)",
        "visib": "6.2",
        "status": "old_data_kept"
    },
    {
        "icaoId": "RCNN",
        "obsTime": 1783229400,
        "rawOb": "METAR RCNN 050530Z 22010KT 9999 FEW012 SCT030 33/26 Q1012 NOSIG RMK A2988",
        "visib": "6",
        "status": "updated"
    },
    {
        "icaoId": "RCYU",
        "obsTime": 1779233400,
        "rawOb": "METAR RCYU 192330Z 24004KT 9999 FEW012 SCT040 BKN100 26/20 Q1010 NOSIG RMK A2982",
        "visib": "6.2",
        "status": "old_data_kept"
    },
    {
        "icaoId": "RCQC",
        "obsTime": 1783229400,
        "rawOb": "METAR RCQC 050530Z 19011KT 9999 FEW012 SCT025 BKN200 32/28 Q1010 NOSIG RMK A2985",
        "visib": "6",
        "status": "updated"
    }
]