[
    {
        "icaoId": "RCTP",
        "obsTime": 1778758200,
        "rawOb": "METAR RCTP 141130Z VRB02KT 9999 -RA FEW010 SCT015 BKN040 23/22 Q1010 NOSIG RMK A2983",
        "visib": "6",
        "status": "updated"
    },
    {
        "icaoId": "RCSS",
        "obsTime": 1778758200,
        "rawOb": "METAR RCSS 141130Z 30003KT 9999 FEW012 SCT025 BKN055 24/23 Q1009 NOSIG RMK A2981",
        "visib": "6",
        "status": "updated"
    },
    {
        "icaoId": "RCKH",
        "obsTime": 1778758200,
        "rawOb": "METAR RCKH 141130Z 04006KT 350V070 9999 VCSH FEW015 SCT030 BKN060 28/22 Q1008 NOSIG RMK A2979",
        "visib": "6",
        "status": "updated"
    },
    {
        "icaoId": "RCMQ",
        "obsTime": 1778758200,
        "rawOb": "METAR RCMQ 141130Z 05004KT 250V050 9000 FEW008 SCT025 BKN100 23/23 Q1010 NOSIG RMK A2985",
        "visib": "5.59",
        "status": "updated"
    },
    {
        "icaoId": "RCBS",
        "obsTime": 0,
        "rawOb": "",
        "visib": "",
        "status": "old_data_kept"
    },
    {
        "icaoId": "RCNN",
        "obsTime": 1778758200,
        "rawOb": "METAR RCNN 141130Z 09004KT 8000 -RA FEW010 BKN018 BKN040 24/22 Q1009 RMK A2981",
        "visib": "4.97",
        "status": "updated"
    },
    {
        "icaoId": "RCYU",
        "obsTime": 0,
        "rawOb": "",
        "visib": "",
        "status": "old_data_kept"
    },
    {
        "icaoId": "RCQC",
        "obsTime": 1778758200,
        "rawOb": "METAR RCQC 141130Z 12003KT 9999 -RA SCT006 BKN014 BKN025 25/24 Q1009 BECMG BKN015 RMK A2979",
        "visib": "6",
        "status": "updated"
    }
]