[
    {
        "icaoId": "RCTP",
        "obsTime": 1783051200,
        "rawOb": "METAR RCTP 030400Z 29014KT 9999 FEW015 SCT030 33/26 Q1012 NOSIG RMK A2989",
        "visib": "6",
        "status": "updated"
    },
    {
        "icaoId": "RCSS",
        "obsTime": 1783051200,
        "rawOb": "METAR RCSS 030400Z 29008KT 260V340 9999 FEW020 SCT035 BKN050 35/27 Q1011 NOSIG RMK 31009KT/R10 A2987",
        "visib": "6",
        "status": "updated"
    },
    {
        "icaoId": "RCKH",
        "obsTime": 1783051200,
        "rawOb": "METAR RCKH 030400Z 17015G25KT 130V200 9999 FEW030 33/24 Q1011 NOSIG RMK A2986",
        "visib": "6",
        "status": "updated"
    },
    {
        "icaoId": "RCMQ",
        "obsTime": 1783051200,
        "rawOb": "METAR RCMQ 030400Z 32008KT 9999 FEW010 SCT025 33/28 Q1013 NOSIG RMK A2992",
        "visib": "6",
        "status": "updated"
    },
    {
        "icaoId": "RCBS",
        "obsTime": 1779233400,
        "rawOb": "METAR RCBS 192330Z 22004KT 180V240 9999 FEW010 SCT018 BKN070 25/25 Q1009 NOSIG RMK A2980(E)",
        "visib": "6.2",
        "status": "old_data_kept"
    },
    {
        "icaoId": "RCNN",
        "obsTime": 1783051200,
        "rawOb": "METAR RCNN 030400Z 24007KT 9999 FEW012 SCT040 34/27 Q1012 NOSIG RMK A2990",
        "visib": "6",
        "status": "updated"
    },
    {
        "icaoId": "RCYU",
        "obsTime": 1779233400,
        "rawOb": "METAR RCYU 192330Z 24004KT 9999 FEW012 SCT040 BKN100 26/20 Q1010 NOSIG RMK A2982",
        "visib": "6.2",
        "status": "old_data_kept"
    },
    {
        "icaoId": "RCQC",
        "obsTime": 1783051200,
        "rawOb": "METAR RCQC 030400Z 19009KT 9999 FEW012 SCT025 33/27 Q1012 NOSIG RMK A2988",
        "visib": "6",
        "status": "updated"
    }
]