[
    {
        "icaoId": "RCTP",
        "obsTime": 1783985400,
        "rawOb": "METAR RCTP 132330Z 05008KT 9999 FEW020 31/26 Q1008 NOSIG RMK A2977(V)",
        "visib": "6.2",
        "status": "updated"
    },
    {
        "icaoId": "RCSS",
        "obsTime": 1783985400,
        "rawOb": "METAR RCSS 132330Z 10005KT 9999 FEW020 SCT200 31/27 Q1008 NOSIG RMK A2977(I)",
        "visib": "6.2",
        "status": "updated"
    },
    {
        "icaoId": "RCKH",
        "obsTime": 1783985400,
        "rawOb": "METAR RCKH 132330Z 13013KT 110V170 9999 FEW010TCU FEW014 SCT022 BKN200 30/24 Q1008 NOSIG RMK TCU SW A2977(D)",
        "visib": "6.2",
        "status": "updated"
    },
    {
        "icaoId": "RCMQ",
        "obsTime": 1783985400,
        "rawOb": "METAR RCMQ 132330Z 15001KT 9999 FEW012 SCT016 BKN035 29/27 Q1010 NOSIG RMK A2982",
        "visib": "6.2",
        "status": "updated"
    },
    {
        "icaoId": "RCBS",
        "obsTime": 1783985400,
        "rawOb": "METAR RCBS 132330Z 13011KT 9999 SCT018 BKN220 28/28 Q1006 NOSIG RMK A2973(T)",
        "visib": "6.2",
        "status": "updated"
    },
    {
        "icaoId": "RCNN",
        "obsTime": 1783985400,
        "rawOb": "METAR RCNN 132330Z 15009KT 9999 FEW012 SCT200 29/24 Q1008 NOSIG RMK A2977",
        "visib": "6.2",
        "status": "updated"
    },
    {
        "icaoId": "RCYU",
        "obsTime": 1783985400,
        "rawOb": "METAR RCYU 132330Z 22004KT 9999 FEW012 SCT200 31/24 Q1009 NOSIG RMK A2981",
        "visib": "6.2",
        "status": "updated"
    },
    {
        "icaoId": "RCQC",
        "obsTime": 1783985400,
        "rawOb": "METAR RCQC 132330Z 17008KT 9999 FEW012 SCT200 30/27 Q1007 NOSIG RMK A2975 AWOS R20 N/A",
        "visib": "6.2",
        "status": "updated"
    }
]