[
    {
        "icaoId": "RCTP",
        "obsTime": 1779773400,
        "rawOb": "METAR RCTP 260530Z 25020G30KT 9999 FEW020 SCT120 BKN180 34/24 Q1004 WS ALL RWY NOSIG RMK A2965",
        "visib": "6",
        "status": "updated"
    },
    {
        "icaoId": "RCSS",
        "obsTime": 1779773400,
        "rawOb": "METAR RCSS 260530Z 26013KT 9999 FEW020 BKN200 36/25 Q1003 NOSIG RMK 25010KT/R10 A2963",
        "visib": "6",
        "status": "updated"
    },
    {
        "icaoId": "RCKH",
        "obsTime": 1779773400,
        "rawOb": "METAR RCKH 260530Z 27012KT 240V300 9999 FEW016 SCT140 BKN200 33/23 Q1007 NOSIG RMK 27012KT/R09 A2975",
        "visib": "6",
        "status": "updated"
    },
    {
        "icaoId": "RCMQ",
        "obsTime": 1779773400,
        "rawOb": "METAR RCMQ 260530Z 19015KT 9999 FEW012 BKN200 34/23 Q1007 NOSIG RMK A2976",
        "visib": "6",
        "status": "updated"
    },
    {
        "icaoId": "RCBS",
        "obsTime": 1779233400,
        "rawOb": "METAR RCBS 192330Z 22004KT 180V240 9999 FEW010 SCT018 BKN070 25/25 Q1009 NOSIG RMK A2980(E)",
        "visib": "6.2",
        "status": "old_data_kept"
    },
    {
        "icaoId": "RCNN",
        "obsTime": 1779773400,
        "rawOb": "METAR RCNN 260530Z 28010KT 9999 FEW012 BKN200 33/24 Q1008 NOSIG RMK A2978",
        "visib": "6",
        "status": "updated"
    },
    {
        "icaoId": "RCYU",
        "obsTime": 1779233400,
        "rawOb": "METAR RCYU 192330Z 24004KT 9999 FEW012 SCT040 BKN100 26/20 Q1010 NOSIG RMK A2982",
        "visib": "6.2",
        "status": "old_data_kept"
    },
    {
        "icaoId": "RCQC",
        "obsTime": 1779773400,
        "rawOb": "METAR RCQC 260530Z 18010KT 9999 FEW012 SCT030 BKN200 31/27 Q1007 NOSIG RMK A2975",
        "visib": "6",
        "status": "updated"
    }
]