[
    {
        "icaoId": "RCTP",
        "obsTime": 1778766900,
        "rawOb": "SPECI RCTP 141355Z VRB02KT 5000 -RA FEW008 BKN014 BKN030 23/23 Q1011 NOSIG RMK A2986",
        "visib": "3.11",
        "status": "updated"
    },
    {
        "icaoId": "RCSS",
        "obsTime": 1778765400,
        "rawOb": "METAR RCSS 141330Z 34002KT 9999 SCT013 BKN018 BKN030 24/23 Q1010 NOSIG RMK A2985",
        "visib": "6",
        "status": "updated"
    },
    {
        "icaoId": "RCKH",
        "obsTime": 1778766420,
        "rawOb": "SPECI RCKH 141347Z 04003KT 010V080 9999 -RA FEW017 SCT070 BKN110 27/23 Q1009 NOSIG RMK A2980",
        "visib": "6",
        "status": "updated"
    },
    {
        "icaoId": "RCMQ",
        "obsTime": 1778765400,
        "rawOb": "METAR RCMQ 141330Z 02004KT 9999 FEW010 BKN100 23/23 Q1011 NOSIG RMK A2986",
        "visib": "6",
        "status": "updated"
    },
    {
        "icaoId": "RCBS",
        "obsTime": 0,
        "rawOb": "",
        "visib": "",
        "status": "old_data_kept"
    },
    {
        "icaoId": "RCNN",
        "obsTime": 1778765400,
        "rawOb": "METAR RCNN 141330Z 09004KT 9000 -RA FEW010 BKN018 BKN040 24/21 Q1010 RMK A2983",
        "visib": "5.59",
        "status": "updated"
    },
    {
        "icaoId": "RCYU",
        "obsTime": 0,
        "rawOb": "",
        "visib": "",
        "status": "old_data_kept"
    },
    {
        "icaoId": "RCQC",
        "obsTime": 1778765400,
        "rawOb": "METAR RCQC 141330Z 05003KT 9999 SCT006 BKN016 BKN030 25/24 Q1009 NOSIG RMK A2982",
        "visib": "6",
        "status": "updated"
    }
]