[
    {
        "icaoId": "RCTP",
        "obsTime": 1784147400,
        "rawOb": "METAR RCTP 152030Z 19006KT 9999 FEW015 27/24 Q1008 NOSIG RMK A2977(L)",
        "visib": "6.2",
        "status": "updated"
    },
    {
        "icaoId": "RCSS",
        "obsTime": 1784145600,
        "rawOb": "METAR RCSS 152000Z VRB02KT 9999 FEW016 27/27 Q1008 NOSIG RMK A2978(C)",
        "visib": "6.2",
        "status": "updated"
    },
    {
        "icaoId": "RCKH",
        "obsTime": 1784145600,
        "rawOb": "METAR RCKH 152000Z 08003KT 9999 FEW014 SCT030 26/24 Q1009 NOSIG RMK A2981(X)",
        "visib": "6.2",
        "status": "updated"
    },
    {
        "icaoId": "RCMQ",
        "obsTime": 1784147400,
        "rawOb": "METAR RCMQ 152030Z 19007KT 9999 FEW010 27/25 Q1010 RMK A2983",
        "visib": "6.2",
        "status": "updated"
    },
    {
        "icaoId": "RCBS",
        "obsTime": 1784124000,
        "rawOb": "METAR RCBS 151400Z 21008KT 9999 FEW023 SCT200 27/27 Q1009 NOSIG RMK 21005KT/R06 A2980(X)",
        "visib": "6.2",
        "status": "updated"
    },
    {
        "icaoId": "RCNN",
        "obsTime": 1784147400,
        "rawOb": "METAR RCNN 152030Z 13004KT 9999 FEW012 25/23 Q1009 RMK A2981",
        "visib": "6.2",
        "status": "updated"
    },
    {
        "icaoId": "RCYU",
        "obsTime": 1784147400,
        "rawOb": "METAR RCYU 152030Z 00000KT 9999 FEW012 28/27 Q1008 RMK A2977",
        "visib": "6.2",
        "status": "updated"
    },
    {
        "icaoId": "RCQC",
        "obsTime": 1784147400,
        "rawOb": "METAR RCQC 152030Z 17006KT 9999 FEW010 SCT030 28/27 Q1008 RMK A2978 AWOS R20 N/A",
        "visib": "6.2",
        "status": "updated"
    }
]