[
    {
        "icaoId": "RCTP",
        "obsTime": 1783702800,
        "rawOb": "METAR RCTP 101700Z 02018G28KT 9999 -SHRA FEW010 BKN018 BKN035 28/26 Q0993 WS ALL RWY NOSIG RMK QFF 993.5HPA A2934(G)",
        "visib": "6.2",
        "status": "updated"
    },
    {
        "icaoId": "RCSS",
        "obsTime": 1783702800,
        "rawOb": "METAR RCSS 101700Z 04008KT 340V110 2500 SHRA SCT006 BKN020 BKN035 27/26 Q0992 NOSIG RMK QFF 992.9HPA A2932 RA AMT 5.6MM(Y)",
        "visib": "1.55",
        "status": "updated"
    },
    {
        "icaoId": "RCKH",
        "obsTime": 1783702800,
        "rawOb": "METAR RCKH 101700Z 34018G32KT 310V010 9999 FEW018 SCT025 30/23 Q0991 NOSIG RMK QFF 991.5HPA A2928(H)",
        "visib": "6.2",
        "status": "updated"
    },
    {
        "icaoId": "RCMQ",
        "obsTime": 1783702800,
        "rawOb": "METAR RCMQ 101700Z 03013G23KT 3200 -RA BR FEW004 FEW010CB BKN016 BKN030 25/25 Q0994 RERA RMK A2936 RA AMT 19.5MM CB SW STNR QFF994.2HPA",
        "visib": "1.99",
        "status": "updated"
    },
    {
        "icaoId": "RCBS",
        "obsTime": 1783688400,
        "rawOb": "METAR RCBS 101300Z 03009KT 360V060 CAVOK 31/24 Q1000 NOSIG RMK QFF 1000.6HPA A2955(N)",
        "visib": "",
        "status": "updated"
    },
    {
        "icaoId": "RCNN",
        "obsTime": 1783702800,
        "rawOb": "METAR RCNN 101700Z 02018G28KT 8000 -RA FEW010 SCT025 BKN050 28/23 Q0993 RMK A2932 RA AMT T QFF993.0HPA",
        "visib": "4.97",
        "status": "updated"
    },
    {
        "icaoId": "RCYU",
        "obsTime": 1783702800,
        "rawOb": "METAR RCYU 101700Z 03020G30KT 9999 FEW012 BKN060 30/24 Q0988 RMK A2919 QFF988.6HPA",
        "visib": "6.2",
        "status": "updated"
    },
    {
        "icaoId": "RCQC",
        "obsTime": 1783702800,
        "rawOb": "METAR RCQC 101700Z 35024G34KT 9000 SCT006 BKN012 BKN020 29/27 Q0995 RMK A2939 QFF995.1HPA",
        "visib": "5.59",
        "status": "updated"
    }
]