[
    {
        "icaoId": "RCTP",
        "obsTime": 1784158200,
        "rawOb": "METAR RCTP 152330Z VRB05KT 9999 FEW015 SCT200 31/25 Q1008 NOSIG RMK A2979(S)",
        "visib": "6.2",
        "status": "updated"
    },
    {
        "icaoId": "RCSS",
        "obsTime": 1784158200,
        "rawOb": "METAR RCSS 152330Z VRB02KT 9999 FEW020 BKN250 32/27 Q1008 NOSIG RMK A2979(I)",
        "visib": "6.2",
        "status": "updated"
    },
    {
        "icaoId": "RCKH",
        "obsTime": 1784158200,
        "rawOb": "METAR RCKH 152330Z 08004KT 9999 FEW018 SCT080 29/24 Q1010 NOSIG RMK A2983(C)",
        "visib": "6.2",
        "status": "updated"
    },
    {
        "icaoId": "RCMQ",
        "obsTime": 1784158200,
        "rawOb": "METAR RCMQ 152330Z 20012KT 9999 FEW010 BKN200 31/24 Q1010 NOSIG RMK A2984",
        "visib": "6.2",
        "status": "updated"
    },
    {
        "icaoId": "RCBS",
        "obsTime": 1784158200,
        "rawOb": "METAR RCBS 152330Z 19008KT 9999 SCT008 SCT020 BKN100 27/27 Q1008 NOSIG RMK A2979(F)",
        "visib": "6.2",
        "status": "updated"
    },
    {
        "icaoId": "RCNN",
        "obsTime": 1784158200,
        "rawOb": "METAR RCNN 152330Z 19007KT 9999 FEW012 SCT050 BKN200 29/24 Q1010 NOSIG RMK A2983",
        "visib": "6.2",
        "status": "updated"
    },
    {
        "icaoId": "RCYU",
        "obsTime": 1784158200,
        "rawOb": "METAR RCYU 152330Z 25003KT 9999 FEW012 BKN200 32/25 Q1008 NOSIG RMK A2979",
        "visib": "6.2",
        "status": "updated"
    },
    {
        "icaoId": "RCQC",
        "obsTime": 1784158200,
        "rawOb": "METAR RCQC 152330Z 17007KT 9999 FEW010 SCT030 BKN200 29/27 Q1009 NOSIG RMK A2980 AWOS R20 N/A",
        "visib": "6.2",
        "status": "updated"
    }
]