[
    {
        "icaoId": "RCTP",
        "obsTime": 1780255800,
        "rawOb": "METAR RCTP 311930Z 07006KT 9999 FEW015 SCT022 23/20 Q1008 NOSIG RMK A2978",
        "visib": "6",
        "status": "updated"
    },
    {
        "icaoId": "RCSS",
        "obsTime": 1780254000,
        "rawOb": "METAR RCSS 311900Z VRB01KT 9999 FEW020 SCT045 24/20 Q1008 NOSIG RMK A2977",
        "visib": "6",
        "status": "updated"
    },
    {
        "icaoId": "RCKH",
        "obsTime": 1780254000,
        "rawOb": "METAR RCKH 311900Z 20004KT 150V240 9999 FEW014 SCT230 28/22 Q1007 NOSIG RMK A2974",
        "visib": "6",
        "status": "updated"
    },
    {
        "icaoId": "RCMQ",
        "obsTime": 1780254000,
        "rawOb": "METAR RCMQ 311900Z 01006KT 9999 FEW012 SCT060 22/20 Q1008 RMK A2978",
        "visib": "6",
        "status": "updated"
    },
    {
        "icaoId": "RCBS",
        "obsTime": 1779233400,
        "rawOb": "METAR RCBS 192330Z 22004KT 180V240 9999 FEW010 SCT018 BKN070 25/25 Q1009 NOSIG RMK A2980(E)",
        "visib": "6.2",
        "status": "old_data_kept"
    },
    {
        "icaoId": "RCNN",
        "obsTime": 1780254000,
        "rawOb": "METAR RCNN 311900Z 36004KT 9999 FEW012 25/21 Q1008 RMK A2976",
        "visib": "6",
        "status": "updated"
    },
    {
        "icaoId": "RCYU",
        "obsTime": 1779233400,
        "rawOb": "METAR RCYU 192330Z 24004KT 9999 FEW012 SCT040 BKN100 26/20 Q1010 NOSIG RMK A2982",
        "visib": "6.2",
        "status": "old_data_kept"
    },
    {
        "icaoId": "RCQC",
        "obsTime": 1780254000,
        "rawOb": "METAR RCQC 311900Z 02011KT 9999 FEW012 25/23 Q1008 RMK A2977",
        "visib": "6",
        "status": "updated"
    }
]