[
    {
        "icaoId": "RCTP",
        "obsTime": 1784532600,
        "rawOb": "METAR RCTP 200730Z 26015KT 9999 VCSH FEW015 FEW018TCU SCT025 BKN150 33/25 Q1006 NOSIG RMK TCU E A2971(Z)",
        "visib": "6.2",
        "status": "updated"
    },
    {
        "icaoId": "RCSS",
        "obsTime": 1784532600,
        "rawOb": "METAR RCSS 200730Z 12009KT 9999 -SHRA FEW018 FEW020TCU BKN060 BKN100 30/27 Q1006 NOSIG RMK TCU SW-W A2972(J)",
        "visib": "6.2",
        "status": "updated"
    },
    {
        "icaoId": "RCKH",
        "obsTime": 1784533860,
        "rawOb": "SPECI RCKH 200751Z 20004KT 170V240 9999 FEW014 SCT040 BKN100 29/24 Q1008 NOSIG RMK A2977(N)",
        "visib": "6.2",
        "status": "updated"
    },
    {
        "icaoId": "RCMQ",
        "obsTime": 1784532600,
        "rawOb": "METAR RCMQ 200730Z 24008KT 9999 FEW012 SCT100 33/24 Q1008 NOSIG RMK A2978",
        "visib": "6.2",
        "status": "updated"
    },
    {
        "icaoId": "RCBS",
        "obsTime": 1784532600,
        "rawOb": "METAR RCBS 200730Z 18011KT 9999 FEW012 SCT025 BKN160 27/27 Q1006 NOSIG RMK 18011KT/R06 A2971(V)",
        "visib": "6.2",
        "status": "updated"
    },
    {
        "icaoId": "RCNN",
        "obsTime": 1784532600,
        "rawOb": "METAR RCNN 200730Z 23007KT 9999 FEW012 SCT040 BKN080 28/24 Q1008 NOSIG RMK A2976",
        "visib": "6.2",
        "status": "updated"
    },
    {
        "icaoId": "RCYU",
        "obsTime": 1784532600,
        "rawOb": "METAR RCYU 200730Z 27005KT 8000 -RA FEW012 FEW014TCU SCT025 BKN050 28/25 Q1007 NOSIG RMK A2975 TCU SW STNR",
        "visib": "4.97",
        "status": "updated"
    },
    {
        "icaoId": "RCQC",
        "obsTime": 1784532600,
        "rawOb": "METAR RCQC 200730Z 16007KT 9999 FEW012 BKN200 29/27 Q1007 NOSIG RMK A2975 AWOS R20 N/A",
        "visib": "6.2",
        "status": "updated"
    }
]