[
    {
        "icaoId": "RCTP",
        "obsTime": 1779757200,
        "rawOb": "METAR RCTP 260100Z 23026KT 9999 FEW020 BKN200 30/24 Q1006 WS ALL RWY NOSIG RMK A2973",
        "visib": "6",
        "status": "updated"
    },
    {
        "icaoId": "RCSS",
        "obsTime": 1779757200,
        "rawOb": "METAR RCSS 260100Z 25012KT 9999 FEW020 BKN220 32/24 Q1006 NOSIG RMK 26010KT/R10 A2973",
        "visib": "6",
        "status": "updated"
    },
    {
        "icaoId": "RCKH",
        "obsTime": 1779757920,
        "rawOb": "SPECI RCKH 260112Z 35007KT 290V050 9999 FEW015 SCT120 33/23 Q1009 NOSIG RMK 29009KT/R09 A2981",
        "visib": "6",
        "status": "updated"
    },
    {
        "icaoId": "RCMQ",
        "obsTime": 1779757200,
        "rawOb": "METAR RCMQ 260100Z 19012KT 9999 FEW010 SCT025 BKN200 31/25 Q1011 NOSIG RMK A2986",
        "visib": "6",
        "status": "updated"
    },
    {
        "icaoId": "RCBS",
        "obsTime": 1779233400,
        "rawOb": "METAR RCBS 192330Z 22004KT 180V240 9999 FEW010 SCT018 BKN070 25/25 Q1009 NOSIG RMK A2980(E)",
        "visib": "6.2",
        "status": "old_data_kept"
    },
    {
        "icaoId": "RCNN",
        "obsTime": 1779757200,
        "rawOb": "METAR RCNN 260100Z 32005KT 9999 FEW012 SCT025 BKN120 33/24 Q1010 NOSIG RMK A2985",
        "visib": "6",
        "status": "updated"
    },
    {
        "icaoId": "RCYU",
        "obsTime": 1779233400,
        "rawOb": "METAR RCYU 192330Z 24004KT 9999 FEW012 SCT040 BKN100 26/20 Q1010 NOSIG RMK A2982",
        "visib": "6.2",
        "status": "old_data_kept"
    },
    {
        "icaoId": "RCQC",
        "obsTime": 1779757200,
        "rawOb": "METAR RCQC 260100Z 17009KT 9999 FEW012 SCT030 30/28 Q1009 NOSIG RMK A2982",
        "visib": "6",
        "status": "updated"
    }
]