[
    {
        "icaoId": "RCTP",
        "obsTime": 1779026400,
        "rawOb": "METAR RCTP 171400Z 08016G26KT 9999 FEW020 25/18 Q1011 NOSIG RMK A2988",
        "visib": "6",
        "status": "updated"
    },
    {
        "icaoId": "RCSS",
        "obsTime": 1779026400,
        "rawOb": "METAR RCSS 171400Z 09012KT 9999 FEW020 25/19 Q1012 NOSIG RMK A2991",
        "visib": "6",
        "status": "updated"
    },
    {
        "icaoId": "RCKH",
        "obsTime": 1779026400,
        "rawOb": "METAR RCKH 171400Z VRB03KT 9999 FEW015 SCT040 BKN070 27/22 Q1011 NOSIG RMK A2988",
        "visib": "6",
        "status": "updated"
    },
    {
        "icaoId": "RCMQ",
        "obsTime": 1779026400,
        "rawOb": "METAR RCMQ 171400Z 20004KT 9999 FEW012 SCT025 25/22 Q1012 NOSIG RMK A2989",
        "visib": "6",
        "status": "updated"
    },
    {
        "icaoId": "RCBS",
        "obsTime": 0,
        "rawOb": "",
        "visib": "",
        "status": "old_data_kept"
    },
    {
        "icaoId": "RCNN",
        "obsTime": 1779026400,
        "rawOb": "METAR RCNN 171400Z 18003KT 9999 FEW012 SCT030 26/23 Q1012 RMK A2991",
        "visib": "6",
        "status": "updated"
    },
    {
        "icaoId": "RCYU",
        "obsTime": 0,
        "rawOb": "",
        "visib": "",
        "status": "old_data_kept"
    },
    {
        "icaoId": "RCQC",
        "obsTime": 1779026400,
        "rawOb": "METAR RCQC 171400Z 01010KT 9999 FEW012 SCT100 25/23 Q1012 RMK A2988",
        "visib": "6",
        "status": "updated"
    }
]