[
    {
        "icaoId": "RCTP",
        "obsTime": 1782255600,
        "rawOb": "METAR RCTP 232300Z 27003KT 220V300 9999 FEW010 SCT015 BKN030 29/26 Q1004 NOSIG RMK A2966",
        "visib": "6",
        "status": "updated"
    },
    {
        "icaoId": "RCSS",
        "obsTime": 1782255600,
        "rawOb": "METAR RCSS 232300Z VRB01KT 9999 FEW010 BKN024 BKN037 31/26 Q1004 NOSIG RMK A2966",
        "visib": "6",
        "status": "updated"
    },
    {
        "icaoId": "RCKH",
        "obsTime": 1782256860,
        "rawOb": "SPECI RCKH 232321Z 29007KT 9999 SCT012 SCT025 30/25 Q1004 NOSIG RMK 29009KT/R09 A2966",
        "visib": "6",
        "status": "updated"
    },
    {
        "icaoId": "RCMQ",
        "obsTime": 1782255600,
        "rawOb": "METAR RCMQ 232300Z 21005KT 9999 FEW010 SCT016 BKN200 29/26 Q1006 NOSIG RMK A2971",
        "visib": "6",
        "status": "updated"
    },
    {
        "icaoId": "RCBS",
        "obsTime": 1779233400,
        "rawOb": "METAR RCBS 192330Z 22004KT 180V240 9999 FEW010 SCT018 BKN070 25/25 Q1009 NOSIG RMK A2980(E)",
        "visib": "6.2",
        "status": "old_data_kept"
    },
    {
        "icaoId": "RCNN",
        "obsTime": 1782255600,
        "rawOb": "METAR RCNN 232300Z 25002KT 9999 VCSH FEW010 BKN025 BKN050 28/25 Q1005 NOSIG RMK A2969 VCSH N",
        "visib": "6",
        "status": "updated"
    },
    {
        "icaoId": "RCYU",
        "obsTime": 1779233400,
        "rawOb": "METAR RCYU 192330Z 24004KT 9999 FEW012 SCT040 BKN100 26/20 Q1010 NOSIG RMK A2982",
        "visib": "6.2",
        "status": "old_data_kept"
    },
    {
        "icaoId": "RCQC",
        "obsTime": 1782255900,
        "rawOb": "SPECI RCQC 232305Z 18007KT 9999 SCT006 BKN014 BKN030 29/28 Q1004 NOSIG RMK A2965",
        "visib": "6",
        "status": "updated"
    }
]