[
    {
        "icaoId": "RCTP",
        "obsTime": 1778869800,
        "rawOb": "METAR RCTP 151830Z 06015KT 9999 FEW015 SCT050 24/19 Q1010 NOSIG RMK A2985",
        "visib": "6",
        "status": "updated"
    },
    {
        "icaoId": "RCSS",
        "obsTime": 1778868000,
        "rawOb": "METAR RCSS 151800Z 09012KT 9999 FEW020 BKN040 24/20 Q1012 NOSIG RMK A2989",
        "visib": "6",
        "status": "updated"
    },
    {
        "icaoId": "RCKH",
        "obsTime": 1778868000,
        "rawOb": "METAR RCKH 151800Z 07003KT 360V100 9999 FEW010 BKN120 27/22 Q1008 NOSIG RMK A2979",
        "visib": "6",
        "status": "updated"
    },
    {
        "icaoId": "RCMQ",
        "obsTime": 1778868000,
        "rawOb": "METAR RCMQ 151800Z 18004KT 9999 FEW012 BKN100 25/23 Q1010 RMK A2983",
        "visib": "6",
        "status": "updated"
    },
    {
        "icaoId": "RCBS",
        "obsTime": 0,
        "rawOb": "",
        "visib": "",
        "status": "old_data_kept"
    },
    {
        "icaoId": "RCNN",
        "obsTime": 1778868000,
        "rawOb": "METAR RCNN 151800Z 32003KT 9999 FEW012 SCT060 26/23 Q1009 RMK A2982",
        "visib": "6",
        "status": "updated"
    },
    {
        "icaoId": "RCYU",
        "obsTime": 0,
        "rawOb": "",
        "visib": "",
        "status": "old_data_kept"
    },
    {
        "icaoId": "RCQC",
        "obsTime": 1778868000,
        "rawOb": "METAR RCQC 151800Z 36007KT 9999 FEW012 SCT100 25/23 Q1009 RMK A2982",
        "visib": "6",
        "status": "updated"
    }
]