[
    {
        "icaoId": "RCTP",
        "obsTime": 1782430200,
        "rawOb": "METAR RCTP 252330Z 04008KT 6000 -SHRA SCT004 BKN006 BKN020 25/25 Q1005 NOSIG RMK A2969",
        "visib": "3.73",
        "status": "updated"
    },
    {
        "icaoId": "RCSS",
        "obsTime": 1782430200,
        "rawOb": "METAR RCSS 252330Z 11006KT 6000 -SHRA SCT009 FEW013CB BKN020 BKN035 25/25 Q1005 RESHRA NOSIG RMK CB S-SE A2968",
        "visib": "3.73",
        "status": "updated"
    },
    {
        "icaoId": "RCKH",
        "obsTime": 1782430500,
        "rawOb": "SPECI RCKH 252335Z 29003KT 1200 R09/P2000 +TSRA FEW002 SCT008CB BKN010 OVC012 24/24 Q1006 TEMPO 1500 +TSRA RMK TS S-W-NW MOV SE A2973",
        "visib": "0.75",
        "status": "updated"
    },
    {
        "icaoId": "RCMQ",
        "obsTime": 1782430560,
        "rawOb": "SPECI RCMQ 252336Z COR 20007KT 5000 RA VCTS BR SCT008 FEW010CB BKN016 OVC030 26/26 Q1006 BECMG FM0000 TL0200 TSRA RMK A2972 TS NW MOV E",
        "visib": "3.11",
        "status": "updated"
    },
    {
        "icaoId": "RCBS",
        "obsTime": 1779233400,
        "rawOb": "METAR RCBS 192330Z 22004KT 180V240 9999 FEW010 SCT018 BKN070 25/25 Q1009 NOSIG RMK A2980(E)",
        "visib": "6.2",
        "status": "old_data_kept"
    },
    {
        "icaoId": "RCNN",
        "obsTime": 1782430200,
        "rawOb": "METAR RCNN 252330Z 10004KT 4000 -TSRA SCT004 FEW010CB BKN014 BKN040 26/24 Q1006 RERA BECMG TL0000 TSRA RMK A2971 TS OVHD STNRY RVR N/A AWOS R36 N/A",
        "visib": "2.49",
        "status": "updated"
    },
    {
        "icaoId": "RCYU",
        "obsTime": 1779233400,
        "rawOb": "METAR RCYU 192330Z 24004KT 9999 FEW012 SCT040 BKN100 26/20 Q1010 NOSIG RMK A2982",
        "visib": "6.2",
        "status": "old_data_kept"
    },
    {
        "icaoId": "RCQC",
        "obsTime": 1782430200,
        "rawOb": "METAR RCQC 252330Z 15004KT 4000 -RA BR SCT002 BKN005 OVC015 27/27 Q1004 NOSIG RMK A2967",
        "visib": "2.49",
        "status": "updated"
    }
]