[
    {
        "icaoId": "RCTP",
        "obsTime": 1778801400,
        "rawOb": "METAR RCTP 142330Z 08006KT 9999 FEW008 BKN080 BKN100 25/23 Q1011 NOSIG RMK A2986",
        "visib": "6",
        "status": "updated"
    },
    {
        "icaoId": "RCSS",
        "obsTime": 1778801400,
        "rawOb": "METAR RCSS 142330Z 10007KT 9999 FEW015 SCT070 BKN100 25/23 Q1011 NOSIG RMK A2986",
        "visib": "6",
        "status": "updated"
    },
    {
        "icaoId": "RCKH",
        "obsTime": 1778801400,
        "rawOb": "METAR RCKH 142330Z 03005KT 350V070 9999 FEW024 SCT120 29/20 Q1009 NOSIG RMK A2980",
        "visib": "6",
        "status": "updated"
    },
    {
        "icaoId": "RCMQ",
        "obsTime": 1778801400,
        "rawOb": "METAR RCMQ 142330Z 31005KT 9999 FEW010 BKN100 25/23 Q1011 NOSIG RMK A2987",
        "visib": "6",
        "status": "updated"
    },
    {
        "icaoId": "RCBS",
        "obsTime": 0,
        "rawOb": "",
        "visib": "",
        "status": "old_data_kept"
    },
    {
        "icaoId": "RCNN",
        "obsTime": 1778801400,
        "rawOb": "METAR RCNN 142330Z 02004KT 9999 FEW012 SCT050 BKN100 26/21 Q1010 NOSIG RMK A2984",
        "visib": "6",
        "status": "updated"
    },
    {
        "icaoId": "RCYU",
        "obsTime": 0,
        "rawOb": "",
        "visib": "",
        "status": "old_data_kept"
    },
    {
        "icaoId": "RCQC",
        "obsTime": 1778801400,
        "rawOb": "METAR RCQC 142330Z 03008KT 9999 FEW010 BKN060 26/25 Q1010 NOSIG RMK A2983",
        "visib": "6",
        "status": "updated"
    }
]