[
    {
        "icaoId": "RCTP",
        "obsTime": 1783026000,
        "rawOb": "METAR RCTP 022100Z 16007KT CAVOK 27/23 Q1012 NOSIG RMK A2991",
        "visib": "6",
        "status": "updated"
    },
    {
        "icaoId": "RCSS",
        "obsTime": 1783026000,
        "rawOb": "METAR RCSS 022100Z VRB02KT 9999 FEW022 27/25 Q1012 NOSIG RMK A2991",
        "visib": "6",
        "status": "updated"
    },
    {
        "icaoId": "RCKH",
        "obsTime": 1783026000,
        "rawOb": "METAR RCKH 022100Z 17010KT 130V210 9999 FEW012 BKN020 30/25 Q1012 NOSIG RMK A2989",
        "visib": "6",
        "status": "updated"
    },
    {
        "icaoId": "RCMQ",
        "obsTime": 1783026000,
        "rawOb": "METAR RCMQ 022100Z 06005KT 9999 FEW012 BKN120 26/25 Q1014 NOSIG RMK A2995",
        "visib": "6",
        "status": "updated"
    },
    {
        "icaoId": "RCBS",
        "obsTime": 1779233400,
        "rawOb": "METAR RCBS 192330Z 22004KT 180V240 9999 FEW010 SCT018 BKN070 25/25 Q1009 NOSIG RMK A2980(E)",
        "visib": "6.2",
        "status": "old_data_kept"
    },
    {
        "icaoId": "RCNN",
        "obsTime": 1783026000,
        "rawOb": "METAR RCNN 022100Z 00000KT 9999 FEW010 SCT060 27/25 Q1013 NOSIG RMK A2992",
        "visib": "6",
        "status": "updated"
    },
    {
        "icaoId": "RCYU",
        "obsTime": 1779233400,
        "rawOb": "METAR RCYU 192330Z 24004KT 9999 FEW012 SCT040 BKN100 26/20 Q1010 NOSIG RMK A2982",
        "visib": "6.2",
        "status": "old_data_kept"
    },
    {
        "icaoId": "RCQC",
        "obsTime": 1783026000,
        "rawOb": "METAR RCQC 022100Z 22002KT 9999 FEW010 SCT020 BKN040 29/28 Q1012 NOSIG RMK A2990",
        "visib": "6",
        "status": "updated"
    }
]