[
    {
        "icaoId": "RCTP",
        "obsTime": 1784244600,
        "rawOb": "METAR RCTP 162330Z 24017KT 9999 FEW020 30/25 Q1007 WS R23R NOSIG RMK A2975(W)",
        "visib": "6.2",
        "status": "updated"
    },
    {
        "icaoId": "RCSS",
        "obsTime": 1784244600,
        "rawOb": "METAR RCSS 162330Z 27010KT 240V310 9999 FEW018 SCT030 30/25 Q1007 NOSIG RMK 28008KT/R10 A2975(F)",
        "visib": "6.2",
        "status": "updated"
    },
    {
        "icaoId": "RCKH",
        "obsTime": 1784244600,
        "rawOb": "METAR RCKH 162330Z 08005KT 9999 FEW010 SCT022 29/24 Q1008 NOSIG RMK A2979(G)",
        "visib": "6.2",
        "status": "updated"
    },
    {
        "icaoId": "RCMQ",
        "obsTime": 1784242800,
        "rawOb": "METAR RCMQ 162300Z 18008KT 9999 FEW012 SCT025 BKN100 28/25 Q1010 NOSIG RMK A2983",
        "visib": "6.2",
        "status": "updated"
    },
    {
        "icaoId": "RCBS",
        "obsTime": 1784244600,
        "rawOb": "METAR RCBS 162330Z 21010KT 9999 FEW012 SCT035 28/28 Q1007 NOSIG RMK 21007KT/R06 A2974(Q)",
        "visib": "6.2",
        "status": "updated"
    },
    {
        "icaoId": "RCNN",
        "obsTime": 1784242800,
        "rawOb": "METAR RCNN 162300Z 10004KT 9999 FEW012 SCT060 BKN200 27/23 Q1008 NOSIG RMK A2979",
        "visib": "6.2",
        "status": "updated"
    },
    {
        "icaoId": "RCYU",
        "obsTime": 1784242800,
        "rawOb": "METAR RCYU 162300Z 22003KT 9999 FEW012 BKN050 30/25 Q1007 NOSIG RMK A2975",
        "visib": "6.2",
        "status": "updated"
    },
    {
        "icaoId": "RCQC",
        "obsTime": 1784242800,
        "rawOb": "METAR RCQC 162300Z 19003KT 9999 FEW012 SCT080 28/27 Q1008 NOSIG RMK A2977 AWOS R20 N/A",
        "visib": "6.2",
        "status": "updated"
    }
]