[
    {
        "icaoId": "RCTP",
        "obsTime": 1784372400,
        "rawOb": "METAR RCTP 181100Z 23015KT 9999 FEW020 BKN200 29/23 Q1004 NOSIG RMK A2967(B)",
        "visib": "6.2",
        "status": "updated"
    },
    {
        "icaoId": "RCSS",
        "obsTime": 1784372400,
        "rawOb": "METAR RCSS 181100Z 28010KT 9999 FEW020 SCT120 BKN200 31/25 Q1004 NOSIG RMK 28012KT/R10 A2966(K)",
        "visib": "6.2",
        "status": "updated"
    },
    {
        "icaoId": "RCKH",
        "obsTime": 1784372400,
        "rawOb": "METAR RCKH 181100Z 03003KT 350V060 9999 FEW016 SCT024 BKN080 28/23 Q1007 NOSIG RMK A2974(Q)",
        "visib": "6.2",
        "status": "updated"
    },
    {
        "icaoId": "RCMQ",
        "obsTime": 1784372400,
        "rawOb": "METAR RCMQ 181100Z 18010KT 9999 VCSH FEW008 SCT150 BKN200 27/25 Q1007 NOSIG RMK A2976 VCSH E-SE",
        "visib": "6.2",
        "status": "updated"
    },
    {
        "icaoId": "RCBS",
        "obsTime": 1784372400,
        "rawOb": "METAR RCBS 181100Z 22013KT 7000 SCT004 BKN007 OVC025 28/28 Q1005 NOSIG RMK 23009KT/R06 A2968(W)",
        "visib": "4.35",
        "status": "updated"
    },
    {
        "icaoId": "RCNN",
        "obsTime": 1784372400,
        "rawOb": "METAR RCNN 181100Z 10003KT 9999 VCSH FEW010 SCT025 BKN060 25/23 Q1007 RMK A2974 VCSH W",
        "visib": "6.2",
        "status": "updated"
    },
    {
        "icaoId": "RCYU",
        "obsTime": 1784372400,
        "rawOb": "METAR RCYU 181100Z 19003KT 9999 FEW012 SCT040 BKN080 30/25 Q1005 RMK A2970",
        "visib": "6.2",
        "status": "updated"
    },
    {
        "icaoId": "RCQC",
        "obsTime": 1784372400,
        "rawOb": "METAR RCQC 181100Z 16005KT 9999 VCSH FEW008 SCT030 BKN060 27/26 Q1006 NOSIG RMK A2973 VCSH S AWOS R20 N/A",
        "visib": "6.2",
        "status": "updated"
    }
]