[
    {
        "icaoId": "RCTP",
        "obsTime": 1778967000,
        "rawOb": "METAR RCTP 162130Z 08016KT 9999 FEW015 BKN200 24/18 Q1011 WS ALL RWY NOSIG RMK A2988",
        "visib": "6",
        "status": "updated"
    },
    {
        "icaoId": "RCSS",
        "obsTime": 1778965200,
        "rawOb": "METAR RCSS 162100Z 09011KT 9999 FEW020 SCT250 24/19 Q1012 NOSIG RMK A2991",
        "visib": "6",
        "status": "updated"
    },
    {
        "icaoId": "RCKH",
        "obsTime": 1778965200,
        "rawOb": "METAR RCKH 162100Z VRB02KT 9999 FEW016 SCT030 BKN090 24/22 Q1010 NOSIG RMK A2985",
        "visib": "6",
        "status": "updated"
    },
    {
        "icaoId": "RCMQ",
        "obsTime": 1778967000,
        "rawOb": "METAR RCMQ 162130Z 00000KT 9999 FEW012 BKN025 25/22 Q1012 NOSIG RMK A2989",
        "visib": "6",
        "status": "updated"
    },
    {
        "icaoId": "RCBS",
        "obsTime": 0,
        "rawOb": "",
        "visib": "",
        "status": "old_data_kept"
    },
    {
        "icaoId": "RCNN",
        "obsTime": 1778967000,
        "rawOb": "METAR RCNN 162130Z 12004KT 9999 FEW012 SCT025 BKN080 24/20 Q1011 NOSIG RMK A2988",
        "visib": "6",
        "status": "updated"
    },
    {
        "icaoId": "RCYU",
        "obsTime": 0,
        "rawOb": "",
        "visib": "",
        "status": "old_data_kept"
    },
    {
        "icaoId": "RCQC",
        "obsTime": 1778967000,
        "rawOb": "METAR RCQC 162130Z 34003KT 9999 FEW012 BKN200 25/24 Q1010 NOSIG RMK A2985",
        "visib": "6",
        "status": "updated"
    }
]