[
    {
        "icaoId": "RCTP",
        "obsTime": 1778934600,
        "rawOb": "METAR RCTP 161230Z 06017G27KT 030V090 9999 FEW015 25/19 Q1013 NOSIG RMK A2992",
        "visib": "6",
        "status": "updated"
    },
    {
        "icaoId": "RCSS",
        "obsTime": 1778934600,
        "rawOb": "METAR RCSS 161230Z 09013KT 9999 FEW016 SCT040 25/20 Q1014 NOSIG RMK A2996",
        "visib": "6",
        "status": "updated"
    },
    {
        "icaoId": "RCKH",
        "obsTime": 1778934600,
        "rawOb": "METAR RCKH 161230Z 10004KT 9999 FEW018 SCT060 BKN120 24/22 Q1011 NOSIG RMK A2987",
        "visib": "6",
        "status": "updated"
    },
    {
        "icaoId": "RCMQ",
        "obsTime": 1778934600,
        "rawOb": "METAR RCMQ 161230Z 18005KT 9999 FEW012 BKN200 27/22 Q1012 NOSIG RMK A2989",
        "visib": "6",
        "status": "updated"
    },
    {
        "icaoId": "RCBS",
        "obsTime": 0,
        "rawOb": "",
        "visib": "",
        "status": "old_data_kept"
    },
    {
        "icaoId": "RCNN",
        "obsTime": 1778934600,
        "rawOb": "METAR RCNN 161230Z 11004KT 9999 FEW012 BKN050 25/21 Q1012 RMK A2989",
        "visib": "6",
        "status": "updated"
    },
    {
        "icaoId": "RCYU",
        "obsTime": 0,
        "rawOb": "",
        "visib": "",
        "status": "old_data_kept"
    },
    {
        "icaoId": "RCQC",
        "obsTime": 1778934600,
        "rawOb": "METAR RCQC 161230Z 36009KT 9999 FEW012 SCT080 BKN200 26/23 Q1011 NOSIG RMK A2988",
        "visib": "6",
        "status": "updated"
    }
]