[
    {
        "icaoId": "RCTP",
        "obsTime": 1779134400,
        "rawOb": "METAR RCTP 182000Z 20003KT 9999 FEW020 BKN048 23/20 Q1009 NOSIG RMK A2981(R)",
        "visib": "6.2",
        "status": "updated"
    },
    {
        "icaoId": "RCSS",
        "obsTime": 1779134400,
        "rawOb": "METAR RCSS 182000Z 07001KT 9999 FEW020 23/20 Q1009 NOSIG RMK A2981(R)",
        "visib": "6.2",
        "status": "updated"
    },
    {
        "icaoId": "RCKH",
        "obsTime": 1779134400,
        "rawOb": "METAR RCKH 182000Z 20004KT 160V240 9999 FEW015 SCT034 27/21 Q1009 NOSIG RMK A2981(B)",
        "visib": "6.2",
        "status": "updated"
    },
    {
        "icaoId": "RCMQ",
        "obsTime": 1779134400,
        "rawOb": "METAR RCMQ 182000Z 17004KT 9999 FEW012 BKN020 24/23 Q1010 RMK A2985",
        "visib": "6.2",
        "status": "updated"
    },
    {
        "icaoId": "RCBS",
        "obsTime": 1779109200,
        "rawOb": "METAR RCBS 181300Z 10007KT 9999 FEW015 24/23 Q1011 NOSIG RMK A2988(Q)",
        "visib": "6.2",
        "status": "updated"
    },
    {
        "icaoId": "RCNN",
        "obsTime": 1779134400,
        "rawOb": "METAR RCNN 182000Z 24002KT 9999 FEW012 SCT025 25/21 Q1010 RMK A2984",
        "visib": "6.2",
        "status": "updated"
    },
    {
        "icaoId": "RCYU",
        "obsTime": 1779134400,
        "rawOb": "METAR RCYU 182000Z 22002KT 9999 FEW012 22/19 Q1010 RMK A2983",
        "visib": "6.2",
        "status": "updated"
    },
    {
        "icaoId": "RCQC",
        "obsTime": 1779134400,
        "rawOb": "METAR RCQC 182000Z 33004KT 9999 FEW010 SCT016 BKN060 24/24 Q1010 RMK A2983",
        "visib": "6.2",
        "status": "updated"
    }
]