[
    {
        "icaoId": "RCTP",
        "obsTime": 1784890800,
        "rawOb": "METAR RCTP 241100Z 08022G33KT 9999 FEW020 SCT100 BKN200 32/23 Q1004 WS ALL RWY NOSIG RMK A2965(Z)",
        "visib": "6.2",
        "status": "updated"
    },
    {
        "icaoId": "RCSS",
        "obsTime": 1784890800,
        "rawOb": "METAR RCSS 241100Z 09013KT 9999 FEW022 SCT040 BKN200 31/26 Q1006 NOSIG RMK A2972(I)",
        "visib": "6.2",
        "status": "updated"
    },
    {
        "icaoId": "RCKH",
        "obsTime": 1784891340,
        "rawOb": "SPECI RCKH 241109Z 23006KT 200V270 9999 -SHRA SCT015 BKN030 BKN045 29/26 Q1003 NOSIG RMK A2964(B)",
        "visib": "6.2",
        "status": "updated"
    },
    {
        "icaoId": "RCMQ",
        "obsTime": 1784890800,
        "rawOb": "METAR RCMQ 241100Z 32004KT 9999 FEW010 BKN200 29/26 Q1004 NOSIG RMK A2966",
        "visib": "6.2",
        "status": "updated"
    },
    {
        "icaoId": "RCBS",
        "obsTime": 1784890800,
        "rawOb": "METAR RCBS 241100Z 05012G22KT 020V090 9999 FEW015 SCT160 BKN230 31/26 Q1004 NOSIG RMK A2967(O)",
        "visib": "6.2",
        "status": "updated"
    },
    {
        "icaoId": "RCNN",
        "obsTime": 1784890800,
        "rawOb": "METAR RCNN 241100Z 31002KT 9999 VCSH FEW010 SCT030 BKN060 28/24 Q1003 NOSIG RMK A2964 VCSH S AWOS R36 N/A",
        "visib": "6.2",
        "status": "updated"
    },
    {
        "icaoId": "RCYU",
        "obsTime": 1784890800,
        "rawOb": "METAR RCYU 241100Z 01004KT 9999 FEW012 SCT025 BKN060 30/26 Q1009 NOSIG RMK A2980",
        "visib": "6.2",
        "status": "updated"
    },
    {
        "icaoId": "RCQC",
        "obsTime": 1784890800,
        "rawOb": "METAR RCQC 241100Z 35008KT 9999 SCT006 BKN012 BKN040 29/28 Q1003 BECMG BKN015 RMK A2964 APCH CLD SCT006",
        "visib": "6",
        "status": "updated"
    }
]