[
    {
        "icaoId": "RCTP",
        "obsTime": 1783958400,
        "rawOb": "METAR RCTP 131600Z 17005KT 140V200 9999 FEW015 BKN050 28/26 Q1008 NOSIG RMK A2977(F)",
        "visib": "6.2",
        "status": "updated"
    },
    {
        "icaoId": "RCSS",
        "obsTime": 1783958400,
        "rawOb": "METAR RCSS 131600Z VRB02KT 9999 FEW018 BKN030 BKN050 28/27 Q1008 NOSIG RMK A2977(Z)",
        "visib": "6.2",
        "status": "updated"
    },
    {
        "icaoId": "RCKH",
        "obsTime": 1783958400,
        "rawOb": "METAR RCKH 131600Z 16015KT 130V200 6000 -SHRA FEW008 SCT018 BKN050 27/25 Q1008 NOSIG RMK A2979 RA AMT 2.2MM(U)",
        "visib": "3.73",
        "status": "updated"
    },
    {
        "icaoId": "RCMQ",
        "obsTime": 1783958400,
        "rawOb": "METAR RCMQ 131600Z 17003KT 9999 FEW008 SCT030 BKN050 27/26 Q1009 RMK A2982 RA AMT T",
        "visib": "6.2",
        "status": "updated"
    },
    {
        "icaoId": "RCBS",
        "obsTime": 1783947600,
        "rawOb": "METAR RCBS 131300Z 12007KT 9000 SCT018 SCT080 BKN210 29/29 Q1006 NOSIG RMK 12006KT/R06 A2971(N)",
        "visib": "5.59",
        "status": "updated"
    },
    {
        "icaoId": "RCNN",
        "obsTime": 1783958400,
        "rawOb": "METAR RCNN 131600Z 19012KT 9999 VCSH FEW014 SCT025 BKN080 28/23 Q1008 RMK A2978 VCSH SW-W",
        "visib": "6.2",
        "status": "updated"
    },
    {
        "icaoId": "RCYU",
        "obsTime": 1783958400,
        "rawOb": "METAR RCYU 131600Z 18007KT 9999 FEW012 SCT080 29/25 Q1009 RMK A2980",
        "visib": "6.2",
        "status": "updated"
    },
    {
        "icaoId": "RCQC",
        "obsTime": 1783958400,
        "rawOb": "METAR RCQC 131600Z 16015G26KT 9999 FEW012 SCT060 BKN200 28/26 Q1007 RMK A2974 AWOS R20 N/A",
        "visib": "6.2",
        "status": "updated"
    }
]