[
    {
        "icaoId": "RCTP",
        "obsTime": 1784399400,
        "rawOb": "METAR RCTP 181830Z 23007KT 9999 FEW020 SCT180 26/23 Q1005 NOSIG RMK A2969(R)",
        "visib": "6.2",
        "status": "updated"
    },
    {
        "icaoId": "RCSS",
        "obsTime": 1784397600,
        "rawOb": "METAR RCSS 181800Z VRB01KT 9999 FEW020 SCT180 28/25 Q1005 NOSIG RMK A2969(X)",
        "visib": "6.2",
        "status": "updated"
    },
    {
        "icaoId": "RCKH",
        "obsTime": 1784397600,
        "rawOb": "METAR RCKH 181800Z 09003KT 9999 FEW015 SCT025 27/24 Q1007 NOSIG RMK A2975(C)",
        "visib": "6.2",
        "status": "updated"
    },
    {
        "icaoId": "RCMQ",
        "obsTime": 1784397600,
        "rawOb": "METAR RCMQ 181800Z 19010KT 9999 FEW012 SCT150 27/24 Q1008 RMK A2978",
        "visib": "6.2",
        "status": "updated"
    },
    {
        "icaoId": "RCBS",
        "obsTime": 1784379600,
        "rawOb": "METAR RCBS 181300Z 23015KT 7000 FEW007 BKN012 BKN035 27/27 Q1005 NOSIG RMK 23011KT/R06 A2969(B)",
        "visib": "4.35",
        "status": "updated"
    },
    {
        "icaoId": "RCNN",
        "obsTime": 1784397600,
        "rawOb": "METAR RCNN 181800Z 14003KT 9999 FEW012 SCT040 BKN080 24/23 Q1007 RMK A2976",
        "visib": "6.2",
        "status": "updated"
    },
    {
        "icaoId": "RCYU",
        "obsTime": 1784397600,
        "rawOb": "METAR RCYU 181800Z 27002KT 9999 FEW012 SCT080 27/24 Q1006 RMK A2971",
        "visib": "6.2",
        "status": "updated"
    },
    {
        "icaoId": "RCQC",
        "obsTime": 1784397600,
        "rawOb": "METAR RCQC 181800Z 18007KT 9999 FEW010 SCT020 BKN100 28/27 Q1007 RMK A2974 AWOS R20 N/A",
        "visib": "6.2",
        "status": "updated"
    }
]