[
    {
        "icaoId": "RCTP",
        "obsTime": 1784559600,
        "rawOb": "METAR RCTP 201500Z 12006KT 090V160 9999 FEW015 SCT150 29/25 Q1009 NOSIG RMK A2980(P)",
        "visib": "6.2",
        "status": "updated"
    },
    {
        "icaoId": "RCSS",
        "obsTime": 1784559600,
        "rawOb": "METAR RCSS 201500Z 09003KT 9999 FEW022 26/26 Q1009 NOSIG RMK A2980(C)",
        "visib": "6.2",
        "status": "updated"
    },
    {
        "icaoId": "RCKH",
        "obsTime": 1784559600,
        "rawOb": "METAR RCKH 201500Z 18003KT 130V200 9999 FEW014 SCT038 29/24 Q1009 NOSIG RMK A2981(C)",
        "visib": "6.2",
        "status": "updated"
    },
    {
        "icaoId": "RCMQ",
        "obsTime": 1784559600,
        "rawOb": "METAR RCMQ 201500Z 18006KT 9999 FEW012 BKN100 28/25 Q1010 RMK A2983",
        "visib": "6.2",
        "status": "updated"
    },
    {
        "icaoId": "RCBS",
        "obsTime": 1784552400,
        "rawOb": "METAR RCBS 201300Z 22005KT 9999 FEW006 BKN012 BKN150 27/27 Q1007 NOSIG RMK A2976(I)",
        "visib": "6.2",
        "status": "updated"
    },
    {
        "icaoId": "RCNN",
        "obsTime": 1784559600,
        "rawOb": "METAR RCNN 201500Z 16004KT 9999 FEW012 BKN080 26/24 Q1009 RMK A2981",
        "visib": "6.2",
        "status": "updated"
    },
    {
        "icaoId": "RCYU",
        "obsTime": 1784559600,
        "rawOb": "METAR RCYU 201500Z 22001KT 9999 FEW012 SCT080 28/25 Q1010 RMK A2982",
        "visib": "6.2",
        "status": "updated"
    },
    {
        "icaoId": "RCQC",
        "obsTime": 1784559600,
        "rawOb": "METAR RCQC 201500Z 16005KT 9999 FEW012 BKN150 28/27 Q1008 RMK A2980 AWOS R20 N/A",
        "visib": "6.2",
        "status": "updated"
    }
]