[
    {
        "icaoId": "RCTP",
        "obsTime": 1779139800,
        "rawOb": "METAR RCTP 182130Z 18003KT 9999 FEW020 23/21 Q1009 NOSIG RMK A2981(U)",
        "visib": "6.2",
        "status": "updated"
    },
    {
        "icaoId": "RCSS",
        "obsTime": 1779138000,
        "rawOb": "METAR RCSS 182100Z VRB01KT 9999 FEW050 23/20 Q1009 NOSIG RMK A2981(S)",
        "visib": "6.2",
        "status": "updated"
    },
    {
        "icaoId": "RCKH",
        "obsTime": 1779138000,
        "rawOb": "METAR RCKH 182100Z 21004KT 180V240 9999 FEW015 SCT036 27/21 Q1009 NOSIG RMK A2981(C)",
        "visib": "6.2",
        "status": "updated"
    },
    {
        "icaoId": "RCMQ",
        "obsTime": 1779139800,
        "rawOb": "METAR RCMQ 182130Z 16007KT 9999 FEW012 SCT025 BKN050 24/22 Q1011 NOSIG RMK A2985",
        "visib": "6.2",
        "status": "updated"
    },
    {
        "icaoId": "RCBS",
        "obsTime": 1779139800,
        "rawOb": "METAR RCBS 182130Z 02002KT 9999 FEW015 21/21 Q1010 NOSIG RMK A2983(S)",
        "visib": "6.2",
        "status": "updated"
    },
    {
        "icaoId": "RCNN",
        "obsTime": 1779139800,
        "rawOb": "METAR RCNN 182130Z 00000KT 9999 FEW012 SCT025 23/21 Q1011 NOSIG RMK A2985",
        "visib": "6.2",
        "status": "updated"
    },
    {
        "icaoId": "RCYU",
        "obsTime": 1779139800,
        "rawOb": "METAR RCYU 182130Z 23004KT 9999 FEW012 21/19 Q1010 NOSIG RMK A2984",
        "visib": "6.2",
        "status": "updated"
    },
    {
        "icaoId": "RCQC",
        "obsTime": 1779139800,
        "rawOb": "METAR RCQC 182130Z 35003KT 9999 FEW012 SCT020 BKN080 24/23 Q1010 NOSIG RMK A2983",
        "visib": "6.2",
        "status": "updated"
    }
]