[
    {
        "icaoId": "RCTP",
        "obsTime": 1783341000,
        "rawOb": "METAR RCTP 061230Z VRB02KT 9999 FEW020 SCT085 29/25 Q1010 NOSIG RMK A2983(N)",
        "visib": "6.2",
        "status": "updated"
    },
    {
        "icaoId": "RCSS",
        "obsTime": 1783341000,
        "rawOb": "METAR RCSS 061230Z VRB02KT 9999 FEW020 SCT040 28/27 Q1009 NOSIG RMK A2982(V)",
        "visib": "6.2",
        "status": "updated"
    },
    {
        "icaoId": "RCKH",
        "obsTime": 1783341000,
        "rawOb": "METAR RCKH 061230Z 18006KT 150V220 9999 FEW020 SCT040 30/24 Q1010 NOSIG RMK A2984(C)",
        "visib": "6.2",
        "status": "updated"
    },
    {
        "icaoId": "RCMQ",
        "obsTime": 1783341000,
        "rawOb": "METAR RCMQ 061230Z 25004KT 9999 FEW012 SCT040 29/26 Q1011 NOSIG RMK A2988",
        "visib": "6.2",
        "status": "updated"
    },
    {
        "icaoId": "RCBS",
        "obsTime": 1783341000,
        "rawOb": "METAR RCBS 061230Z 19011KT 9999 FEW010 29/29 Q1009 NOSIG RMK 19009KT/R06 A2980(C)",
        "visib": "6.2",
        "status": "updated"
    },
    {
        "icaoId": "RCNN",
        "obsTime": 1783341000,
        "rawOb": "METAR RCNN 061230Z 20006KT 9999 FEW012 SCT050 29/24 Q1011 RMK A2986",
        "visib": "6.2",
        "status": "updated"
    },
    {
        "icaoId": "RCYU",
        "obsTime": 1783341000,
        "rawOb": "METAR RCYU 061230Z 22005KT 9999 FEW012 SCT030 BKN050 30/25 Q1011 RMK A2987",
        "visib": "6.2",
        "status": "updated"
    },
    {
        "icaoId": "RCQC",
        "obsTime": 1783341000,
        "rawOb": "METAR RCQC 061230Z 17004KT 9999 FEW012 SCT200 28/27 Q1009 NOSIG RMK A2982",
        "visib": "6.2",
        "status": "updated"
    }
]