[
    {
        "icaoId": "RCTP",
        "obsTime": 1783585800,
        "rawOb": "METAR RCTP 090830Z 04014KT 9999 FEW015 SCT200 33/22 Q1004 NOSIG RMK A2966(X)",
        "visib": "6.2",
        "status": "updated"
    },
    {
        "icaoId": "RCSS",
        "obsTime": 1783585800,
        "rawOb": "METAR RCSS 090830Z 09011KT 9999 FEW022 SCT200 32/24 Q1004 NOSIG RMK A2967(Q)",
        "visib": "6.2",
        "status": "updated"
    },
    {
        "icaoId": "RCKH",
        "obsTime": 1783585800,
        "rawOb": "METAR RCKH 090830Z 30012KT 260V340 9999 FEW020 SCT210 33/24 Q1002 NOSIG RMK 30013KT/R09 A2961(V)",
        "visib": "6.2",
        "status": "updated"
    },
    {
        "icaoId": "RCMQ",
        "obsTime": 1783585800,
        "rawOb": "METAR RCMQ 090830Z 34009KT 9999 FEW012 SCT200 32/26 Q1005 NOSIG RMK A2968",
        "visib": "6.2",
        "status": "updated"
    },
    {
        "icaoId": "RCBS",
        "obsTime": 1783585800,
        "rawOb": "METAR RCBS 090830Z 18008KT 9999 FEW020 31/29 Q1003 NOSIG RMK 18008KT/R06 A2964(P)",
        "visib": "6.2",
        "status": "updated"
    },
    {
        "icaoId": "RCNN",
        "obsTime": 1783585800,
        "rawOb": "METAR RCNN 090830Z 34013KT 9999 FEW014 SCT200 32/21 Q1003 NOSIG RMK A2963",
        "visib": "6.2",
        "status": "updated"
    },
    {
        "icaoId": "RCYU",
        "obsTime": 1783585800,
        "rawOb": "METAR RCYU 090830Z 03011KT 9999 FEW012 SCT200 31/25 Q1005 NOSIG RMK A2969",
        "visib": "6.2",
        "status": "updated"
    },
    {
        "icaoId": "RCQC",
        "obsTime": 1783585800,
        "rawOb": "METAR RCQC 090830Z 32007KT 9999 FEW012 SCT200 32/26 Q1003 NOSIG RMK A2965",
        "visib": "6.2",
        "status": "updated"
    }
]