[
    {
        "icaoId": "RCTP",
        "obsTime": 1784311200,
        "rawOb": "METAR RCTP 171800Z 23013KT 9999 FEW015 28/23 Q1005 NOSIG RMK A2968(M)",
        "visib": "6.2",
        "status": "updated"
    },
    {
        "icaoId": "RCSS",
        "obsTime": 1784311200,
        "rawOb": "METAR RCSS 171800Z 29006KT 9999 FEW020 SCT035 28/24 Q1005 NOSIG RMK A2968(C)",
        "visib": "6.2",
        "status": "updated"
    },
    {
        "icaoId": "RCKH",
        "obsTime": 1784311200,
        "rawOb": "METAR RCKH 171800Z VRB01KT 9999 SCT014 SCT040 BKN060 26/24 Q1007 NOSIG RMK A2975(C)",
        "visib": "6.2",
        "status": "updated"
    },
    {
        "icaoId": "RCMQ",
        "obsTime": 1784311200,
        "rawOb": "METAR RCMQ 171800Z 19008KT 9999 FEW012 BKN100 26/23 Q1008 RMK A2976",
        "visib": "6.2",
        "status": "updated"
    },
    {
        "icaoId": "RCBS",
        "obsTime": 1784293200,
        "rawOb": "METAR RCBS 171300Z 24005KT 9999 FEW009 SCT150 27/27 Q1005 NOSIG RMK 25004KT/R06 A2969(R)",
        "visib": "6.2",
        "status": "updated"
    },
    {
        "icaoId": "RCNN",
        "obsTime": 1784311200,
        "rawOb": "METAR RCNN 171800Z 00000KT 9999 -RA FEW010 SCT025 BKN050 24/23 Q1007 RMK A2975 RA AMT T",
        "visib": "6.2",
        "status": "updated"
    },
    {
        "icaoId": "RCYU",
        "obsTime": 1784311200,
        "rawOb": "METAR RCYU 171800Z 02002KT 9999 FEW012 28/26 Q1005 RMK A2968",
        "visib": "6.2",
        "status": "updated"
    },
    {
        "icaoId": "RCQC",
        "obsTime": 1784311680,
        "rawOb": "SPECI RCQC 171808Z 18004KT 9999 FEW012 SCT030 BKN080 27/27 Q1006 RMK A2972 AWOS R20 N/A",
        "visib": "6.2",
        "status": "updated"
    }
]