[
    {
        "icaoId": "RCTP",
        "obsTime": 1784903400,
        "rawOb": "METAR RCTP 241430Z 08028KT 9999 FEW020 SCT200 31/23 Q1004 WS ALL RWY NOSIG RMK A2966(G)",
        "visib": "6.2",
        "status": "updated"
    },
    {
        "icaoId": "RCSS",
        "obsTime": 1784903400,
        "rawOb": "METAR RCSS 241430Z 10016KT 9999 -RA FEW025 SCT037 BKN055 30/26 Q1007 NOSIG RMK A2974(S)",
        "visib": "6.2",
        "status": "updated"
    },
    {
        "icaoId": "RCKH",
        "obsTime": 1784903400,
        "rawOb": "METAR RCKH 241430Z 04006KT 020V080 9999 FEW015 SCT030 BKN120 27/25 Q1004 NOSIG RMK A2967(J)",
        "visib": "6.2",
        "status": "updated"
    },
    {
        "icaoId": "RCMQ",
        "obsTime": 1784901600,
        "rawOb": "METAR RCMQ 241400Z 17002KT 9999 FEW010 SCT020 BKN120 29/26 Q1005 RMK A2970",
        "visib": "6.2",
        "status": "updated"
    },
    {
        "icaoId": "RCBS",
        "obsTime": 1784898000,
        "rawOb": "METAR RCBS 241300Z 04012KT 9999 FEW015 SCT150 31/26 Q1005 NOSIG RMK A2968(S)",
        "visib": "6.2",
        "status": "updated"
    },
    {
        "icaoId": "RCNN",
        "obsTime": 1784901600,
        "rawOb": "METAR RCNN 241400Z 21001KT 9000 -RA FEW010 BKN021 BKN050 26/23 Q1005 RMK A2969 RA AMT 0.2MM AWOS R36 N/A",
        "visib": "5.59",
        "status": "updated"
    },
    {
        "icaoId": "RCYU",
        "obsTime": 1784904000,
        "rawOb": "SPECI RCYU 241440Z 21003KT 3200 -RA VCTS BR FEW010 FEW012CB BKN025 BKN060 27/26 Q1010 RERA RMK A2983 TS SE STNR",
        "visib": "1.99",
        "status": "updated"
    },
    {
        "icaoId": "RCQC",
        "obsTime": 1784903400,
        "rawOb": "METAR RCQC 241430Z 00000KT 9999 FEW006 BKN012 BKN030 28/28 Q1004 NOSIG RMK A2966",
        "visib": "6.2",
        "status": "updated"
    }
]