[
    {
        "icaoId": "RCTP",
        "obsTime": 1784143800,
        "rawOb": "METAR RCTP 151930Z 21006KT 170V240 9999 FEW015 27/25 Q1008 NOSIG RMK A2978(J)",
        "visib": "6.2",
        "status": "updated"
    },
    {
        "icaoId": "RCSS",
        "obsTime": 1784142000,
        "rawOb": "METAR RCSS 151900Z 32002KT 9999 FEW018 SCT100 28/27 Q1008 NOSIG RMK A2979(B)",
        "visib": "6.2",
        "status": "updated"
    },
    {
        "icaoId": "RCKH",
        "obsTime": 1784142000,
        "rawOb": "METAR RCKH 151900Z 06004KT 9999 FEW014 SCT030 27/24 Q1009 NOSIG RMK A2982(W)",
        "visib": "6.2",
        "status": "updated"
    },
    {
        "icaoId": "RCMQ",
        "obsTime": 1784142000,
        "rawOb": "METAR RCMQ 151900Z 19005KT 9999 FEW010 27/24 Q1010 RMK A2984",
        "visib": "6.2",
        "status": "updated"
    },
    {
        "icaoId": "RCBS",
        "obsTime": 1784124000,
        "rawOb": "METAR RCBS 151400Z 21008KT 9999 FEW023 SCT200 27/27 Q1009 NOSIG RMK 21005KT/R06 A2980(X)",
        "visib": "6.2",
        "status": "updated"
    },
    {
        "icaoId": "RCNN",
        "obsTime": 1784142000,
        "rawOb": "METAR RCNN 151900Z 13004KT 9999 FEW012 26/23 Q1009 RMK A2982",
        "visib": "6.2",
        "status": "updated"
    },
    {
        "icaoId": "RCYU",
        "obsTime": 1784142000,
        "rawOb": "METAR RCYU 151900Z 36003KT 9999 FEW012 28/26 Q1008 RMK A2978",
        "visib": "6.2",
        "status": "updated"
    },
    {
        "icaoId": "RCQC",
        "obsTime": 1784142000,
        "rawOb": "METAR RCQC 151900Z 15006KT 9999 FEW010 SCT030 28/27 Q1009 RMK A2979 AWOS R20 N/A",
        "visib": "6.2",
        "status": "updated"
    }
]