[
    {
        "icaoId": "RCTP",
        "obsTime": 1784250000,
        "rawOb": "METAR RCTP 170100Z 24014KT 9999 FEW025 32/25 Q1007 NOSIG RMK A2975(Z)",
        "visib": "6.2",
        "status": "updated"
    },
    {
        "icaoId": "RCSS",
        "obsTime": 1784250000,
        "rawOb": "METAR RCSS 170100Z 27008KT 240V300 9999 FEW018 SCT060 33/25 Q1007 NOSIG RMK 28006KT/R10 A2975(I)",
        "visib": "6.2",
        "status": "updated"
    },
    {
        "icaoId": "RCKH",
        "obsTime": 1784250000,
        "rawOb": "METAR RCKH 170100Z VRB02KT 3000 -SHRA SCT006 SCT009CB BKN014 BKN022 29/25 Q1009 TEMPO 1500 SHRA RMK CB S-W A2981 RA AMT 1.8MM(K)",
        "visib": "1.86",
        "status": "updated"
    },
    {
        "icaoId": "RCMQ",
        "obsTime": 1784250000,
        "rawOb": "METAR RCMQ 170100Z 20011KT 9999 FEW012 SCT025 BKN100 31/25 Q1010 NOSIG RMK A2983",
        "visib": "6.2",
        "status": "updated"
    },
    {
        "icaoId": "RCBS",
        "obsTime": 1784250000,
        "rawOb": "METAR RCBS 170100Z 20008KT 9999 FEW015 29/28 Q1007 NOSIG RMK 19007KT/R06 A2975(T)",
        "visib": "6.2",
        "status": "updated"
    },
    {
        "icaoId": "RCNN",
        "obsTime": 1784250000,
        "rawOb": "METAR RCNN 170100Z 15003KT 9999 VCSH FEW012 FEW014TCU SCT025 BKN050 30/25 Q1009 NOSIG RMK A2980 VCSH SW-W TCU SW",
        "visib": "6.2",
        "status": "updated"
    },
    {
        "icaoId": "RCYU",
        "obsTime": 1784250000,
        "rawOb": "METAR RCYU 170100Z 21001KT 9999 FEW012 SCT030 BKN100 32/25 Q1007 NOSIG RMK A2976",
        "visib": "6.2",
        "status": "updated"
    },
    {
        "icaoId": "RCQC",
        "obsTime": 1784250000,
        "rawOb": "METAR RCQC 170100Z 17006KT 8000 VCSH FEW008 SCT016 BKN040 29/28 Q1008 NOSIG RMK A2978 RA AMT 1.4MM VCSH NE AWOS R20 N/A",
        "visib": "4.97",
        "status": "updated"
    }
]