[
    {
        "icaoId": "RCTP",
        "obsTime": 1779517800,
        "rawOb": "METAR RCTP 230630Z 25024KT 9999 FEW015 SCT130 34/23 Q1008 WS ALL RWY NOSIG RMK A2977",
        "visib": "6",
        "status": "updated"
    },
    {
        "icaoId": "RCSS",
        "obsTime": 1779517800,
        "rawOb": "METAR RCSS 230630Z 27013KT 9999 FEW025 BKN120 BKN180 35/22 Q1007 NOSIG RMK 28010KT/R10 A2976",
        "visib": "6",
        "status": "updated"
    },
    {
        "icaoId": "RCKH",
        "obsTime": 1779517800,
        "rawOb": "METAR RCKH 230630Z 31008KT 270V360 9999 FEW015 SCT100 BKN210 35/20 Q1009 NOSIG RMK 28011KT/R09 A2980",
        "visib": "6",
        "status": "updated"
    },
    {
        "icaoId": "RCMQ",
        "obsTime": 1779517800,
        "rawOb": "METAR RCMQ 230630Z 22011KT 9999 FEW012 SCT150 33/22 Q1011 NOSIG RMK A2986",
        "visib": "6",
        "status": "updated"
    },
    {
        "icaoId": "RCBS",
        "obsTime": 1779233400,
        "rawOb": "METAR RCBS 192330Z 22004KT 180V240 9999 FEW010 SCT018 BKN070 25/25 Q1009 NOSIG RMK A2980(E)",
        "visib": "6.2",
        "status": "old_data_kept"
    },
    {
        "icaoId": "RCNN",
        "obsTime": 1779517800,
        "rawOb": "METAR RCNN 230630Z 27005KT 9999 FEW012 SCT060 BKN200 30/23 Q1010 NOSIG RMK A2985",
        "visib": "6",
        "status": "updated"
    },
    {
        "icaoId": "RCYU",
        "obsTime": 1779233400,
        "rawOb": "METAR RCYU 192330Z 24004KT 9999 FEW012 SCT040 BKN100 26/20 Q1010 NOSIG RMK A2982",
        "visib": "6.2",
        "status": "old_data_kept"
    },
    {
        "icaoId": "RCQC",
        "obsTime": 1779517800,
        "rawOb": "METAR RCQC 230630Z 18006KT 9999 FEW012 BKN080 30/26 Q1010 NOSIG RMK A2983",
        "visib": "6",
        "status": "updated"
    }
]