[
    {
        "icaoId": "RCTP",
        "obsTime": 1783884600,
        "rawOb": "METAR RCTP 121930Z 01001KT 9999 FEW008 BKN014 BKN032 29/27 Q1004 NOSIG RMK A2967(Y)",
        "visib": "6.2",
        "status": "updated"
    },
    {
        "icaoId": "RCSS",
        "obsTime": 1783882800,
        "rawOb": "METAR RCSS 121900Z 09005KT 9999 FEW018 BKN045 BKN100 28/28 Q1004 NOSIG RMK A2966(A)",
        "visib": "6.2",
        "status": "updated"
    },
    {
        "icaoId": "RCKH",
        "obsTime": 1783882800,
        "rawOb": "METAR RCKH 121900Z 14013G23KT 110V170 9999 FEW024 29/24 Q1004 NOSIG RMK A2967(X)",
        "visib": "6.2",
        "status": "updated"
    },
    {
        "icaoId": "RCMQ",
        "obsTime": 1783882800,
        "rawOb": "METAR RCMQ 121900Z 19004KT 9999 FEW008 SCT016 27/26 Q1006 RMK A2970",
        "visib": "6.2",
        "status": "updated"
    },
    {
        "icaoId": "RCBS",
        "obsTime": 1783861200,
        "rawOb": "METAR RCBS 121300Z 19015KT 7000 FEW009 BKN200 28/28 Q1002 NOSIG RMK 20013KT/R06 A2959(C)",
        "visib": "4.35",
        "status": "updated"
    },
    {
        "icaoId": "RCNN",
        "obsTime": 1783882800,
        "rawOb": "METAR RCNN 121900Z 16008KT 9999 FEW010 27/24 Q1005 RMK A2967",
        "visib": "6.2",
        "status": "updated"
    },
    {
        "icaoId": "RCYU",
        "obsTime": 1783882800,
        "rawOb": "METAR RCYU 121900Z 23005KT 9999 FEW012 SCT060 28/26 Q1006 RMK A2971",
        "visib": "6.2",
        "status": "updated"
    },
    {
        "icaoId": "RCQC",
        "obsTime": 1783885200,
        "rawOb": "SPECI RCQC 121940Z 18008KT 9999 FEW010 SCT020 BKN040 28/27 Q1004 RMK A2966 VIS N 9999M RVR N/A AWOS R20 N/A",
        "visib": "6.2",
        "status": "updated"
    }
]