[
    {
        "icaoId": "RCTP",
        "obsTime": 1779021000,
        "rawOb": "METAR RCTP 171230Z 07014KT 040V100 9999 FEW020 25/18 Q1011 NOSIG RMK A2987",
        "visib": "6",
        "status": "updated"
    },
    {
        "icaoId": "RCSS",
        "obsTime": 1779021000,
        "rawOb": "METAR RCSS 171230Z 09012KT 9999 FEW020 25/19 Q1012 NOSIG RMK A2991",
        "visib": "6",
        "status": "updated"
    },
    {
        "icaoId": "RCKH",
        "obsTime": 1779021000,
        "rawOb": "METAR RCKH 171230Z 12004KT 100V180 9999 FEW013 BKN025 BKN060 27/22 Q1011 NOSIG RMK A2987",
        "visib": "6",
        "status": "updated"
    },
    {
        "icaoId": "RCMQ",
        "obsTime": 1779021000,
        "rawOb": "METAR RCMQ 171230Z 25004KT 9999 FEW012 SCT025 26/22 Q1011 NOSIG RMK A2988",
        "visib": "6",
        "status": "updated"
    },
    {
        "icaoId": "RCBS",
        "obsTime": 0,
        "rawOb": "",
        "visib": "",
        "status": "old_data_kept"
    },
    {
        "icaoId": "RCNN",
        "obsTime": 1779021000,
        "rawOb": "METAR RCNN 171230Z 00000KT 9999 FEW012 SCT030 26/23 Q1012 NOSIG RMK A2989",
        "visib": "6",
        "status": "updated"
    },
    {
        "icaoId": "RCYU",
        "obsTime": 0,
        "rawOb": "",
        "visib": "",
        "status": "old_data_kept"
    },
    {
        "icaoId": "RCQC",
        "obsTime": 1779021000,
        "rawOb": "METAR RCQC 171230Z 02011KT 9999 FEW012 SCT100 26/23 Q1011 NOSIG RMK A2987",
        "visib": "6",
        "status": "updated"
    }
]