[
    {
        "icaoId": "RCTP",
        "obsTime": 1780403400,
        "rawOb": "METAR RCTP 021230Z 09004KT 9999 FEW020 27/24 Q1005 NOSIG RMK A2970",
        "visib": "6",
        "status": "updated"
    },
    {
        "icaoId": "RCSS",
        "obsTime": 1780403400,
        "rawOb": "METAR RCSS 021230Z 09005KT 9999 FEW020 SCT130 28/25 Q1005 NOSIG RMK A2970",
        "visib": "6",
        "status": "updated"
    },
    {
        "icaoId": "RCKH",
        "obsTime": 1780403400,
        "rawOb": "METAR RCKH 021230Z 25006KT 9999 FEW015 BKN050 28/21 Q1007 NOSIG RMK A2974",
        "visib": "6",
        "status": "updated"
    },
    {
        "icaoId": "RCMQ",
        "obsTime": 1780403400,
        "rawOb": "METAR RCMQ 021230Z 19004KT 9999 FEW012 SCT100 27/20 Q1007 NOSIG RMK A2975",
        "visib": "6",
        "status": "updated"
    },
    {
        "icaoId": "RCBS",
        "obsTime": 1779233400,
        "rawOb": "METAR RCBS 192330Z 22004KT 180V240 9999 FEW010 SCT018 BKN070 25/25 Q1009 NOSIG RMK A2980(E)",
        "visib": "6.2",
        "status": "old_data_kept"
    },
    {
        "icaoId": "RCNN",
        "obsTime": 1780403400,
        "rawOb": "METAR RCNN 021230Z 27002KT 9999 FEW012 27/22 Q1007 RMK A2975",
        "visib": "6",
        "status": "updated"
    },
    {
        "icaoId": "RCYU",
        "obsTime": 1779233400,
        "rawOb": "METAR RCYU 192330Z 24004KT 9999 FEW012 SCT040 BKN100 26/20 Q1010 NOSIG RMK A2982",
        "visib": "6.2",
        "status": "old_data_kept"
    },
    {
        "icaoId": "RCQC",
        "obsTime": 1780403400,
        "rawOb": "METAR RCQC 021230Z 16003KT 9999 FEW012 27/24 Q1006 NOSIG RMK A2973",
        "visib": "6",
        "status": "updated"
    }
]