[
    {
        "icaoId": "RCTP",
        "obsTime": 1784676600,
        "rawOb": "METAR RCTP 212330Z 22008KT 9999 FEW012 SCT018 30/25 Q1010 NOSIG RMK A2984(G)",
        "visib": "6.2",
        "status": "updated"
    },
    {
        "icaoId": "RCSS",
        "obsTime": 1784676600,
        "rawOb": "METAR RCSS 212330Z VRB02KT 9999 FEW015 SCT025 BKN200 30/26 Q1010 NOSIG RMK A2984(U)",
        "visib": "6.2",
        "status": "updated"
    },
    {
        "icaoId": "RCKH",
        "obsTime": 1784676600,
        "rawOb": "METAR RCKH 212330Z 07003KT 040V110 9999 FEW014 SCT120 29/25 Q1010 NOSIG RMK A2984(K)",
        "visib": "6.2",
        "status": "updated"
    },
    {
        "icaoId": "RCMQ",
        "obsTime": 1784676600,
        "rawOb": "METAR RCMQ 212330Z 18005KT 9999 SCT014 BKN025 BKN080 28/25 Q1012 NOSIG RMK A2989",
        "visib": "6.2",
        "status": "updated"
    },
    {
        "icaoId": "RCBS",
        "obsTime": 1784676600,
        "rawOb": "METAR RCBS 212330Z 23007KT 200V260 6000 SCT003 BKN005 28/28 Q1009 NOSIG RMK A2982(Z)",
        "visib": "3.73",
        "status": "updated"
    },
    {
        "icaoId": "RCNN",
        "obsTime": 1784676600,
        "rawOb": "METAR RCNN 212330Z 11004KT 9999 FEW008 SCT020 28/25 Q1010 NOSIG RMK A2985",
        "visib": "6.2",
        "status": "updated"
    },
    {
        "icaoId": "RCYU",
        "obsTime": 1784676600,
        "rawOb": "METAR RCYU 212330Z 23003KT 9999 FEW012 SCT100 31/24 Q1010 NOSIG RMK A2985",
        "visib": "6.2",
        "status": "updated"
    },
    {
        "icaoId": "RCQC",
        "obsTime": 1784676600,
        "rawOb": "METAR RCQC 212330Z 21004KT 9999 FEW012 29/28 Q1010 NOSIG RMK A2983 AWOS R20 N/A",
        "visib": "6.2",
        "status": "updated"
    }
]