[
    {
        "icaoId": "RCTP",
        "obsTime": 1784484000,
        "rawOb": "METAR RCTP 191800Z 24011KT 9999 FEW015 SCT180 28/25 Q1007 NOSIG RMK A2974(R)",
        "visib": "6.2",
        "status": "updated"
    },
    {
        "icaoId": "RCSS",
        "obsTime": 1784484000,
        "rawOb": "METAR RCSS 191800Z 34003KT 9999 FEW020 SCT080 26/26 Q1007 NOSIG RMK A2974(J)",
        "visib": "6.2",
        "status": "updated"
    },
    {
        "icaoId": "RCKH",
        "obsTime": 1784484000,
        "rawOb": "METAR RCKH 191800Z 10004KT 9999 FEW010 SCT032 BKN120 27/24 Q1008 NOSIG RMK A2979(G)",
        "visib": "6.2",
        "status": "updated"
    },
    {
        "icaoId": "RCMQ",
        "obsTime": 1784484000,
        "rawOb": "METAR RCMQ 191800Z 18009KT 9999 FEW012 SCT100 27/24 Q1009 RMK A2981",
        "visib": "6.2",
        "status": "updated"
    },
    {
        "icaoId": "RCBS",
        "obsTime": 1784466000,
        "rawOb": "METAR RCBS 191300Z 23009KT 9999 FEW008 BKN120 27/27 Q1006 NOSIG RMK A2972(U)",
        "visib": "6.2",
        "status": "updated"
    },
    {
        "icaoId": "RCNN",
        "obsTime": 1784484000,
        "rawOb": "METAR RCNN 191800Z 12002KT 9999 FEW010 SCT025 BKN060 25/23 Q1008 RMK A2979",
        "visib": "6.2",
        "status": "updated"
    },
    {
        "icaoId": "RCYU",
        "obsTime": 1784484000,
        "rawOb": "METAR RCYU 191800Z 20004KT 9999 FEW012 SCT120 28/25 Q1007 RMK A2974",
        "visib": "6.2",
        "status": "updated"
    },
    {
        "icaoId": "RCQC",
        "obsTime": 1784484300,
        "rawOb": "SPECI RCQC 191805Z 17008KT 9999 FEW008 SCT014 BKN080 28/27 Q1007 RMK A2977 AWOS R20 N/A",
        "visib": "6.2",
        "status": "updated"
    }
]