[
    {
        "icaoId": "RCTP",
        "obsTime": 1779078600,
        "rawOb": "METAR RCTP 180430Z 36009KT 9999 FEW020 SCT180 31/21 Q1011 NOSIG RMK A2986(M)",
        "visib": "6.2",
        "status": "updated"
    },
    {
        "icaoId": "RCSS",
        "obsTime": 1779078600,
        "rawOb": "METAR RCSS 180430Z 10007KT 040V130 9999 FEW025 32/23 Q1010 NOSIG RMK A2984(O)",
        "visib": "6.2",
        "status": "updated"
    },
    {
        "icaoId": "RCKH",
        "obsTime": 1779078600,
        "rawOb": "METAR RCKH 180430Z 27011KT 230V320 9999 VCSH SCT010TCU SCT014 SCT022 29/23 Q1011 NOSIG RMK 27011KT/R09 TCU NE-SE A2986(Z)",
        "visib": "6.2",
        "status": "updated"
    },
    {
        "icaoId": "RCMQ",
        "obsTime": 1779078600,
        "rawOb": "METAR RCMQ 180430Z 34007KT 9999 SCT016 BKN040 29/24 Q1012 NOSIG RMK A2989",
        "visib": "6.2",
        "status": "updated"
    },
    {
        "icaoId": "RCBS",
        "obsTime": 1779078600,
        "rawOb": "METAR RCBS 180430Z 07011KT 030V090 9999 FEW025 30/20 Q1011 NOSIG RMK A2988(Z)",
        "visib": "6.2",
        "status": "updated"
    },
    {
        "icaoId": "RCNN",
        "obsTime": 1779078600,
        "rawOb": "METAR RCNN 180430Z 27008KT 9999 FEW012 SCT025 BKN120 30/21 Q1012 NOSIG RMK A2989",
        "visib": "6.2",
        "status": "updated"
    },
    {
        "icaoId": "RCYU",
        "obsTime": 1779078600,
        "rawOb": "METAR RCYU 180430Z 01001KT 9999 VCSH FEW012 BKN035 BKN050 27/20 Q1012 NOSIG RMK A2991 VCSH W",
        "visib": "6.2",
        "status": "updated"
    },
    {
        "icaoId": "RCQC",
        "obsTime": 1779078600,
        "rawOb": "METAR RCQC 180430Z 32007KT 9999 SCT008 BKN016 28/24 Q1011 NOSIG RMK A2988",
        "visib": "6.2",
        "status": "updated"
    }
]