[
    {
        "icaoId": "RCTP",
        "obsTime": 1782608400,
        "rawOb": "METAR RCTP 280100Z 22006KT 170V240 9999 FEW015 BKN020 BKN180 29/25 Q1008 NOSIG RMK A2977",
        "visib": "6",
        "status": "updated"
    },
    {
        "icaoId": "RCSS",
        "obsTime": 1782608400,
        "rawOb": "METAR RCSS 280100Z 33003KT 290V020 9999 FEW010 SCT022 BKN150 30/26 Q1008 NOSIG RMK A2977",
        "visib": "6",
        "status": "updated"
    },
    {
        "icaoId": "RCKH",
        "obsTime": 1782608400,
        "rawOb": "METAR RCKH 280100Z 18006KT 140V210 9999 FEW011 SCT032 BKN160 31/24 Q1008 NOSIG RMK A2977",
        "visib": "6",
        "status": "updated"
    },
    {
        "icaoId": "RCMQ",
        "obsTime": 1782608400,
        "rawOb": "METAR RCMQ 280100Z 18005KT 9999 FEW012 BKN100 30/26 Q1009 NOSIG RMK A2981",
        "visib": "6",
        "status": "updated"
    },
    {
        "icaoId": "RCBS",
        "obsTime": 1779233400,
        "rawOb": "METAR RCBS 192330Z 22004KT 180V240 9999 FEW010 SCT018 BKN070 25/25 Q1009 NOSIG RMK A2980(E)",
        "visib": "6.2",
        "status": "old_data_kept"
    },
    {
        "icaoId": "RCNN",
        "obsTime": 1782608400,
        "rawOb": "METAR RCNN 280100Z 16006KT 9999 FEW012 SCT060 BKN100 31/25 Q1008 NOSIG RMK A2978",
        "visib": "6",
        "status": "updated"
    },
    {
        "icaoId": "RCYU",
        "obsTime": 1779233400,
        "rawOb": "METAR RCYU 192330Z 24004KT 9999 FEW012 SCT040 BKN100 26/20 Q1010 NOSIG RMK A2982",
        "visib": "6.2",
        "status": "old_data_kept"
    },
    {
        "icaoId": "RCQC",
        "obsTime": 1782608400,
        "rawOb": "METAR RCQC 280100Z 14007KT 9999 FEW008 SCT016 BKN040 30/28 Q1007 NOSIG RMK A2975",
        "visib": "6",
        "status": "updated"
    }
]