[
    {
        "icaoId": "RCTP",
        "obsTime": 1784109600,
        "rawOb": "METAR RCTP 151000Z 23015KT 9999 FEW015 FEW020TCU SCT065 31/24 Q1007 NOSIG RMK TCU SE A2976(Q)",
        "visib": "6.2",
        "status": "updated"
    },
    {
        "icaoId": "RCSS",
        "obsTime": 1784110440,
        "rawOb": "SPECI RCSS 151014Z 09011KT 9999 VCSH FEW015 FEW018TCU BKN035 BKN050 30/26 Q1008 NOSIG RMK TCU SW-W A2977(I)",
        "visib": "6.2",
        "status": "updated"
    },
    {
        "icaoId": "RCKH",
        "obsTime": 1784109600,
        "rawOb": "METAR RCKH 151000Z 08005KT 9999 FEW015 SCT040 29/25 Q1009 NOSIG RMK A2981(F)",
        "visib": "6.2",
        "status": "updated"
    },
    {
        "icaoId": "RCMQ",
        "obsTime": 1784109600,
        "rawOb": "METAR RCMQ 151000Z 23010KT 9999 FEW010 SCT100 32/25 Q1009 NOSIG RMK A2982",
        "visib": "6.2",
        "status": "updated"
    },
    {
        "icaoId": "RCBS",
        "obsTime": 1784109600,
        "rawOb": "METAR RCBS 151000Z 21014KT 9999 FEW020 SCT180 29/28 Q1007 NOSIG RMK 21010KT/R06 A2975(P)",
        "visib": "6.2",
        "status": "updated"
    },
    {
        "icaoId": "RCNN",
        "obsTime": 1784109600,
        "rawOb": "METAR RCNN 151000Z 16008KT 9999 FEW012 SCT025 BKN100 30/24 Q1009 NOSIG RMK A2981",
        "visib": "6.2",
        "status": "updated"
    },
    {
        "icaoId": "RCYU",
        "obsTime": 1784109600,
        "rawOb": "METAR RCYU 151000Z 06008KT 9999 FEW012 SCT050 30/26 Q1008 NOSIG RMK A2977",
        "visib": "6.2",
        "status": "updated"
    },
    {
        "icaoId": "RCQC",
        "obsTime": 1784109600,
        "rawOb": "METAR RCQC 151000Z 18010KT 9999 FEW010 SCT030 BKN100 29/25 Q1008 NOSIG RMK A2979 AWOS R20 N/A",
        "visib": "6.2",
        "status": "updated"
    }
]