[
    {
        "icaoId": "RCTP",
        "obsTime": 1783386000,
        "rawOb": "METAR RCTP 070100Z 25008KT 210V290 9999 FEW020 33/25 Q1010 NOSIG RMK A2983(N)",
        "visib": "6.2",
        "status": "updated"
    },
    {
        "icaoId": "RCSS",
        "obsTime": 1783386000,
        "rawOb": "METAR RCSS 070100Z 20003KT 150V320 9999 FEW018 SCT030 32/27 Q1009 NOSIG RMK A2982(O)",
        "visib": "6.2",
        "status": "updated"
    },
    {
        "icaoId": "RCKH",
        "obsTime": 1783386000,
        "rawOb": "METAR RCKH 070100Z 20009KT 170V230 9999 FEW016 SCT030 30/24 Q1010 NOSIG RMK A2985(V)",
        "visib": "6.2",
        "status": "updated"
    },
    {
        "icaoId": "RCMQ",
        "obsTime": 1783386000,
        "rawOb": "METAR RCMQ 070100Z 19010KT 9999 FEW012 SCT025 32/25 Q1011 NOSIG RMK A2988",
        "visib": "6.2",
        "status": "updated"
    },
    {
        "icaoId": "RCBS",
        "obsTime": 1783386000,
        "rawOb": "METAR RCBS 070100Z 19013KT 9999 FEW010 SCT018 30/30 Q1009 NOSIG RMK 19011KT/R06 A2981(M)",
        "visib": "6.2",
        "status": "updated"
    },
    {
        "icaoId": "RCNN",
        "obsTime": 1783386000,
        "rawOb": "METAR RCNN 070100Z 19006KT 9999 FEW012 SCT021 32/25 Q1011 NOSIG RMK A2986",
        "visib": "6.2",
        "status": "updated"
    },
    {
        "icaoId": "RCYU",
        "obsTime": 1783386000,
        "rawOb": "METAR RCYU 070100Z 22004KT 9999 FEW012 32/24 Q1010 NOSIG RMK A2985",
        "visib": "6.2",
        "status": "updated"
    },
    {
        "icaoId": "RCQC",
        "obsTime": 1783386000,
        "rawOb": "METAR RCQC 070100Z 17007KT 9999 FEW012 SCT020 31/28 Q1010 NOSIG RMK A2984",
        "visib": "6.2",
        "status": "updated"
    }
]