[
    {
        "icaoId": "RCTP",
        "obsTime": 1784404800,
        "rawOb": "METAR RCTP 182000Z 23012KT 9999 FEW020 28/23 Q1005 NOSIG RMK A2970(V)",
        "visib": "6.2",
        "status": "updated"
    },
    {
        "icaoId": "RCSS",
        "obsTime": 1784404800,
        "rawOb": "METAR RCSS 182000Z 22003KT 9999 FEW020 BKN200 27/25 Q1005 NOSIG RMK A2970(Z)",
        "visib": "6.2",
        "status": "updated"
    },
    {
        "icaoId": "RCKH",
        "obsTime": 1784404800,
        "rawOb": "METAR RCKH 182000Z 07004KT 9999 FEW015 SCT025 26/24 Q1007 NOSIG RMK A2975(E)",
        "visib": "6.2",
        "status": "updated"
    },
    {
        "icaoId": "RCMQ",
        "obsTime": 1784404800,
        "rawOb": "METAR RCMQ 182000Z 18008KT 9999 FEW012 SCT150 26/24 Q1008 RMK A2978",
        "visib": "6.2",
        "status": "updated"
    },
    {
        "icaoId": "RCBS",
        "obsTime": 1784379600,
        "rawOb": "METAR RCBS 181300Z 23015KT 7000 FEW007 BKN012 BKN035 27/27 Q1005 NOSIG RMK 23011KT/R06 A2969(B)",
        "visib": "4.35",
        "status": "updated"
    },
    {
        "icaoId": "RCNN",
        "obsTime": 1784404800,
        "rawOb": "METAR RCNN 182000Z 13004KT 9999 FEW010 SCT025 BKN060 25/23 Q1007 RMK A2975",
        "visib": "6.2",
        "status": "updated"
    },
    {
        "icaoId": "RCYU",
        "obsTime": 1784404800,
        "rawOb": "METAR RCYU 182000Z 23002KT 9999 FEW012 SCT080 27/23 Q1006 RMK A2971",
        "visib": "6.2",
        "status": "updated"
    },
    {
        "icaoId": "RCQC",
        "obsTime": 1784404800,
        "rawOb": "METAR RCQC 182000Z 17007KT 9999 FEW010 SCT030 BKN120 28/27 Q1006 RMK A2973 AWOS R20 N/A",
        "visib": "6.2",
        "status": "updated"
    }
]