[
    {
        "icaoId": "RCTP",
        "obsTime": 1780770600,
        "rawOb": "METAR RCTP 061830Z VRB01KT 9999 FEW010 BKN013 BKN018 26/24 Q1007 NOSIG RMK A2976",
        "visib": "6",
        "status": "updated"
    },
    {
        "icaoId": "RCSS",
        "obsTime": 1780768800,
        "rawOb": "METAR RCSS 061800Z 32002KT 9999 FEW022 BKN045 BKN070 27/25 Q1007 NOSIG RMK A2976",
        "visib": "6",
        "status": "updated"
    },
    {
        "icaoId": "RCKH",
        "obsTime": 1780768800,
        "rawOb": "METAR RCKH 061800Z 11003KT 040V180 9999 SCT010 BKN012 29/26 Q1008 NOSIG RMK A2977",
        "visib": "6",
        "status": "updated"
    },
    {
        "icaoId": "RCMQ",
        "obsTime": 1780768800,
        "rawOb": "METAR RCMQ 061800Z 18006KT 9999 FEW012 26/24 Q1009 RMK A2980",
        "visib": "6",
        "status": "updated"
    },
    {
        "icaoId": "RCBS",
        "obsTime": 1779233400,
        "rawOb": "METAR RCBS 192330Z 22004KT 180V240 9999 FEW010 SCT018 BKN070 25/25 Q1009 NOSIG RMK A2980(E)",
        "visib": "6.2",
        "status": "old_data_kept"
    },
    {
        "icaoId": "RCNN",
        "obsTime": 1780768800,
        "rawOb": "METAR RCNN 061800Z 13004KT 9000 FEW012 27/26 Q1008 RMK A2978",
        "visib": "5.59",
        "status": "updated"
    },
    {
        "icaoId": "RCYU",
        "obsTime": 1779233400,
        "rawOb": "METAR RCYU 192330Z 24004KT 9999 FEW012 SCT040 BKN100 26/20 Q1010 NOSIG RMK A2982",
        "visib": "6.2",
        "status": "old_data_kept"
    },
    {
        "icaoId": "RCQC",
        "obsTime": 1780768800,
        "rawOb": "METAR RCQC 061800Z 15006KT 9999 FEW008 SCT016 BKN030 29/28 Q1007 RMK A2975",
        "visib": "6",
        "status": "updated"
    }
]