[
    {
        "icaoId": "RCTP",
        "obsTime": 1784921400,
        "rawOb": "METAR RCTP 241930Z 12013KT 9999 FEW020 BKN150 30/23 Q1004 NOSIG RMK A2965(S)",
        "visib": "6.2",
        "status": "updated"
    },
    {
        "icaoId": "RCSS",
        "obsTime": 1784922300,
        "rawOb": "SPECI RCSS 241945Z 10018KT 9999 FEW012 SCT035 29/26 Q1004 WS R10 NOSIG RMK A2967(B)",
        "visib": "6.2",
        "status": "updated"
    },
    {
        "icaoId": "RCKH",
        "obsTime": 1784921160,
        "rawOb": "SPECI RCKH 241926Z 25004KT 9000 VCTS -SHRA FEW010CB SCT012 BKN014 BKN024 28/25 Q1004 TEMPO 5000 TSRA RMK TS S MOV NW A2965(S)",
        "visib": "5.59",
        "status": "updated"
    },
    {
        "icaoId": "RCMQ",
        "obsTime": 1784919600,
        "rawOb": "METAR RCMQ 241900Z 21006KT 6000 FEW010 BKN020 BKN120 28/26 Q1005 RMK A2968",
        "visib": "3.73",
        "status": "updated"
    },
    {
        "icaoId": "RCBS",
        "obsTime": 1784898000,
        "rawOb": "METAR RCBS 241300Z 04012KT 9999 FEW015 SCT150 31/26 Q1005 NOSIG RMK A2968(S)",
        "visib": "6.2",
        "status": "updated"
    },
    {
        "icaoId": "RCNN",
        "obsTime": 1784919600,
        "rawOb": "METAR RCNN 241900Z 34001KT 9999 FEW010 SCT030 BKN060 26/24 Q1003 RMK A2964 AWOS R36 N/A",
        "visib": "6.2",
        "status": "updated"
    },
    {
        "icaoId": "RCYU",
        "obsTime": 1784919600,
        "rawOb": "METAR RCYU 241900Z 20006KT 7000 -RA FEW010 BKN020 BKN060 26/26 Q1009 RERA RMK A2979 RA AMT 1.8MM",
        "visib": "4.35",
        "status": "updated"
    },
    {
        "icaoId": "RCQC",
        "obsTime": 1784922360,
        "rawOb": "SPECI RCQC 241946Z 00000KT 6000 FEW010 SCT020 BKN060 28/27 Q1003 RMK A2964",
        "visib": "3.73",
        "status": "updated"
    }
]