[
    {
        "icaoId": "RCTP",
        "obsTime": 1783778400,
        "rawOb": "METAR RCTP 111400Z 21026KT 9999 -RA FEW012 SCT030 BKN100 27/23 Q0991 WS ALL RWY NOSIG RMK QFF 991.2HPA A2927(M)",
        "visib": "6.2",
        "status": "updated"
    },
    {
        "icaoId": "RCSS",
        "obsTime": 1783778400,
        "rawOb": "METAR RCSS 111400Z 26011KT 230V290 9999 FEW009 SCT037 BKN065 27/25 Q0991 WS R10 NOSIG RMK QFF 991.9HPA A2929(A)",
        "visib": "6.2",
        "status": "updated"
    },
    {
        "icaoId": "RCKH",
        "obsTime": 1783778400,
        "rawOb": "METAR RCKH 111400Z 08004KT 040V140 9999 FEW010CB SCT012 SCT020 BKN032 28/25 Q0998 NOSIG RMK CB N-NE-E QFF 998.0HPA A2947(I)",
        "visib": "6.2",
        "status": "updated"
    },
    {
        "icaoId": "RCMQ",
        "obsTime": 1783778400,
        "rawOb": "METAR RCMQ 111400Z 18013KT 1600 RA BR SCT002 BKN006 OVC020 25/25 Q0997 RMK A2945 RA AMT 7.0MM APCH CLD SCT002",
        "visib": "0.99",
        "status": "updated"
    },
    {
        "icaoId": "RCBS",
        "obsTime": 1783774800,
        "rawOb": "METAR RCBS 111300Z 23010KT 9999 -RA FEW020 SCT120 BKN200 30/29 Q0992 NOSIG RMK QFF 992.9HPA A2932(V)",
        "visib": "6.2",
        "status": "updated"
    },
    {
        "icaoId": "RCNN",
        "obsTime": 1783778400,
        "rawOb": "METAR RCNN 111400Z 12005KT 7000 -RA SCT008 BKN016 BKN040 26/24 Q0997 RMK A2946 RA AMT T",
        "visib": "4.35",
        "status": "updated"
    },
    {
        "icaoId": "RCYU",
        "obsTime": 1783778400,
        "rawOb": "METAR RCYU 111400Z 24004KT 9999 FEW012 SCT040 BKN080 28/26 Q0992 RMK A2929",
        "visib": "6.2",
        "status": "updated"
    },
    {
        "icaoId": "RCQC",
        "obsTime": 1783778400,
        "rawOb": "METAR RCQC 111400Z 23011KT 9999 FEW008 SCT025 BKN060 29/28 Q0995 RMK A2941 AWOS R20 N/A",
        "visib": "6.2",
        "status": "updated"
    }
]