[
    {
        "icaoId": "RCTP",
        "obsTime": 1782424800,
        "rawOb": "METAR RCTP 252200Z 04006KT 010V070 2500 SHRA SCT004 BKN006 FEW010CB BKN020 25/25 Q1004 NOSIG RMK CB S-SW A2967 RA AMT 6.6MM",
        "visib": "1.55",
        "status": "updated"
    },
    {
        "icaoId": "RCSS",
        "obsTime": 1782424800,
        "rawOb": "METAR RCSS 252200Z 13007KT 3000 -SHRA SCT005 BKN010 FEW013CB OVC020 25/25 Q1004 RESHRA NOSIG RMK CB S-SW A2965 RA AMT 11.8MM",
        "visib": "1.86",
        "status": "updated"
    },
    {
        "icaoId": "RCKH",
        "obsTime": 1782424920,
        "rawOb": "SPECI RCKH 252202Z 01007KT 330V080 0800 R09/1600D +TSRA FEW002 SCT007CB BKN009 OVC012 25/24 Q1005 TEMPO 0600 +TSRA RMK TS OVHD A2969",
        "visib": "0.5",
        "status": "updated"
    },
    {
        "icaoId": "RCMQ",
        "obsTime": 1782424800,
        "rawOb": "METAR RCMQ 252200Z 18010KT 5000 -RA BR FEW008 BKN020 OVC040 26/25 Q1005 NOSIG RMK A2968 RA AMT 3.0MM",
        "visib": "3.11",
        "status": "updated"
    },
    {
        "icaoId": "RCBS",
        "obsTime": 1779233400,
        "rawOb": "METAR RCBS 192330Z 22004KT 180V240 9999 FEW010 SCT018 BKN070 25/25 Q1009 NOSIG RMK A2980(E)",
        "visib": "6.2",
        "status": "old_data_kept"
    },
    {
        "icaoId": "RCNN",
        "obsTime": 1782424800,
        "rawOb": "METAR RCNN 252200Z 07003KT 1200 +TSRA SCT004 FEW010CB OVC014 26/25 Q1006 BECMG TL0000 TSRA RMK A2973 RA AMT 73.0MM TS OVHD STNRY VIS S 1200M RVR N/A AWOS R36 N/A",
        "visib": "0.75",
        "status": "updated"
    },
    {
        "icaoId": "RCYU",
        "obsTime": 1779233400,
        "rawOb": "METAR RCYU 192330Z 24004KT 9999 FEW012 SCT040 BKN100 26/20 Q1010 NOSIG RMK A2982",
        "visib": "6.2",
        "status": "old_data_kept"
    },
    {
        "icaoId": "RCQC",
        "obsTime": 1782424800,
        "rawOb": "METAR RCQC 252200Z 14006KT 2400 -RA VCTS BR BKN003 FEW010CB OVC012 27/26 Q1003 BECMG 3000 -RA BR RMK A2965 RA AMT T TS SE STNRY",
        "visib": "1.49",
        "status": "updated"
    }
]