[
    {
        "icaoId": "RCTP",
        "obsTime": 1784376000,
        "rawOb": "METAR RCTP 181200Z 23009KT 9999 FEW020 SCT200 28/24 Q1004 NOSIG RMK A2967(D)",
        "visib": "6.2",
        "status": "updated"
    },
    {
        "icaoId": "RCSS",
        "obsTime": 1784376000,
        "rawOb": "METAR RCSS 181200Z 28007KT 9999 FEW020 SCT120 BKN200 31/24 Q1004 NOSIG RMK 28007KT/R10 A2967(M)",
        "visib": "6.2",
        "status": "updated"
    },
    {
        "icaoId": "RCKH",
        "obsTime": 1784376000,
        "rawOb": "METAR RCKH 181200Z 11003KT 9999 FEW016 SCT050 BKN120 28/24 Q1007 NOSIG RMK A2975(S)",
        "visib": "6.2",
        "status": "updated"
    },
    {
        "icaoId": "RCMQ",
        "obsTime": 1784376000,
        "rawOb": "METAR RCMQ 181200Z 18010KT 9999 FEW010 SCT150 BKN200 27/25 Q1007 NOSIG RMK A2975",
        "visib": "6.2",
        "status": "updated"
    },
    {
        "icaoId": "RCBS",
        "obsTime": 1784376000,
        "rawOb": "METAR RCBS 181200Z 22015KT 7000 SCT004 BKN007 OVC020 27/27 Q1005 NOSIG RMK 22011KT/R06 A2968(Y)",
        "visib": "4.35",
        "status": "updated"
    },
    {
        "icaoId": "RCNN",
        "obsTime": 1784376000,
        "rawOb": "METAR RCNN 181200Z 10003KT 9999 VCSH FEW012 SCT040 BKN080 25/23 Q1007 RMK A2975 VCSH SW",
        "visib": "6.2",
        "status": "updated"
    },
    {
        "icaoId": "RCYU",
        "obsTime": 1784376000,
        "rawOb": "METAR RCYU 181200Z 23003KT 9999 FEW012 SCT040 BKN080 29/24 Q1006 RMK A2970",
        "visib": "6.2",
        "status": "updated"
    },
    {
        "icaoId": "RCQC",
        "obsTime": 1784376000,
        "rawOb": "METAR RCQC 181200Z 17007KT 9999 VCSH FEW008 SCT030 BKN060 27/26 Q1006 NOSIG RMK A2973 VCSH NW AWOS R20 N/A",
        "visib": "6.2",
        "status": "updated"
    }
]