[
    {
        "icaoId": "RCTP",
        "obsTime": 1784673000,
        "rawOb": "METAR RCTP 212230Z 20005KT 170V240 9999 FEW012 BKN017 28/24 Q1010 NOSIG RMK A2983(E)",
        "visib": "6.2",
        "status": "updated"
    },
    {
        "icaoId": "RCSS",
        "obsTime": 1784673000,
        "rawOb": "METAR RCSS 212230Z 22004KT 190V250 9999 FEW020 SCT026 28/26 Q1010 NOSIG RMK A2983(S)",
        "visib": "6.2",
        "status": "updated"
    },
    {
        "icaoId": "RCKH",
        "obsTime": 1784673000,
        "rawOb": "METAR RCKH 212230Z 04003KT 9999 FEW014 27/24 Q1010 NOSIG RMK A2983(I)",
        "visib": "6.2",
        "status": "updated"
    },
    {
        "icaoId": "RCMQ",
        "obsTime": 1784673000,
        "rawOb": "METAR RCMQ 212230Z 19003KT 9999 FEW010 SCT016 BKN080 27/25 Q1011 NOSIG RMK A2988",
        "visib": "6.2",
        "status": "updated"
    },
    {
        "icaoId": "RCBS",
        "obsTime": 1784673000,
        "rawOb": "METAR RCBS 212230Z 22007KT 3500 BR SCT003 BKN005 27/27 Q1009 TEMPO BKN003 RMK A2982(W)",
        "visib": "2.17",
        "status": "updated"
    },
    {
        "icaoId": "RCNN",
        "obsTime": 1784673000,
        "rawOb": "METAR RCNN 212230Z 09002KT 9999 FEW008 SCT080 26/24 Q1010 NOSIG RMK A2984",
        "visib": "6.2",
        "status": "updated"
    },
    {
        "icaoId": "RCYU",
        "obsTime": 1784673000,
        "rawOb": "METAR RCYU 212230Z 21003KT 9999 FEW012 SCT100 29/24 Q1010 NOSIG RMK A2984",
        "visib": "6.2",
        "status": "updated"
    },
    {
        "icaoId": "RCQC",
        "obsTime": 1784673000,
        "rawOb": "METAR RCQC 212230Z 21002KT 9999 FEW012 28/28 Q1010 NOSIG RMK A2983 AWOS R20 N/A",
        "visib": "6.2",
        "status": "updated"
    }
]