[
    {
        "icaoId": "RCTP",
        "obsTime": 1779012000,
        "rawOb": "METAR RCTP 171000Z 08017KT CAVOK 27/18 Q1010 WS R05L NOSIG RMK A2984",
        "visib": "6",
        "status": "updated"
    },
    {
        "icaoId": "RCSS",
        "obsTime": 1779012000,
        "rawOb": "METAR RCSS 171000Z 10016KT 9999 FEW025 SCT035 26/19 Q1011 NOSIG RMK A2988",
        "visib": "6",
        "status": "updated"
    },
    {
        "icaoId": "RCKH",
        "obsTime": 1779012000,
        "rawOb": "METAR RCKH 171000Z 08005KT 9999 -RA SCT014 SCT022 BKN052 26/23 Q1010 NOSIG RMK A2984",
        "visib": "6",
        "status": "updated"
    },
    {
        "icaoId": "RCMQ",
        "obsTime": 1779012000,
        "rawOb": "METAR RCMQ 171000Z 32005KT 9999 FEW012 29/21 Q1010 NOSIG RMK A2985",
        "visib": "6",
        "status": "updated"
    },
    {
        "icaoId": "RCBS",
        "obsTime": 0,
        "rawOb": "",
        "visib": "",
        "status": "old_data_kept"
    },
    {
        "icaoId": "RCNN",
        "obsTime": 1779012000,
        "rawOb": "METAR RCNN 171000Z 27004KT 9999 FEW012 SCT025 BKN080 29/23 Q1010 NOSIG RMK A2985",
        "visib": "6",
        "status": "updated"
    },
    {
        "icaoId": "RCYU",
        "obsTime": 0,
        "rawOb": "",
        "visib": "",
        "status": "old_data_kept"
    },
    {
        "icaoId": "RCQC",
        "obsTime": 1779012000,
        "rawOb": "METAR RCQC 171000Z 02015KT 9999 FEW012 SCT100 27/23 Q1010 NOSIG RMK A2984",
        "visib": "6",
        "status": "updated"
    }
]