[
    {
        "icaoId": "RCTP",
        "obsTime": 1783553400,
        "rawOb": "METAR RCTP 082330Z 21004KT 160V250 9999 FEW020 32/24 Q1008 NOSIG RMK A2977(F)",
        "visib": "6.2",
        "status": "updated"
    },
    {
        "icaoId": "RCSS",
        "obsTime": 1783553400,
        "rawOb": "METAR RCSS 082330Z VRB02KT 9999 FEW022 31/25 Q1007 NOSIG RMK A2975(X)",
        "visib": "6.2",
        "status": "updated"
    },
    {
        "icaoId": "RCKH",
        "obsTime": 1783553400,
        "rawOb": "METAR RCKH 082330Z 32008KT 290V020 9999 FEW018 SCT040 31/25 Q1006 NOSIG RMK A2972(C)",
        "visib": "6.2",
        "status": "updated"
    },
    {
        "icaoId": "RCMQ",
        "obsTime": 1783553400,
        "rawOb": "METAR RCMQ 082330Z 00000KT 9999 FEW012 SCT040 28/25 Q1009 NOSIG RMK A2980",
        "visib": "6.2",
        "status": "updated"
    },
    {
        "icaoId": "RCBS",
        "obsTime": 1783553400,
        "rawOb": "METAR RCBS 082330Z 26006KT CAVOK 29/28 Q1006 NOSIG RMK 27007KT/R06 A2972(X)",
        "visib": "",
        "status": "updated"
    },
    {
        "icaoId": "RCNN",
        "obsTime": 1783553400,
        "rawOb": "METAR RCNN 082330Z 33005KT 9999 FEW014 SCT100 30/26 Q1007 NOSIG RMK A2976",
        "visib": "6.2",
        "status": "updated"
    },
    {
        "icaoId": "RCYU",
        "obsTime": 1783553400,
        "rawOb": "METAR RCYU 082330Z 14001KT 9999 FEW012 SCT200 31/23 Q1006 NOSIG RMK A2973",
        "visib": "6.2",
        "status": "updated"
    },
    {
        "icaoId": "RCQC",
        "obsTime": 1783551600,
        "rawOb": "METAR RCQC 082300Z 30005KT 9999 FEW012 29/27 Q1007 NOSIG RMK A2974 AWOS R02 N/A",
        "visib": "6",
        "status": "updated"
    }
]