[
    {
        "icaoId": "RCTP",
        "obsTime": 1778948460,
        "rawOb": "SPECI RCTP 161621Z 07014KT 050V110 9999 FEW015 25/18 Q1012 WS R05L NOSIG RMK A2990",
        "visib": "6",
        "status": "updated"
    },
    {
        "icaoId": "RCSS",
        "obsTime": 1778947200,
        "rawOb": "METAR RCSS 161600Z 09011KT 9999 FEW016 24/19 Q1014 NOSIG RMK A2995",
        "visib": "6",
        "status": "updated"
    },
    {
        "icaoId": "RCKH",
        "obsTime": 1778947200,
        "rawOb": "METAR RCKH 161600Z VRB02KT 9999 FEW016 SCT030 26/23 Q1012 NOSIG RMK A2990",
        "visib": "6",
        "status": "updated"
    },
    {
        "icaoId": "RCMQ",
        "obsTime": 1778947200,
        "rawOb": "METAR RCMQ 161600Z 21005KT 9999 FEW012 BKN200 25/22 Q1012 RMK A2991",
        "visib": "6",
        "status": "updated"
    },
    {
        "icaoId": "RCBS",
        "obsTime": 0,
        "rawOb": "",
        "visib": "",
        "status": "old_data_kept"
    },
    {
        "icaoId": "RCNN",
        "obsTime": 1778947200,
        "rawOb": "METAR RCNN 161600Z 00000KT 9999 FEW012 SCT060 24/21 Q1012 RMK A2991",
        "visib": "6",
        "status": "updated"
    },
    {
        "icaoId": "RCYU",
        "obsTime": 0,
        "rawOb": "",
        "visib": "",
        "status": "old_data_kept"
    },
    {
        "icaoId": "RCQC",
        "obsTime": 1778947200,
        "rawOb": "METAR RCQC 161600Z 35008KT 9999 FEW012 BKN200 26/23 Q1012 RMK A2988",
        "visib": "6",
        "status": "updated"
    }
]