[
    {
        "icaoId": "RCTP",
        "obsTime": 1780137000,
        "rawOb": "METAR RCTP 301030Z 04018KT 9999 FEW020 SCT090 26/20 Q1009 NOSIG RMK A2982",
        "visib": "6",
        "status": "updated"
    },
    {
        "icaoId": "RCSS",
        "obsTime": 1780137000,
        "rawOb": "METAR RCSS 301030Z 09010KT 9999 FEW025 26/20 Q1010 NOSIG RMK A2984",
        "visib": "6",
        "status": "updated"
    },
    {
        "icaoId": "RCKH",
        "obsTime": 1780137420,
        "rawOb": "SPECI RCKH 301037Z 24005KT 210V270 9999 -DZ FEW011CB FEW015 SCT025 BKN045 29/24 Q1007 NOSIG RMK CB NE-E-SE A2974",
        "visib": "6",
        "status": "updated"
    },
    {
        "icaoId": "RCMQ",
        "obsTime": 1780137000,
        "rawOb": "METAR RCMQ 301030Z 01013KT 9999 FEW012 26/22 Q1008 NOSIG RMK A2978",
        "visib": "6",
        "status": "updated"
    },
    {
        "icaoId": "RCBS",
        "obsTime": 1779233400,
        "rawOb": "METAR RCBS 192330Z 22004KT 180V240 9999 FEW010 SCT018 BKN070 25/25 Q1009 NOSIG RMK A2980(E)",
        "visib": "6.2",
        "status": "old_data_kept"
    },
    {
        "icaoId": "RCNN",
        "obsTime": 1780137000,
        "rawOb": "METAR RCNN 301030Z 30003KT 9999 FEW012 SCT040 BKN080 32/23 Q1007 RMK A2974",
        "visib": "6",
        "status": "updated"
    },
    {
        "icaoId": "RCYU",
        "obsTime": 1779233400,
        "rawOb": "METAR RCYU 192330Z 24004KT 9999 FEW012 SCT040 BKN100 26/20 Q1010 NOSIG RMK A2982",
        "visib": "6.2",
        "status": "old_data_kept"
    },
    {
        "icaoId": "RCQC",
        "obsTime": 1780137000,
        "rawOb": "METAR RCQC 301030Z 03018KT 9999 FEW012 27/23 Q1007 NOSIG RMK A2975",
        "visib": "6",
        "status": "updated"
    }
]