[
    {
        "icaoId": "RCTP",
        "obsTime": 1783807200,
        "rawOb": "METAR RCTP 112200Z 21022G34KT 9999 -RA FEW015 SCT050 BKN080 28/24 Q0997 WS ALL RWY NOSIG RMK A2944(G)",
        "visib": "6.2",
        "status": "updated"
    },
    {
        "icaoId": "RCSS",
        "obsTime": 1783807200,
        "rawOb": "METAR RCSS 112200Z VRB03KT 9999 -RA FEW020 SCT030 BKN100 26/26 Q0997 NOSIG RMK A2946(M)",
        "visib": "6.2",
        "status": "updated"
    },
    {
        "icaoId": "RCKH",
        "obsTime": 1783807200,
        "rawOb": "METAR RCKH 112200Z 18008KT 150V210 9999 FEW014 BKN019 BKN120 30/26 Q1000 NOSIG RMK A2955(S)",
        "visib": "6.2",
        "status": "updated"
    },
    {
        "icaoId": "RCMQ",
        "obsTime": 1783808100,
        "rawOb": "SPECI RCMQ 112215Z 20016KT 7000 VCSH FEW010 BKN060 BKN080 28/26 Q1000 NOSIG RMK A2955 VCSH NW",
        "visib": "4.35",
        "status": "updated"
    },
    {
        "icaoId": "RCBS",
        "obsTime": 1783807200,
        "rawOb": "METAR RCBS 112200Z 23015G25KT 7000 FEW006 SCT120 BKN220 28/28 Q0995 NOSIG RMK A2940(Y)",
        "visib": "4.35",
        "status": "updated"
    },
    {
        "icaoId": "RCNN",
        "obsTime": 1783807200,
        "rawOb": "METAR RCNN 112200Z 17007KT 9000 FEW010 BKN016 BKN040 28/25 Q1000 NOSIG RMK A2954",
        "visib": "5.59",
        "status": "updated"
    },
    {
        "icaoId": "RCYU",
        "obsTime": 1783807200,
        "rawOb": "METAR RCYU 112200Z 24001KT 9999 FEW012 SCT050 BKN080 28/26 Q0997 NOSIG RMK A2946",
        "visib": "6.2",
        "status": "updated"
    },
    {
        "icaoId": "RCQC",
        "obsTime": 1783808100,
        "rawOb": "SPECI RCQC 112215Z 19011KT 8000 VCSH SCT008 BKN014 BKN021 29/28 Q0999 NOSIG RMK A2951 VCSH N",
        "visib": "4.97",
        "status": "updated"
    }
]