[
    {
        "icaoId": "RCTP",
        "obsTime": 1784086200,
        "rawOb": "METAR RCTP 150330Z 24013KT 210V270 9999 FEW020 SCT040 35/25 Q1009 NOSIG RMK A2981(C)",
        "visib": "6.2",
        "status": "updated"
    },
    {
        "icaoId": "RCSS",
        "obsTime": 1784086200,
        "rawOb": "METAR RCSS 150330Z VRB03KT 9999 FEW020 SCT035 BKN050 36/27 Q1009 NOSIG RMK A2981(Q)",
        "visib": "6.2",
        "status": "updated"
    },
    {
        "icaoId": "RCKH",
        "obsTime": 1784086200,
        "rawOb": "METAR RCKH 150330Z 19007KT 150V240 9999 FEW014 SCT032 32/24 Q1010 NOSIG RMK A2985(L)",
        "visib": "6.2",
        "status": "updated"
    },
    {
        "icaoId": "RCMQ",
        "obsTime": 1784086200,
        "rawOb": "METAR RCMQ 150330Z 22013KT 9999 FEW010 SCT025 34/25 Q1011 NOSIG RMK A2987",
        "visib": "6.2",
        "status": "updated"
    },
    {
        "icaoId": "RCBS",
        "obsTime": 1784086200,
        "rawOb": "METAR RCBS 150330Z 16010KT 9999 FEW014 SCT022 BKN180 29/29 Q1008 NOSIG RMK 16010KT/R06 A2979(C)",
        "visib": "6.2",
        "status": "updated"
    },
    {
        "icaoId": "RCNN",
        "obsTime": 1784086200,
        "rawOb": "METAR RCNN 150330Z 19008KT 9999 FEW014 SCT025 32/25 Q1011 NOSIG RMK A2985",
        "visib": "6.2",
        "status": "updated"
    },
    {
        "icaoId": "RCYU",
        "obsTime": 1784086200,
        "rawOb": "METAR RCYU 150330Z 16008KT 9999 FEW012 SCT030 33/25 Q1010 NOSIG RMK A2983",
        "visib": "6.2",
        "status": "updated"
    },
    {
        "icaoId": "RCQC",
        "obsTime": 1784086200,
        "rawOb": "METAR RCQC 150330Z 16010KT 9999 VCSH FEW010 FEW014TCU SCT025 BKN040 31/28 Q1010 NOSIG RMK A2983 VCSH SW TCU SW AWOS R20 N/A",
        "visib": "6.2",
        "status": "updated"
    }
]