[
    {
        "icaoId": "RCTP",
        "obsTime": 1784329200,
        "rawOb": "METAR RCTP 172300Z 24018KT 9999 FEW015 BKN200 30/24 Q1005 NOSIG RMK A2968(X)",
        "visib": "6.2",
        "status": "updated"
    },
    {
        "icaoId": "RCSS",
        "obsTime": 1784329200,
        "rawOb": "METAR RCSS 172300Z 28010KT 9999 FEW020 SCT200 30/24 Q1005 NOSIG RMK 29008KT/R10 A2969(J)",
        "visib": "6.2",
        "status": "updated"
    },
    {
        "icaoId": "RCKH",
        "obsTime": 1784329200,
        "rawOb": "METAR RCKH 172300Z 09003KT 9999 FEW014 SCT060 26/24 Q1007 NOSIG RMK A2975(I)",
        "visib": "6.2",
        "status": "updated"
    },
    {
        "icaoId": "RCMQ",
        "obsTime": 1784329200,
        "rawOb": "METAR RCMQ 172300Z 17009KT 9999 FEW012 SCT200 29/24 Q1008 NOSIG RMK A2978",
        "visib": "6.2",
        "status": "updated"
    },
    {
        "icaoId": "RCBS",
        "obsTime": 1784329200,
        "rawOb": "METAR RCBS 172300Z 23011KT 9000 FEW008 SCT200 28/28 Q1005 NOSIG RMK 23008KT/R06 A2969(W)",
        "visib": "5.59",
        "status": "updated"
    },
    {
        "icaoId": "RCNN",
        "obsTime": 1784329200,
        "rawOb": "METAR RCNN 172300Z 09002KT 9999 VCSH FEW012 SCT030 BKN080 26/24 Q1007 NOSIG RMK A2975 VCSH W",
        "visib": "6.2",
        "status": "updated"
    },
    {
        "icaoId": "RCYU",
        "obsTime": 1784329200,
        "rawOb": "METAR RCYU 172300Z 22001KT 9999 FEW012 31/24 Q1005 NOSIG RMK A2970",
        "visib": "6.2",
        "status": "updated"
    },
    {
        "icaoId": "RCQC",
        "obsTime": 1784329200,
        "rawOb": "METAR RCQC 172300Z 18005KT 9999 FEW012 BKN080 29/27 Q1007 NOSIG RMK A2973 AWOS R20 N/A",
        "visib": "6.2",
        "status": "updated"
    }
]