[
    {
        "icaoId": "RCTP",
        "obsTime": 1778686797,
        "rawOb": "METAR RCTP 131300Z 04010KT 7000 -RA FEW005 SCT030 BKN050 22/22 Q1008 NOSIG RMK A2978 RA AMT 5.6MM",
        "visib": "4.35"
    },
    {
        "icaoId": "RCSS",
        "obsTime": 1778686797,
        "rawOb": "METAR RCSS 131300Z 09005KT 9999 -RA FEW006 SCT014 BKN065 22/21 Q1008 RERA NOSIG RMK A2979 RA AMT 3.2MM",
        "visib": "6"
    },
    {
        "icaoId": "RCKH",
        "obsTime": 1778686797,
        "rawOb": "METAR RCKH 131300Z 29004KT 260V320 9999 FEW018 28/21 Q1007 NOSIG RMK A2974",
        "visib": "6"
    },
    {
        "icaoId": "RCMQ",
        "obsTime": 1778686797,
        "rawOb": "METAR RCMQ 131300Z 36004KT 8000 FEW010 SCT050 BKN080 24/22 Q1008 NOSIG RMK A2978",
        "visib": "4.97"
    },
    {
        "icaoId": "RCQC",
        "obsTime": 1778686797,
        "rawOb": "METAR RCQC 131300Z 05003KT 9999 FEW012 SCT100 26/24 Q1007 NOSIG RMK A2975",
        "visib": "6"
    }
]