[
    {
        "icaoId": "RCTP",
        "obsTime": 1784269800,
        "rawOb": "METAR RCTP 170630Z 24018KT 9999 FEW015 BKN200 33/26 Q1005 WS R23R NOSIG RMK A2968(L)",
        "visib": "6.2",
        "status": "updated"
    },
    {
        "icaoId": "RCSS",
        "obsTime": 1784269800,
        "rawOb": "METAR RCSS 170630Z 31009KT 280V340 9999 FEW016 BKN040 35/27 Q1004 NOSIG RMK 31011KT/R10 A2965(V)",
        "visib": "6.2",
        "status": "updated"
    },
    {
        "icaoId": "RCKH",
        "obsTime": 1784269800,
        "rawOb": "METAR RCKH 170630Z 22004KT 170V280 9999 FEW016 SCT054 BKN080 30/24 Q1007 NOSIG RMK A2976(L)",
        "visib": "6.2",
        "status": "updated"
    },
    {
        "icaoId": "RCMQ",
        "obsTime": 1784269800,
        "rawOb": "METAR RCMQ 170630Z 24014KT 9999 FEW014 SCT040 BKN200 33/25 Q1007 NOSIG RMK A2976",
        "visib": "6.2",
        "status": "updated"
    },
    {
        "icaoId": "RCBS",
        "obsTime": 1784269800,
        "rawOb": "METAR RCBS 170630Z 19012KT 9999 FEW018 30/29 Q1005 NOSIG RMK 19011KT/R06 A2969(E)",
        "visib": "6.2",
        "status": "updated"
    },
    {
        "icaoId": "RCNN",
        "obsTime": 1784269800,
        "rawOb": "METAR RCNN 170630Z 21005KT 9999 FEW010 SCT025 BKN060 30/25 Q1008 NOSIG RMK A2976",
        "visib": "6.2",
        "status": "updated"
    },
    {
        "icaoId": "RCYU",
        "obsTime": 1784269800,
        "rawOb": "METAR RCYU 170630Z 11005KT 9999 FEW012 SCT030 BKN080 33/26 Q1006 NOSIG RMK A2970",
        "visib": "6.2",
        "status": "updated"
    },
    {
        "icaoId": "RCQC",
        "obsTime": 1784269800,
        "rawOb": "METAR RCQC 170630Z 18010KT 9999 FEW012 SCT020 BKN050 30/27 Q1007 NOSIG RMK A2974 AWOS R20 N/A",
        "visib": "6.2",
        "status": "updated"
    }
]