[
    {
        "icaoId": "RCTP",
        "obsTime": 1784174880,
        "rawOb": "SPECI RCTP 160408Z 25018KT 9999 FEW020 SCT200 33/26 Q1008 WS R23R NOSIG RMK A2977(D)",
        "visib": "6.2",
        "status": "updated"
    },
    {
        "icaoId": "RCSS",
        "obsTime": 1784174400,
        "rawOb": "METAR RCSS 160400Z 25008KT 210V300 9999 FEW020 SCT045 36/27 Q1007 NOSIG RMK A2975(S)",
        "visib": "6.2",
        "status": "updated"
    },
    {
        "icaoId": "RCKH",
        "obsTime": 1784174400,
        "rawOb": "METAR RCKH 160400Z 20006KT 150V240 9999 FEW018 SCT100 32/24 Q1009 NOSIG RMK 19006KT/R09 A2982(M)",
        "visib": "6.2",
        "status": "updated"
    },
    {
        "icaoId": "RCMQ",
        "obsTime": 1784174400,
        "rawOb": "METAR RCMQ 160400Z 23011KT 9999 FEW010 BKN030 BKN200 33/26 Q1010 NOSIG RMK A2984",
        "visib": "6.2",
        "status": "updated"
    },
    {
        "icaoId": "RCBS",
        "obsTime": 1784174400,
        "rawOb": "METAR RCBS 160400Z 20016KT 9999 FEW012 BKN060 BKN160 28/27 Q1008 NOSIG RMK 20012KT/R06 A2978(R)",
        "visib": "6.2",
        "status": "updated"
    },
    {
        "icaoId": "RCNN",
        "obsTime": 1784174400,
        "rawOb": "METAR RCNN 160400Z 20006KT 9999 FEW012 BKN200 32/24 Q1010 NOSIG RMK A2983",
        "visib": "6.2",
        "status": "updated"
    },
    {
        "icaoId": "RCYU",
        "obsTime": 1784174400,
        "rawOb": "METAR RCYU 160400Z 13005KT 9999 FEW012 SCT025 BKN060 33/27 Q1008 NOSIG RMK A2978",
        "visib": "6.2",
        "status": "updated"
    },
    {
        "icaoId": "RCQC",
        "obsTime": 1784174400,
        "rawOb": "METAR RCQC 160400Z 17012KT 9999 FEW010 SCT030 BKN200 31/28 Q1009 NOSIG RMK A2980 AWOS R20 N/A",
        "visib": "6.2",
        "status": "updated"
    }
]