[
    {
        "icaoId": "RCTP",
        "obsTime": 1781487000,
        "rawOb": "METAR RCTP 150130Z 19009KT 9999 FEW015 SCT050 BKN100 30/24 Q1007 NOSIG RMK A2976",
        "visib": "6",
        "status": "updated"
    },
    {
        "icaoId": "RCSS",
        "obsTime": 1781487000,
        "rawOb": "METAR RCSS 150130Z 31004KT 9999 VCSH FEW025 SCT080 BKN120 29/24 Q1007 NOSIG RMK A2976",
        "visib": "6",
        "status": "updated"
    },
    {
        "icaoId": "RCKH",
        "obsTime": 1781487360,
        "rawOb": "SPECI RCKH 150136Z 36007KT 330V030 2500 VCTS SHRA SCT006CB SCT008 BKN011 BKN026 25/24 Q1009 TEMPO 1500 TSRA RMK TS W-NW-N STNR A2982",
        "visib": "1.55",
        "status": "updated"
    },
    {
        "icaoId": "RCMQ",
        "obsTime": 1781487000,
        "rawOb": "METAR RCMQ 150130Z 19008KT 4000 -RA BR FEW008 FEW010CB BKN016 BKN030 25/24 Q1010 NOSIG RMK A2985 CB SW STNRY",
        "visib": "2.49",
        "status": "updated"
    },
    {
        "icaoId": "RCBS",
        "obsTime": 1779233400,
        "rawOb": "METAR RCBS 192330Z 22004KT 180V240 9999 FEW010 SCT018 BKN070 25/25 Q1009 NOSIG RMK A2980(E)",
        "visib": "6.2",
        "status": "old_data_kept"
    },
    {
        "icaoId": "RCNN",
        "obsTime": 1781487000,
        "rawOb": "METAR RCNN 150130Z 13008KT 4000 -RA BR SCT006 FEW010CB BKN016 BKN030 25/24 Q1010 BECMG 2400 RA BR RMK A2984 CB SW MOV E",
        "visib": "2.49",
        "status": "updated"
    },
    {
        "icaoId": "RCYU",
        "obsTime": 1779233400,
        "rawOb": "METAR RCYU 192330Z 24004KT 9999 FEW012 SCT040 BKN100 26/20 Q1010 NOSIG RMK A2982",
        "visib": "6.2",
        "status": "old_data_kept"
    },
    {
        "icaoId": "RCQC",
        "obsTime": 1781487000,
        "rawOb": "METAR RCQC 150130Z 16007KT 2400 -RA BR SCT005 BKN010 FEW012CB OVC025 26/25 Q1009 RERA BECMG 3000 -RA BR RMK A2981 CB S MOV SE",
        "visib": "1.49",
        "status": "updated"
    }
]