[
    {
        "icaoId": "RCTP",
        "obsTime": 1779787800,
        "rawOb": "METAR RCTP 260930Z 26019KT 9999 FEW020 SCT200 31/24 Q1003 WS ALL RWY NOSIG RMK A2964",
        "visib": "6",
        "status": "updated"
    },
    {
        "icaoId": "RCSS",
        "obsTime": 1779787800,
        "rawOb": "METAR RCSS 260930Z 27009KT 240V310 9999 FEW020 SCT200 37/23 Q1002 WS R28 NOSIG RMK 28011KT/R10 A2961",
        "visib": "6",
        "status": "updated"
    },
    {
        "icaoId": "RCKH",
        "obsTime": 1779787800,
        "rawOb": "METAR RCKH 260930Z 28010KT 240V310 9999 FEW016 SCT140 BKN200 30/25 Q1006 NOSIG RMK 28011KT/R09 A2973",
        "visib": "6",
        "status": "updated"
    },
    {
        "icaoId": "RCMQ",
        "obsTime": 1779787800,
        "rawOb": "METAR RCMQ 260930Z 21014KT 9999 FEW012 BKN200 32/23 Q1007 NOSIG RMK A2975",
        "visib": "6",
        "status": "updated"
    },
    {
        "icaoId": "RCBS",
        "obsTime": 1779233400,
        "rawOb": "METAR RCBS 192330Z 22004KT 180V240 9999 FEW010 SCT018 BKN070 25/25 Q1009 NOSIG RMK A2980(E)",
        "visib": "6.2",
        "status": "old_data_kept"
    },
    {
        "icaoId": "RCNN",
        "obsTime": 1779787800,
        "rawOb": "METAR RCNN 260930Z 28007KT 9999 FEW012 BKN200 30/25 Q1008 NOSIG RMK A2976",
        "visib": "6",
        "status": "updated"
    },
    {
        "icaoId": "RCYU",
        "obsTime": 1779233400,
        "rawOb": "METAR RCYU 192330Z 24004KT 9999 FEW012 SCT040 BKN100 26/20 Q1010 NOSIG RMK A2982",
        "visib": "6.2",
        "status": "old_data_kept"
    },
    {
        "icaoId": "RCQC",
        "obsTime": 1779787800,
        "rawOb": "METAR RCQC 260930Z 18011KT 9999 FEW012 SCT030 BKN200 30/27 Q1006 NOSIG RMK A2972",
        "visib": "6",
        "status": "updated"
    }
]