[
    {
        "icaoId": "RCTP",
        "obsTime": 1778788800,
        "rawOb": "METAR RCTP 142000Z 06009KT 9999 FEW008 BKN045 BKN090 23/23 Q1009 NOSIG RMK A2982",
        "visib": "6",
        "status": "updated"
    },
    {
        "icaoId": "RCSS",
        "obsTime": 1778785200,
        "rawOb": "METAR RCSS 141900Z VRB02KT 9999 FEW008 SCT018 BKN080 23/22 Q1009 NOSIG RMK A2981",
        "visib": "6",
        "status": "updated"
    },
    {
        "icaoId": "RCKH",
        "obsTime": 1778788800,
        "rawOb": "METAR RCKH 142000Z 04003KT 9999 FEW016 SCT024 BKN090 24/21 Q1007 NOSIG RMK A2976",
        "visib": "6",
        "status": "updated"
    },
    {
        "icaoId": "RCMQ",
        "obsTime": 1778785200,
        "rawOb": "METAR RCMQ 141900Z 03004KT 9999 FEW010 BKN080 22/22 Q1009 RMK A2982",
        "visib": "6",
        "status": "updated"
    },
    {
        "icaoId": "RCBS",
        "obsTime": 0,
        "rawOb": "",
        "visib": "",
        "status": "old_data_kept"
    },
    {
        "icaoId": "RCNN",
        "obsTime": 1778785200,
        "rawOb": "METAR RCNN 141900Z 08002KT 9999 FEW010 SCT018 BKN040 24/22 Q1008 RMK A2978 RA AMT T",
        "visib": "6",
        "status": "updated"
    },
    {
        "icaoId": "RCYU",
        "obsTime": 0,
        "rawOb": "",
        "visib": "",
        "status": "old_data_kept"
    },
    {
        "icaoId": "RCQC",
        "obsTime": 1778785200,
        "rawOb": "METAR RCQC 141900Z 03004KT 9999 FEW008 SCT020 BKN040 25/24 Q1008 RMK A2978",
        "visib": "6",
        "status": "updated"
    }
]