[
    {
        "icaoId": "RCTP",
        "obsTime": 1779622200,
        "rawOb": "METAR RCTP 241130Z 21013KT 9999 FEW015 SCT160 BKN220 28/24 Q1008 NOSIG RMK A2978",
        "visib": "6",
        "status": "updated"
    },
    {
        "icaoId": "RCSS",
        "obsTime": 1779622200,
        "rawOb": "METAR RCSS 241130Z 28008KT 9999 FEW020 SCT035 BKN200 31/24 Q1008 NOSIG RMK 29007KT/R10 A2978",
        "visib": "6",
        "status": "updated"
    },
    {
        "icaoId": "RCKH",
        "obsTime": 1779622200,
        "rawOb": "METAR RCKH 241130Z 30007KT 9999 FEW030 SCT230 30/23 Q1009 NOSIG RMK A2982",
        "visib": "6",
        "status": "updated"
    },
    {
        "icaoId": "RCMQ",
        "obsTime": 1779622200,
        "rawOb": "METAR RCMQ 241130Z 21007KT 9999 FEW014 SCT150 28/24 Q1010 NOSIG RMK A2985",
        "visib": "6",
        "status": "updated"
    },
    {
        "icaoId": "RCBS",
        "obsTime": 1779233400,
        "rawOb": "METAR RCBS 192330Z 22004KT 180V240 9999 FEW010 SCT018 BKN070 25/25 Q1009 NOSIG RMK A2980(E)",
        "visib": "6.2",
        "status": "old_data_kept"
    },
    {
        "icaoId": "RCNN",
        "obsTime": 1779622200,
        "rawOb": "METAR RCNN 241130Z 27002KT 9999 FEW012 SCT200 29/24 Q1010 RMK A2984",
        "visib": "6",
        "status": "updated"
    },
    {
        "icaoId": "RCYU",
        "obsTime": 1779233400,
        "rawOb": "METAR RCYU 192330Z 24004KT 9999 FEW012 SCT040 BKN100 26/20 Q1010 NOSIG RMK A2982",
        "visib": "6.2",
        "status": "old_data_kept"
    },
    {
        "icaoId": "RCQC",
        "obsTime": 1779622200,
        "rawOb": "METAR RCQC 241130Z 20004KT 9999 FEW012 BKN200 28/26 Q1009 NOSIG RMK A2981",
        "visib": "6",
        "status": "updated"
    }
]