[
    {
        "icaoId": "RCTP",
        "obsTime": 1782455400,
        "rawOb": "METAR RCTP 260630Z 02009KT 350V050 9999 SCT010 BKN015 BKN020 27/25 Q1004 NOSIG RMK A2967",
        "visib": "6",
        "status": "updated"
    },
    {
        "icaoId": "RCSS",
        "obsTime": 1782456420,
        "rawOb": "SPECI RCSS 260647Z 11005KT 9999 -RA SCT010 BKN018 BKN025 27/26 Q1004 NOSIG RMK A2965",
        "visib": "6",
        "status": "updated"
    },
    {
        "icaoId": "RCKH",
        "obsTime": 1782455400,
        "rawOb": "METAR RCKH 260630Z 18004KT 150V220 9999 -SHRA SCT007 BKN020 BKN040 26/25 Q1005 NOSIG RMK A2970",
        "visib": "6",
        "status": "updated"
    },
    {
        "icaoId": "RCMQ",
        "obsTime": 1782455400,
        "rawOb": "METAR RCMQ 260630Z 19007KT 8000 -RA SCT006 BKN012 BKN030 28/27 Q1005 NOSIG RMK A2968",
        "visib": "4.97",
        "status": "updated"
    },
    {
        "icaoId": "RCBS",
        "obsTime": 1779233400,
        "rawOb": "METAR RCBS 192330Z 22004KT 180V240 9999 FEW010 SCT018 BKN070 25/25 Q1009 NOSIG RMK A2980(E)",
        "visib": "6.2",
        "status": "old_data_kept"
    },
    {
        "icaoId": "RCNN",
        "obsTime": 1782455400,
        "rawOb": "METAR RCNN 260630Z 19006KT 9999 -RA FEW010 BKN030 BKN050 28/26 Q1005 NOSIG RMK A2970",
        "visib": "6",
        "status": "updated"
    },
    {
        "icaoId": "RCYU",
        "obsTime": 1779233400,
        "rawOb": "METAR RCYU 192330Z 24004KT 9999 FEW012 SCT040 BKN100 26/20 Q1010 NOSIG RMK A2982",
        "visib": "6.2",
        "status": "old_data_kept"
    },
    {
        "icaoId": "RCQC",
        "obsTime": 1782455400,
        "rawOb": "METAR RCQC 260630Z COR 13006KT 8000 -RA SCT006 BKN016 BKN040 27/27 Q1004 BECMG BKN010 RMK A2965",
        "visib": "4.97",
        "status": "updated"
    }
]