[
    {
        "icaoId": "RCTP",
        "obsTime": 1782516600,
        "rawOb": "METAR RCTP 262330Z 06004KT 030V100 5000 -RA BR FEW012 BKN020 BKN040 25/25 Q1006 RERA NOSIG RMK A2972",
        "visib": "3.11",
        "status": "updated"
    },
    {
        "icaoId": "RCSS",
        "obsTime": 1782516600,
        "rawOb": "METAR RCSS 262330Z VRB01KT 4200 -SHRA FEW005 BKN012 BKN020 25/25 Q1006 NOSIG RMK A2971",
        "visib": "2.61",
        "status": "updated"
    },
    {
        "icaoId": "RCKH",
        "obsTime": 1782516600,
        "rawOb": "METAR RCKH 262330Z 19006KT 150V230 8000 -SHRA FEW008 SCT012 BKN028 27/25 Q1007 NOSIG RMK A2974",
        "visib": "4.97",
        "status": "updated"
    },
    {
        "icaoId": "RCMQ",
        "obsTime": 1782516600,
        "rawOb": "METAR RCMQ 262330Z 14004KT 0800 R18/0600N RA FG BKN002 FEW010CB OVC020 25/25 Q1007 TL2400 0800 SHRA BKN002 RMK A2975 CB SE MOV NE",
        "visib": "0.5",
        "status": "updated"
    },
    {
        "icaoId": "RCBS",
        "obsTime": 1779233400,
        "rawOb": "METAR RCBS 192330Z 22004KT 180V240 9999 FEW010 SCT018 BKN070 25/25 Q1009 NOSIG RMK A2980(E)",
        "visib": "6.2",
        "status": "old_data_kept"
    },
    {
        "icaoId": "RCNN",
        "obsTime": 1782516600,
        "rawOb": "METAR RCNN 262330Z 16006KT 5000 -RA BR SCT006 BKN016 BKN030 26/25 Q1007 NOSIG RMK A2975",
        "visib": "3.11",
        "status": "updated"
    },
    {
        "icaoId": "RCYU",
        "obsTime": 1779233400,
        "rawOb": "METAR RCYU 192330Z 24004KT 9999 FEW012 SCT040 BKN100 26/20 Q1010 NOSIG RMK A2982",
        "visib": "6.2",
        "status": "old_data_kept"
    },
    {
        "icaoId": "RCQC",
        "obsTime": 1782516780,
        "rawOb": "SPECI RCQC 262333Z 19011KT 1200 R20/1400 RA VCTS BR SCT002 BKN004 FEW010CB BKN014 27/26 Q1006 BECMG FM2340 TL0140 0400 TSRA BKN002 RMK A2972 TS S STNRY",
        "visib": "0.75",
        "status": "updated"
    }
]