[
    {
        "icaoId": "RCTP",
        "obsTime": 1778717860,
        "rawOb": "METAR RCTP 131830Z 02006KT 350V050 3000 RA FEW008 BKN025 BKN050 22/22 Q1007 NOSIG RMK A2975",
        "visib": "1.86",
        "status": "updated"
    },
    {
        "icaoId": "RCSS",
        "obsTime": 1778717860,
        "rawOb": "SPECI RCSS 131841Z VRB02KT 4500 -RA FEW005 SCT015 BKN037 22/22 Q1007 NOSIG RMK A2975",
        "visib": "2.8",
        "status": "updated"
    },
    {
        "icaoId": "RCKH",
        "obsTime": 1778717860,
        "rawOb": "METAR RCKH 131900Z 27004KT 9999 SCT025 SCT040 26/23 Q1006 NOSIG RMK A2971",
        "visib": "6",
        "status": "updated"
    },
    {
        "icaoId": "RCMQ",
        "obsTime": 1778717860,
        "rawOb": "METAR RCMQ 131900Z 16004KT 4800 BR FEW010 BKN040 24/23 Q1007 RMK A2975",
        "visib": "2.98",
        "status": "updated"
    },
    {
        "icaoId": "RCBS",
        "obsTime": 0,
        "rawOb": "",
        "visib": "",
        "status": "暫無最新報文，可能為非作業時段"
    },
    {
        "icaoId": "RCNN",
        "obsTime": 1778717860,
        "rawOb": "METAR RCNN 131900Z 25002KT 9999 FEW012 SCT060 24/22 Q1007 RMK A2974",
        "visib": "6",
        "status": "updated"
    },
    {
        "icaoId": "RCYU",
        "obsTime": 0,
        "rawOb": "",
        "visib": "",
        "status": "暫無最新報文，可能為非作業時段"
    },
    {
        "icaoId": "RCQC",
        "obsTime": 1778717860,
        "rawOb": "METAR RCQC 131900Z 00000KT 9999 FEW012 25/24 Q1006 RMK A2972",
        "visib": "6",
        "status": "updated"
    }
]