[
    {
        "icaoId": "RCTP",
        "obsTime": 1781710200,
        "rawOb": "METAR RCTP 171530Z 16004KT 9999 FEW012 SCT018 BKN025 27/25 Q1012 NOSIG RMK A2989",
        "visib": "6",
        "status": "updated"
    },
    {
        "icaoId": "RCSS",
        "obsTime": 1781710200,
        "rawOb": "METAR RCSS 171530Z VRB02KT 9999 FEW018 BKN150 26/24 Q1012 NOSIG RMK A2989",
        "visib": "6",
        "status": "updated"
    },
    {
        "icaoId": "RCKH",
        "obsTime": 1781710200,
        "rawOb": "METAR RCKH 171530Z 07003KT 9999 FEW012 SCT042 BKN180 28/25 Q1012 NOSIG RMK A2991",
        "visib": "6",
        "status": "updated"
    },
    {
        "icaoId": "RCMQ",
        "obsTime": 1781708400,
        "rawOb": "METAR RCMQ 171500Z 19007KT 9999 FEW010 BKN120 28/25 Q1014 RMK A2994",
        "visib": "6",
        "status": "updated"
    },
    {
        "icaoId": "RCBS",
        "obsTime": 1779233400,
        "rawOb": "METAR RCBS 192330Z 22004KT 180V240 9999 FEW010 SCT018 BKN070 25/25 Q1009 NOSIG RMK A2980(E)",
        "visib": "6.2",
        "status": "old_data_kept"
    },
    {
        "icaoId": "RCNN",
        "obsTime": 1781708400,
        "rawOb": "METAR RCNN 171500Z 13003KT 9999 FEW012 SCT040 BKN080 26/24 Q1013 RMK A2994",
        "visib": "6",
        "status": "updated"
    },
    {
        "icaoId": "RCYU",
        "obsTime": 1779233400,
        "rawOb": "METAR RCYU 192330Z 24004KT 9999 FEW012 SCT040 BKN100 26/20 Q1010 NOSIG RMK A2982",
        "visib": "6.2",
        "status": "old_data_kept"
    },
    {
        "icaoId": "RCQC",
        "obsTime": 1781708400,
        "rawOb": "METAR RCQC 171500Z 17005KT 9999 FEW010 SCT100 27/27 Q1012 RMK A2991",
        "visib": "6",
        "status": "updated"
    }
]