[
    {
        "icaoId": "RCTP",
        "obsTime": 1783888200,
        "rawOb": "METAR RCTP 122030Z 28003KT 9999 FEW010 BKN020 BKN032 28/26 Q1005 NOSIG RMK A2968(A)",
        "visib": "6.2",
        "status": "updated"
    },
    {
        "icaoId": "RCSS",
        "obsTime": 1783886400,
        "rawOb": "METAR RCSS 122000Z 09005KT 9999 FEW018 BKN045 BKN100 28/27 Q1004 NOSIG RMK A2967(B)",
        "visib": "6.2",
        "status": "updated"
    },
    {
        "icaoId": "RCKH",
        "obsTime": 1783886400,
        "rawOb": "METAR RCKH 122000Z 14014KT 9999 FEW024 29/24 Q1004 NOSIG RMK A2967(Y)",
        "visib": "6.2",
        "status": "updated"
    },
    {
        "icaoId": "RCMQ",
        "obsTime": 1783888200,
        "rawOb": "METAR RCMQ 122030Z 21005KT 9999 FEW012 27/25 Q1006 RMK A2972",
        "visib": "6.2",
        "status": "updated"
    },
    {
        "icaoId": "RCBS",
        "obsTime": 1783861200,
        "rawOb": "METAR RCBS 121300Z 19015KT 7000 FEW009 BKN200 28/28 Q1002 NOSIG RMK 20013KT/R06 A2959(C)",
        "visib": "4.35",
        "status": "updated"
    },
    {
        "icaoId": "RCNN",
        "obsTime": 1783888200,
        "rawOb": "METAR RCNN 122030Z 18007KT 9999 FEW010 27/24 Q1005 RMK A2967",
        "visib": "6.2",
        "status": "updated"
    },
    {
        "icaoId": "RCYU",
        "obsTime": 1783888200,
        "rawOb": "METAR RCYU 122030Z 35002KT 9999 FEW012 SCT060 27/26 Q1005 RMK A2970",
        "visib": "6.2",
        "status": "updated"
    },
    {
        "icaoId": "RCQC",
        "obsTime": 1783888200,
        "rawOb": "METAR RCQC 122030Z 16005KT 9999 FEW010 SCT020 BKN060 28/27 Q1004 RMK A2967 VIS N 9999M RVR N/A AWOS R20 N/A",
        "visib": "6.2",
        "status": "updated"
    }
]