[
    {
        "icaoId": "RCTP",
        "obsTime": 1784696400,
        "rawOb": "METAR RCTP 220500Z 28013KT 9999 FEW020 34/25 Q1009 NOSIG RMK A2980(R)",
        "visib": "6.2",
        "status": "updated"
    },
    {
        "icaoId": "RCSS",
        "obsTime": 1784696400,
        "rawOb": "METAR RCSS 220500Z 33007KT 9999 FEW015 SCT028 34/27 Q1008 NOSIG RMK 31006KT/R10 A2978(G)",
        "visib": "6.2",
        "status": "updated"
    },
    {
        "icaoId": "RCKH",
        "obsTime": 1784696400,
        "rawOb": "METAR RCKH 220500Z 27010KT 240V310 9999 FEW018 33/25 Q1009 NOSIG RMK 26011KT/R09 A2980(W)",
        "visib": "6.2",
        "status": "updated"
    },
    {
        "icaoId": "RCMQ",
        "obsTime": 1784696400,
        "rawOb": "METAR RCMQ 220500Z 28007KT 9999 FEW010 SCT030 33/26 Q1010 NOSIG RMK A2985",
        "visib": "6.2",
        "status": "updated"
    },
    {
        "icaoId": "RCBS",
        "obsTime": 1784696400,
        "rawOb": "METAR RCBS 220500Z 20009KT 9999 FEW016 SCT180 31/30 Q1008 NOSIG RMK 20008KT/R06 A2978(L)",
        "visib": "6.2",
        "status": "updated"
    },
    {
        "icaoId": "RCNN",
        "obsTime": 1784696400,
        "rawOb": "METAR RCNN 220500Z 25007KT 9999 FEW014 SCT100 31/25 Q1009 NOSIG RMK A2981",
        "visib": "6.2",
        "status": "updated"
    },
    {
        "icaoId": "RCYU",
        "obsTime": 1784696400,
        "rawOb": "METAR RCYU 220500Z 05006KT 9999 FEW012 SCT030 33/25 Q1009 NOSIG RMK A2980",
        "visib": "6.2",
        "status": "updated"
    },
    {
        "icaoId": "RCQC",
        "obsTime": 1784696400,
        "rawOb": "METAR RCQC 220500Z 21006KT 9999 FEW008 SCT012 BKN200 31/28 Q1009 NOSIG RMK A2982 AWOS R20 N/A",
        "visib": "6.2",
        "status": "updated"
    }
]