[
    {
        "icaoId": "RCTP",
        "obsTime": 1779998400,
        "rawOb": "METAR RCTP 282000Z VRB02KT 6000 SCT004 BKN006 BKN010 28/26 Q1009 NOSIG RMK A2980",
        "visib": "3.73",
        "status": "updated"
    },
    {
        "icaoId": "RCSS",
        "obsTime": 1779998400,
        "rawOb": "METAR RCSS 282000Z VRB02KT 9999 FEW016 BKN025 BKN040 29/26 Q1008 NOSIG RMK A2978",
        "visib": "6",
        "status": "updated"
    },
    {
        "icaoId": "RCKH",
        "obsTime": 1779998400,
        "rawOb": "METAR RCKH 282000Z 28007KT 9999 FEW012 SCT032 BKN060 29/25 Q1009 NOSIG RMK A2980",
        "visib": "6",
        "status": "updated"
    },
    {
        "icaoId": "RCMQ",
        "obsTime": 1779998400,
        "rawOb": "METAR RCMQ 282000Z 25003KT 7000 SCT006 BKN012 27/26 Q1010 RMK A2985",
        "visib": "4.35",
        "status": "updated"
    },
    {
        "icaoId": "RCBS",
        "obsTime": 1779233400,
        "rawOb": "METAR RCBS 192330Z 22004KT 180V240 9999 FEW010 SCT018 BKN070 25/25 Q1009 NOSIG RMK A2980(E)",
        "visib": "6.2",
        "status": "old_data_kept"
    },
    {
        "icaoId": "RCNN",
        "obsTime": 1779998400,
        "rawOb": "METAR RCNN 282000Z 29002KT 9999 FEW012 SCT025 28/26 Q1010 RMK A2982",
        "visib": "6",
        "status": "updated"
    },
    {
        "icaoId": "RCYU",
        "obsTime": 1779233400,
        "rawOb": "METAR RCYU 192330Z 24004KT 9999 FEW012 SCT040 BKN100 26/20 Q1010 NOSIG RMK A2982",
        "visib": "6.2",
        "status": "old_data_kept"
    },
    {
        "icaoId": "RCQC",
        "obsTime": 1779998400,
        "rawOb": "METAR RCQC 282000Z 24003KT 160V240 3200 BR SCT008 BKN016 27/27 Q1009 RMK A2981",
        "visib": "1.99",
        "status": "updated"
    }
]