[
    {
        "icaoId": "RCTP",
        "obsTime": 1783035000,
        "rawOb": "METAR RCTP 022330Z 17007KT CAVOK 32/25 Q1012 NOSIG RMK A2991",
        "visib": "6",
        "status": "updated"
    },
    {
        "icaoId": "RCSS",
        "obsTime": 1783035000,
        "rawOb": "METAR RCSS 022330Z VRB01KT 9999 FEW020 32/26 Q1012 NOSIG RMK A2991",
        "visib": "6",
        "status": "updated"
    },
    {
        "icaoId": "RCKH",
        "obsTime": 1783035000,
        "rawOb": "METAR RCKH 022330Z 06005KT 030V100 9999 FEW015 31/25 Q1012 NOSIG RMK A2991",
        "visib": "6",
        "status": "updated"
    },
    {
        "icaoId": "RCMQ",
        "obsTime": 1783035000,
        "rawOb": "METAR RCMQ 022330Z 05001KT 9999 FEW012 31/26 Q1014 NOSIG RMK A2995",
        "visib": "6",
        "status": "updated"
    },
    {
        "icaoId": "RCBS",
        "obsTime": 1779233400,
        "rawOb": "METAR RCBS 192330Z 22004KT 180V240 9999 FEW010 SCT018 BKN070 25/25 Q1009 NOSIG RMK A2980(E)",
        "visib": "6.2",
        "status": "old_data_kept"
    },
    {
        "icaoId": "RCNN",
        "obsTime": 1783035000,
        "rawOb": "METAR RCNN 022330Z 03003KT 9999 FEW010 SCT025 31/26 Q1013 NOSIG RMK A2993",
        "visib": "6",
        "status": "updated"
    },
    {
        "icaoId": "RCYU",
        "obsTime": 1779233400,
        "rawOb": "METAR RCYU 192330Z 24004KT 9999 FEW012 SCT040 BKN100 26/20 Q1010 NOSIG RMK A2982",
        "visib": "6.2",
        "status": "old_data_kept"
    },
    {
        "icaoId": "RCQC",
        "obsTime": 1783035000,
        "rawOb": "METAR RCQC 022330Z 15006KT 9999 FEW006 SCT016 BKN040 30/29 Q1012 NOSIG RMK A2991",
        "visib": "6",
        "status": "updated"
    }
]