[
    {
        "icaoId": "RCTP",
        "obsTime": 1783490400,
        "rawOb": "METAR RCTP 080600Z 28013KT 9999 FEW015 34/25 Q1008 NOSIG RMK A2977(U)",
        "visib": "6.2",
        "status": "updated"
    },
    {
        "icaoId": "RCSS",
        "obsTime": 1783490400,
        "rawOb": "METAR RCSS 080600Z 29010KT 260V320 9999 FEW025 34/26 Q1007 NOSIG RMK 31010KT/R10 A2975(T)",
        "visib": "6.2",
        "status": "updated"
    },
    {
        "icaoId": "RCKH",
        "obsTime": 1783490400,
        "rawOb": "METAR RCKH 080600Z 28012KT 9999 FEW020 SCT220 33/22 Q1007 NOSIG RMK 28013KT/R09 A2975(Y)",
        "visib": "6.2",
        "status": "updated"
    },
    {
        "icaoId": "RCMQ",
        "obsTime": 1783490400,
        "rawOb": "METAR RCMQ 080600Z 30009KT 9999 FEW012 SCT200 33/26 Q1009 NOSIG RMK A2981",
        "visib": "6.2",
        "status": "updated"
    },
    {
        "icaoId": "RCBS",
        "obsTime": 1783490400,
        "rawOb": "METAR RCBS 080600Z 19010KT 9999 FEW016 31/29 Q1007 NOSIG RMK 19009KT/R06 A2974(D)",
        "visib": "6.2",
        "status": "updated"
    },
    {
        "icaoId": "RCNN",
        "obsTime": 1783490400,
        "rawOb": "METAR RCNN 080600Z 28009KT 9999 FEW014 34/25 Q1008 NOSIG RMK A2979",
        "visib": "6.2",
        "status": "updated"
    },
    {
        "icaoId": "RCYU",
        "obsTime": 1783490400,
        "rawOb": "METAR RCYU 080600Z 09005KT 9999 FEW025 SCT050 33/24 Q1008 NOSIG RMK A2977",
        "visib": "6.2",
        "status": "updated"
    },
    {
        "icaoId": "RCQC",
        "obsTime": 1783490400,
        "rawOb": "METAR RCQC 080600Z 06005KT 9999 FEW010 SCT020 32/27 Q1008 NOSIG RMK A2977 AWOS R20 N/A",
        "visib": "6.2",
        "status": "updated"
    }
]