[
    {
        "icaoId": "RCTP",
        "obsTime": 1784831400,
        "rawOb": "METAR RCTP 231830Z 13004KT 090V190 9999 FEW020 28/24 Q1006 NOSIG RMK A2972(Q)",
        "visib": "6.2",
        "status": "updated"
    },
    {
        "icaoId": "RCSS",
        "obsTime": 1784829600,
        "rawOb": "METAR RCSS 231800Z 11007KT 9999 FEW020 28/26 Q1006 NOSIG RMK A2973(Y)",
        "visib": "6.2",
        "status": "updated"
    },
    {
        "icaoId": "RCKH",
        "obsTime": 1784829600,
        "rawOb": "METAR RCKH 231800Z VRB01KT 9999 FEW016 29/24 Q1006 NOSIG RMK A2971(M)",
        "visib": "6.2",
        "status": "updated"
    },
    {
        "icaoId": "RCMQ",
        "obsTime": 1784829600,
        "rawOb": "METAR RCMQ 231800Z 00000KT 9999 FEW010 26/25 Q1007 RMK A2976",
        "visib": "6.2",
        "status": "updated"
    },
    {
        "icaoId": "RCBS",
        "obsTime": 1784811600,
        "rawOb": "METAR RCBS 231300Z 21009KT 9999 FEW015 28/28 Q1007 NOSIG RMK 22005KT/R06 A2975(J)",
        "visib": "6.2",
        "status": "updated"
    },
    {
        "icaoId": "RCNN",
        "obsTime": 1784829600,
        "rawOb": "METAR RCNN 231800Z 00000KT 9999 FEW014 26/24 Q1006 RMK A2972 AWOS R36 N/A",
        "visib": "6.2",
        "status": "updated"
    },
    {
        "icaoId": "RCYU",
        "obsTime": 1784829600,
        "rawOb": "METAR RCYU 231800Z 23001KT 9999 FEW012 27/25 Q1008 RMK A2978",
        "visib": "6.2",
        "status": "updated"
    },
    {
        "icaoId": "RCQC",
        "obsTime": 1784829600,
        "rawOb": "METAR RCQC 231800Z 32004KT 9999 FEW012 SCT060 27/26 Q1006 RMK A2971",
        "visib": "6.2",
        "status": "updated"
    }
]