[
    {
        "icaoId": "RCTP",
        "obsTime": 1784347200,
        "rawOb": "METAR RCTP 180400Z 24019KT 9999 FEW020 BKN200 34/24 Q1005 WS R23R NOSIG RMK A2970(J)",
        "visib": "6.2",
        "status": "updated"
    },
    {
        "icaoId": "RCSS",
        "obsTime": 1784347200,
        "rawOb": "METAR RCSS 180400Z 27013KT 9999 FEW030 SCT060 BKN220 35/25 Q1005 NOSIG RMK 26012KT/R10 A2969(T)",
        "visib": "6.2",
        "status": "updated"
    },
    {
        "icaoId": "RCKH",
        "obsTime": 1784347560,
        "rawOb": "SPECI RCKH 180406Z 22008KT 5000 -SHRA SCT006 SCT009CB BKN014 OVC022 26/25 Q1008 NOSIG RMK 23008KT/R09 CB S-W A2978(X)",
        "visib": "3.11",
        "status": "updated"
    },
    {
        "icaoId": "RCMQ",
        "obsTime": 1784347200,
        "rawOb": "METAR RCMQ 180400Z 24008KT 9999 FEW014 BKN035 BKN060 34/26 Q1008 NOSIG RMK A2978",
        "visib": "6.2",
        "status": "updated"
    },
    {
        "icaoId": "RCBS",
        "obsTime": 1784347200,
        "rawOb": "METAR RCBS 180400Z 19013KT 9000 FEW012 SCT060 BKN180 29/29 Q1005 NOSIG RMK 20010KT/R06 A2970(G)",
        "visib": "5.59",
        "status": "updated"
    },
    {
        "icaoId": "RCNN",
        "obsTime": 1784347860,
        "rawOb": "SPECI RCNN 180411Z 22008KT 8000 -RA FEW010 FEW012TCU BKN025 BKN040 26/24 Q1008 NOSIG RMK A2978 TCU E STNR",
        "visib": "4.97",
        "status": "updated"
    },
    {
        "icaoId": "RCYU",
        "obsTime": 1784347200,
        "rawOb": "METAR RCYU 180400Z 04006KT 9999 FEW025 SCT040 34/26 Q1006 NOSIG RMK A2972",
        "visib": "6.2",
        "status": "updated"
    },
    {
        "icaoId": "RCQC",
        "obsTime": 1784347200,
        "rawOb": "METAR RCQC 180400Z 18008KT 9999 VCSH FEW010 FEW012CB SCT030 BKN060 30/28 Q1007 NOSIG RMK A2975 CB NW VCSH NW AWOS R20 N/A",
        "visib": "6.2",
        "status": "updated"
    }
]