[
    {
        "icaoId": "RCTP",
        "obsTime": 1784296800,
        "rawOb": "METAR RCTP 171400Z 23014KT 9999 FEW015 SCT200 29/24 Q1006 NOSIG RMK A2973(E)",
        "visib": "6.2",
        "status": "updated"
    },
    {
        "icaoId": "RCSS",
        "obsTime": 1784296800,
        "rawOb": "METAR RCSS 171400Z VRB01KT 9999 FEW020 SCT040 28/28 Q1006 NOSIG RMK A2972(W)",
        "visib": "6.2",
        "status": "updated"
    },
    {
        "icaoId": "RCKH",
        "obsTime": 1784296800,
        "rawOb": "METAR RCKH 171400Z 04003KT 8000 SHRA SCT014 BKN020 BKN060 25/24 Q1010 NOSIG RMK A2983 RA AMT 4.2MM(U)",
        "visib": "4.97",
        "status": "updated"
    },
    {
        "icaoId": "RCMQ",
        "obsTime": 1784296800,
        "rawOb": "METAR RCMQ 171400Z 18012KT 9999 FEW012 BKN100 27/24 Q1010 NOSIG RMK A2983",
        "visib": "6.2",
        "status": "updated"
    },
    {
        "icaoId": "RCBS",
        "obsTime": 1784293200,
        "rawOb": "METAR RCBS 171300Z 24005KT 9999 FEW009 SCT150 27/27 Q1005 NOSIG RMK 25004KT/R06 A2969(R)",
        "visib": "6.2",
        "status": "updated"
    },
    {
        "icaoId": "RCNN",
        "obsTime": 1784297040,
        "rawOb": "SPECI RCNN 171404Z 18005KT 4000 1600S -RA BR SCT008 BKN020 BKN040 25/23 Q1010 RMK A2983",
        "visib": "2.49",
        "status": "updated"
    },
    {
        "icaoId": "RCYU",
        "obsTime": 1784296800,
        "rawOb": "METAR RCYU 171400Z 00000KT 9999 FEW012 28/26 Q1006 RMK A2972",
        "visib": "6.2",
        "status": "updated"
    },
    {
        "icaoId": "RCQC",
        "obsTime": 1784296800,
        "rawOb": "METAR RCQC 171400Z 19005KT 9999 FEW012 SCT040 BKN100 27/26 Q1008 NOSIG RMK A2978 AWOS R20 N/A",
        "visib": "6.2",
        "status": "updated"
    }
]