[
    {
        "icaoId": "RCTP",
        "obsTime": 1784012400,
        "rawOb": "METAR RCTP 140700Z 33007KT 290V360 9999 FEW015 FEW018TCU SCT020 BKN120 32/26 Q1008 NOSIG RMK TCU S A2977(K)",
        "visib": "6.2",
        "status": "updated"
    },
    {
        "icaoId": "RCSS",
        "obsTime": 1784012400,
        "rawOb": "METAR RCSS 140700Z 29010KT 260V330 9999 FEW018 FEW025TCU SCT035 BKN200 34/27 Q1007 NOSIG RMK 30011KT/R10 TCU SE A2976(Y)",
        "visib": "6.2",
        "status": "updated"
    },
    {
        "icaoId": "RCKH",
        "obsTime": 1784012400,
        "rawOb": "METAR RCKH 140700Z 16012G22KT 130V190 9999 FEW016 SCT026 BKN120 32/26 Q1008 WS R09 NOSIG RMK A2979(S)",
        "visib": "6.2",
        "status": "updated"
    },
    {
        "icaoId": "RCMQ",
        "obsTime": 1784013300,
        "rawOb": "SPECI RCMQ 140715Z COR 29004KT 9999 VCSH FEW008 FEW012CB SCT025 BKN040 31/28 Q1009 NOSIG RMK A2981 CB SE VCSH SE",
        "visib": "6",
        "status": "updated"
    },
    {
        "icaoId": "RCBS",
        "obsTime": 1784012400,
        "rawOb": "METAR RCBS 140700Z 17011KT 9999 FEW016 BKN070 29/29 Q1007 NOSIG RMK 18011KT/R06 A2974(V)",
        "visib": "6.2",
        "status": "updated"
    },
    {
        "icaoId": "RCNN",
        "obsTime": 1784012400,
        "rawOb": "METAR RCNN 140700Z 18014KT 9999 FEW012 SCT025 BKN080 32/24 Q1008 NOSIG RMK A2977",
        "visib": "6.2",
        "status": "updated"
    },
    {
        "icaoId": "RCYU",
        "obsTime": 1784012400,
        "rawOb": "METAR RCYU 140700Z 20016KT 9999 FEW030 BKN200 33/26 Q1008 NOSIG RMK A2979",
        "visib": "6.2",
        "status": "updated"
    },
    {
        "icaoId": "RCQC",
        "obsTime": 1784012400,
        "rawOb": "METAR RCQC 140700Z 15010KT 9999 FEW012 SCT200 31/28 Q1007 NOSIG RMK A2975 AWOS R20 N/A",
        "visib": "6.2",
        "status": "updated"
    }
]