[
    {
        "icaoId": "RCTP",
        "obsTime": 1784755800,
        "rawOb": "METAR RCTP 222130Z 24005KT 9999 FEW015 SCT030 BKN160 27/25 Q1007 NOSIG RMK A2976(Z)",
        "visib": "6.2",
        "status": "updated"
    },
    {
        "icaoId": "RCSS",
        "obsTime": 1784754000,
        "rawOb": "METAR RCSS 222100Z 20003KT 180V240 9999 FEW020 27/26 Q1007 NOSIG RMK A2976(J)",
        "visib": "6.2",
        "status": "updated"
    },
    {
        "icaoId": "RCKH",
        "obsTime": 1784754000,
        "rawOb": "METAR RCKH 222100Z 05003KT 9000 FEW016 SCT022 BKN120 28/26 Q1007 NOSIG RMK A2976(X)",
        "visib": "5.59",
        "status": "updated"
    },
    {
        "icaoId": "RCMQ",
        "obsTime": 1784755800,
        "rawOb": "METAR RCMQ 222130Z 20003KT 9999 FEW010 SCT030 27/26 Q1009 NOSIG RMK A2981",
        "visib": "6.2",
        "status": "updated"
    },
    {
        "icaoId": "RCBS",
        "obsTime": 1784755800,
        "rawOb": "METAR RCBS 222130Z 23006KT 6000 SCT005 BKN016 BKN050 27/27 Q1007 NOSIG RMK A2974(D)",
        "visib": "3.73",
        "status": "updated"
    },
    {
        "icaoId": "RCNN",
        "obsTime": 1784755800,
        "rawOb": "METAR RCNN 222130Z 11002KT 9999 FEW012 SCT100 25/24 Q1008 NOSIG RMK A2977",
        "visib": "6.2",
        "status": "updated"
    },
    {
        "icaoId": "RCYU",
        "obsTime": 1784755800,
        "rawOb": "METAR RCYU 222130Z 21004KT 9999 FEW012 27/25 Q1008 NOSIG RMK A2978",
        "visib": "6.2",
        "status": "updated"
    },
    {
        "icaoId": "RCQC",
        "obsTime": 1784755800,
        "rawOb": "METAR RCQC 222130Z 22004KT 9999 FEW012 27/27 Q1007 NOSIG RMK A2976 AWOS R20 N/A",
        "visib": "6.2",
        "status": "updated"
    }
]