[
    {
        "icaoId": "RCTP",
        "obsTime": 1781461800,
        "rawOb": "METAR RCTP 141830Z 23010KT 9999 FEW015 SCT050 BKN080 28/22 Q1005 NOSIG RMK A2968",
        "visib": "6",
        "status": "updated"
    },
    {
        "icaoId": "RCSS",
        "obsTime": 1781460000,
        "rawOb": "METAR RCSS 141800Z VRB02KT 9999 FEW018 SCT090 BKN120 25/24 Q1005 NOSIG RMK A2969",
        "visib": "6",
        "status": "updated"
    },
    {
        "icaoId": "RCKH",
        "obsTime": 1781460000,
        "rawOb": "METAR RCKH 141800Z 04003KT 020V080 9999 -SHRA FEW010 SCT020 BKN045 25/23 Q1007 NOSIG RMK A2976",
        "visib": "6",
        "status": "updated"
    },
    {
        "icaoId": "RCMQ",
        "obsTime": 1781460000,
        "rawOb": "METAR RCMQ 141800Z 17007KT 9999 -RA FEW010 BKN060 24/23 Q1008 RMK A2978 RA AMT T",
        "visib": "6",
        "status": "updated"
    },
    {
        "icaoId": "RCBS",
        "obsTime": 1779233400,
        "rawOb": "METAR RCBS 192330Z 22004KT 180V240 9999 FEW010 SCT018 BKN070 25/25 Q1009 NOSIG RMK A2980(E)",
        "visib": "6.2",
        "status": "old_data_kept"
    },
    {
        "icaoId": "RCNN",
        "obsTime": 1781462220,
        "rawOb": "SPECI RCNN 141837Z 14004KT 3200 RA BR SCT008 FEW010CB BKN016 BKN030 25/23 Q1008 RMK A2979 CB SW",
        "visib": "1.99",
        "status": "updated"
    },
    {
        "icaoId": "RCYU",
        "obsTime": 1779233400,
        "rawOb": "METAR RCYU 192330Z 24004KT 9999 FEW012 SCT040 BKN100 26/20 Q1010 NOSIG RMK A2982",
        "visib": "6.2",
        "status": "old_data_kept"
    },
    {
        "icaoId": "RCQC",
        "obsTime": 1781460000,
        "rawOb": "METAR RCQC 141800Z 14006KT 6000 SCT008 BKN020 BKN040 27/26 Q1006 RMK A2973",
        "visib": "3.73",
        "status": "updated"
    }
]