[
    {
        "icaoId": "RCTP",
        "obsTime": 1781033040,
        "rawOb": "SPECI RCTP 091924Z 04017KT 5000 SHRA SCT004 BKN006 BKN015 23/23 Q1005 WS R05L NOSIG RMK A2969",
        "visib": "3.11",
        "status": "updated"
    },
    {
        "icaoId": "RCSS",
        "obsTime": 1781031600,
        "rawOb": "METAR RCSS 091900Z 11008KT 9999 -SHRA FEW012 SCT020 BKN038 23/23 Q1005 NOSIG RMK A2969 RA AMT 2.4MM",
        "visib": "6",
        "status": "updated"
    },
    {
        "icaoId": "RCKH",
        "obsTime": 1781031960,
        "rawOb": "SPECI RCKH 091906Z 21007KT 160V240 5000 -SHRA SCT005 BKN012 OVC035 27/25 Q1004 TEMPO 3000 SHRA RMK A2966",
        "visib": "3.11",
        "status": "updated"
    },
    {
        "icaoId": "RCMQ",
        "obsTime": 1781031600,
        "rawOb": "METAR RCMQ 091900Z 03005KT 3200 -RA BR SCT003 BKN006 OVC020 24/23 Q1004 RERA RMK A2967 RA AMT 3.0MM",
        "visib": "1.99",
        "status": "updated"
    },
    {
        "icaoId": "RCBS",
        "obsTime": 1779233400,
        "rawOb": "METAR RCBS 192330Z 22004KT 180V240 9999 FEW010 SCT018 BKN070 25/25 Q1009 NOSIG RMK A2980(E)",
        "visib": "6.2",
        "status": "old_data_kept"
    },
    {
        "icaoId": "RCNN",
        "obsTime": 1781031600,
        "rawOb": "METAR RCNN 091900Z 20007KT 4000 -RA BR SCT004 FEW010CB BKN012 OVC030 26/25 Q1004 RMK A2967 RA AMT 0.9MM CB S MOV E",
        "visib": "2.49",
        "status": "updated"
    },
    {
        "icaoId": "RCYU",
        "obsTime": 1779233400,
        "rawOb": "METAR RCYU 192330Z 24004KT 9999 FEW012 SCT040 BKN100 26/20 Q1010 NOSIG RMK A2982",
        "visib": "6.2",
        "status": "old_data_kept"
    },
    {
        "icaoId": "RCQC",
        "obsTime": 1781031600,
        "rawOb": "METAR RCQC 091900Z 26004KT 9999 SCT003 BKN006 BKN016 26/26 Q1003 RMK A2963",
        "visib": "6",
        "status": "updated"
    }
]