[
    {
        "icaoId": "RCTP",
        "obsTime": 1782979200,
        "rawOb": "METAR RCTP 020800Z 29008KT 9999 FEW020 BKN060 31/25 Q1011 NOSIG RMK A2986",
        "visib": "6",
        "status": "updated"
    },
    {
        "icaoId": "RCSS",
        "obsTime": 1782979200,
        "rawOb": "METAR RCSS 020800Z 30008KT 270V330 9999 FEW020 SCT035 BKN200 34/26 Q1010 NOSIG RMK 30008KT/R10 A2984",
        "visib": "6",
        "status": "updated"
    },
    {
        "icaoId": "RCKH",
        "obsTime": 1782979200,
        "rawOb": "METAR RCKH 020800Z 17013G24KT 100V210 CAVOK 33/24 Q1009 NOSIG RMK A2982",
        "visib": "6",
        "status": "updated"
    },
    {
        "icaoId": "RCMQ",
        "obsTime": 1782979200,
        "rawOb": "METAR RCMQ 020800Z 33007KT 9999 FEW010 SCT020 33/27 Q1012 NOSIG RMK A2989",
        "visib": "6",
        "status": "updated"
    },
    {
        "icaoId": "RCBS",
        "obsTime": 1779233400,
        "rawOb": "METAR RCBS 192330Z 22004KT 180V240 9999 FEW010 SCT018 BKN070 25/25 Q1009 NOSIG RMK A2980(E)",
        "visib": "6.2",
        "status": "old_data_kept"
    },
    {
        "icaoId": "RCNN",
        "obsTime": 1782979200,
        "rawOb": "METAR RCNN 020800Z 20014KT 9999 FEW012 SCT050 33/26 Q1010 NOSIG RMK A2985",
        "visib": "6",
        "status": "updated"
    },
    {
        "icaoId": "RCYU",
        "obsTime": 1779233400,
        "rawOb": "METAR RCYU 192330Z 24004KT 9999 FEW012 SCT040 BKN100 26/20 Q1010 NOSIG RMK A2982",
        "visib": "6.2",
        "status": "old_data_kept"
    },
    {
        "icaoId": "RCQC",
        "obsTime": 1782979200,
        "rawOb": "METAR RCQC 020800Z 19006KT 9999 FEW010 SCT020 32/28 Q1010 NOSIG RMK A2984",
        "visib": "6",
        "status": "updated"
    }
]