[
    {
        "icaoId": "RCTP",
        "obsTime": 1783764000,
        "rawOb": "METAR RCTP 111000Z 24029G39KT 3500 SHRA SCT005 BKN008 BKN015 26/26 Q0987 WS ALL RWY NOSIG RMK QFF 987.1HPA A2915 RA AMT 5.0MM(D)",
        "visib": "2.17",
        "status": "updated"
    },
    {
        "icaoId": "RCSS",
        "obsTime": 1783764000,
        "rawOb": "METAR RCSS 111000Z 26016KT 5000 SHRA FEW004 BKN010 OVC020 26/26 Q0986 WS R10 NOSIG RMK QFF 986.4HPA A2913 RA AMT 4.6MM(Q)",
        "visib": "3.11",
        "status": "updated"
    },
    {
        "icaoId": "RCKH",
        "obsTime": 1783764000,
        "rawOb": "METAR RCKH 111000Z 28010KT 8000 -RA FEW016 SCT034 BKN080 30/27 Q0994 NOSIG RMK 29012KT/R09 QFF 994.6HPA A2937(Z)",
        "visib": "4.97",
        "status": "updated"
    },
    {
        "icaoId": "RCMQ",
        "obsTime": 1783764000,
        "rawOb": "METAR RCMQ 111000Z 28006KT 0800 R36/0250N +RA FG SCT002 BKN004 OVC010 25/25 Q0994 BECMG TL1100 0600 RA FG BKN002 RMK A2936 RA AMT 23.0MM APCH CLD SCT002 QFF994.2HPA",
        "visib": "0.5",
        "status": "updated"
    },
    {
        "icaoId": "RCBS",
        "obsTime": 1783764000,
        "rawOb": "METAR RCBS 111000Z 27005KT 9999 FEW025 SCT120 BKN180 32/24 Q0991 NOSIG RMK QFF 991.8HPA A2929(P)",
        "visib": "6.2",
        "status": "updated"
    },
    {
        "icaoId": "RCNN",
        "obsTime": 1783764000,
        "rawOb": "METAR RCNN 111000Z 27002KT 7000 VCSH SCT008 SCT025 BKN040 28/26 Q0994 RMK A2938 QFF994.9HPA VCSH E",
        "visib": "4.35",
        "status": "updated"
    },
    {
        "icaoId": "RCYU",
        "obsTime": 1783764000,
        "rawOb": "METAR RCYU 111000Z 03002KT 8000 -RA FEW012 SCT030 BKN080 28/26 Q0987 RMK A2915 RA AMT 1.0MM QFF987.4HPA",
        "visib": "4.97",
        "status": "updated"
    },
    {
        "icaoId": "RCQC",
        "obsTime": 1783764000,
        "rawOb": "METAR RCQC 111000Z 25009KT 9000 VCSH FEW008 SCT016 BKN040 30/28 Q0993 RMK A2933 QFF993.2HPA VCSH NW",
        "visib": "5.59",
        "status": "updated"
    }
]