[
    {
        "icaoId": "RCTP",
        "obsTime": 1778945400,
        "rawOb": "METAR RCTP 161530Z 07017G27KT 9999 FEW015 25/18 Q1012 WS R05L NOSIG RMK A2991",
        "visib": "6",
        "status": "updated"
    },
    {
        "icaoId": "RCSS",
        "obsTime": 1778945400,
        "rawOb": "METAR RCSS 161530Z 08011KT 9999 FEW016 24/19 Q1014 NOSIG RMK A2996",
        "visib": "6",
        "status": "updated"
    },
    {
        "icaoId": "RCKH",
        "obsTime": 1778945400,
        "rawOb": "METAR RCKH 161530Z VRB02KT 9999 FEW018 SCT080 26/23 Q1012 NOSIG RMK A2989",
        "visib": "6",
        "status": "updated"
    },
    {
        "icaoId": "RCMQ",
        "obsTime": 1778943600,
        "rawOb": "METAR RCMQ 161500Z 00000KT 9999 FEW012 BKN200 26/23 Q1012 RMK A2991",
        "visib": "6",
        "status": "updated"
    },
    {
        "icaoId": "RCBS",
        "obsTime": 0,
        "rawOb": "",
        "visib": "",
        "status": "old_data_kept"
    },
    {
        "icaoId": "RCNN",
        "obsTime": 1778943600,
        "rawOb": "METAR RCNN 161500Z 26001KT 9999 FEW012 SCT060 24/20 Q1013 RMK A2991",
        "visib": "6",
        "status": "updated"
    },
    {
        "icaoId": "RCYU",
        "obsTime": 0,
        "rawOb": "",
        "visib": "",
        "status": "old_data_kept"
    },
    {
        "icaoId": "RCQC",
        "obsTime": 1778943600,
        "rawOb": "METAR RCQC 161500Z 36009KT 9999 FEW012 BKN200 26/23 Q1012 RMK A2989",
        "visib": "6",
        "status": "updated"
    }
]