[
    {
        "icaoId": "RCTP",
        "obsTime": 1780173000,
        "rawOb": "METAR RCTP 302030Z 07010KT 9999 FEW015 SCT022 24/20 Q1009 NOSIG RMK A2981",
        "visib": "6",
        "status": "updated"
    },
    {
        "icaoId": "RCSS",
        "obsTime": 1780171200,
        "rawOb": "METAR RCSS 302000Z 10006KT 9999 FEW020 23/20 Q1009 NOSIG RMK A2981",
        "visib": "6",
        "status": "updated"
    },
    {
        "icaoId": "RCKH",
        "obsTime": 1780171200,
        "rawOb": "METAR RCKH 302000Z 25005KT 9999 FEW014 BKN040 28/23 Q1007 NOSIG RMK A2974",
        "visib": "6",
        "status": "updated"
    },
    {
        "icaoId": "RCMQ",
        "obsTime": 1780173000,
        "rawOb": "METAR RCMQ 302030Z 01008KT 9999 FEW012 22/19 Q1009 RMK A2980",
        "visib": "6",
        "status": "updated"
    },
    {
        "icaoId": "RCBS",
        "obsTime": 1779233400,
        "rawOb": "METAR RCBS 192330Z 22004KT 180V240 9999 FEW010 SCT018 BKN070 25/25 Q1009 NOSIG RMK A2980(E)",
        "visib": "6.2",
        "status": "old_data_kept"
    },
    {
        "icaoId": "RCNN",
        "obsTime": 1780173000,
        "rawOb": "METAR RCNN 302030Z 01005KT 9999 FEW012 SCT040 26/22 Q1008 RMK A2977",
        "visib": "6",
        "status": "updated"
    },
    {
        "icaoId": "RCYU",
        "obsTime": 1779233400,
        "rawOb": "METAR RCYU 192330Z 24004KT 9999 FEW012 SCT040 BKN100 26/20 Q1010 NOSIG RMK A2982",
        "visib": "6.2",
        "status": "old_data_kept"
    },
    {
        "icaoId": "RCQC",
        "obsTime": 1780173000,
        "rawOb": "METAR RCQC 302030Z 02017KT 9999 FEW012 26/20 Q1008 RMK A2978",
        "visib": "6",
        "status": "updated"
    }
]