[
    {
        "icaoId": "RCTP",
        "obsTime": 1784102400,
        "rawOb": "METAR RCTP 150800Z 25017KT 9999 FEW020 34/26 Q1007 NOSIG RMK A2976(M)",
        "visib": "6.2",
        "status": "updated"
    },
    {
        "icaoId": "RCSS",
        "obsTime": 1784102400,
        "rawOb": "METAR RCSS 150800Z 09010KT 9999 FEW015 SCT025 BKN040 31/27 Q1007 NOSIG RMK A2976(C)",
        "visib": "6.2",
        "status": "updated"
    },
    {
        "icaoId": "RCKH",
        "obsTime": 1784102400,
        "rawOb": "METAR RCKH 150800Z 08007KT 050V130 9999 FEW015 BKN030 BKN050 28/25 Q1010 NOSIG RMK A2983(B)",
        "visib": "6.2",
        "status": "updated"
    },
    {
        "icaoId": "RCMQ",
        "obsTime": 1784102400,
        "rawOb": "METAR RCMQ 150800Z 24016KT 9999 FEW010 SCT100 32/24 Q1010 NOSIG RMK A2982",
        "visib": "6.2",
        "status": "updated"
    },
    {
        "icaoId": "RCBS",
        "obsTime": 1784102400,
        "rawOb": "METAR RCBS 150800Z 21013KT 9999 FEW018 30/29 Q1007 NOSIG RMK 21010KT/R06 A2974(L)",
        "visib": "6.2",
        "status": "updated"
    },
    {
        "icaoId": "RCNN",
        "obsTime": 1784102400,
        "rawOb": "METAR RCNN 150800Z 21006KT 9999 FEW012 SCT030 BKN060 29/24 Q1009 NOSIG RMK A2982",
        "visib": "6.2",
        "status": "updated"
    },
    {
        "icaoId": "RCYU",
        "obsTime": 1784102400,
        "rawOb": "METAR RCYU 150800Z 04008KT 9999 FEW025 SCT050 32/26 Q1008 NOSIG RMK A2977",
        "visib": "6.2",
        "status": "updated"
    },
    {
        "icaoId": "RCQC",
        "obsTime": 1784102400,
        "rawOb": "METAR RCQC 150800Z 16009KT 9999 FEW012 30/28 Q1008 NOSIG RMK A2978 AWOS R20 N/A",
        "visib": "6.2",
        "status": "updated"
    }
]