[
    {
        "icaoId": "RCTP",
        "obsTime": 1783994400,
        "rawOb": "METAR RCTP 140200Z 01007KT 340V040 9999 FEW020 32/27 Q1008 NOSIG RMK A2979(A)",
        "visib": "6.2",
        "status": "updated"
    },
    {
        "icaoId": "RCSS",
        "obsTime": 1783994400,
        "rawOb": "METAR RCSS 140200Z VRB05KT 9999 FEW016 SCT030 BKN050 33/27 Q1008 NOSIG RMK A2978(N)",
        "visib": "6.2",
        "status": "updated"
    },
    {
        "icaoId": "RCKH",
        "obsTime": 1783994400,
        "rawOb": "METAR RCKH 140200Z 14008G18KT 110V180 9000 -SHRA FEW009TCU SCT014 SCT022 BKN036 27/26 Q1009 RESHRA WS R09 NOSIG RMK TCU SE A2982 RA AMT 13.2MM(W)",
        "visib": "5.59",
        "status": "updated"
    },
    {
        "icaoId": "RCMQ",
        "obsTime": 1783994400,
        "rawOb": "METAR RCMQ 140200Z 33003KT 9999 FEW012 BKN025 33/28 Q1010 NOSIG RMK A2984",
        "visib": "6.2",
        "status": "updated"
    },
    {
        "icaoId": "RCBS",
        "obsTime": 1783994400,
        "rawOb": "METAR RCBS 140200Z 18012KT 9999 FEW010 SCT035 28/28 Q1007 RESHRA NOSIG RMK 18010KT/R06 A2975 RA AMT 3.8MM(C)",
        "visib": "6.2",
        "status": "updated"
    },
    {
        "icaoId": "RCNN",
        "obsTime": 1783994400,
        "rawOb": "METAR RCNN 140200Z 17013KT 9000 VCSH FEW012 SCT025 BKN060 27/24 Q1009 NOSIG RMK A2981 RA AMT 0.5MM VCSH S",
        "visib": "5.59",
        "status": "updated"
    },
    {
        "icaoId": "RCYU",
        "obsTime": 1783994400,
        "rawOb": "METAR RCYU 140200Z 19010KT 9999 FEW030 SCT200 32/26 Q1009 NOSIG RMK A2982",
        "visib": "6.2",
        "status": "updated"
    },
    {
        "icaoId": "RCQC",
        "obsTime": 1783994400,
        "rawOb": "METAR RCQC 140200Z 14015KT 9999 FEW010 SCT018 BKN120 30/28 Q1008 NOSIG RMK A2978 AWOS R20 N/A",
        "visib": "6.2",
        "status": "updated"
    }
]