[
    {
        "icaoId": "RCTP",
        "obsTime": 1779978600,
        "rawOb": "METAR RCTP 281430Z 24003KT 9999 FEW008 BKN012 BKN018 28/26 Q1010 NOSIG RMK A2983",
        "visib": "6",
        "status": "updated"
    },
    {
        "icaoId": "RCSS",
        "obsTime": 1779976800,
        "rawOb": "METAR RCSS 281400Z 32004KT 270V010 9000 SCT012 BKN016 BKN040 29/27 Q1010 NOSIG RMK A2983",
        "visib": "5.59",
        "status": "updated"
    },
    {
        "icaoId": "RCKH",
        "obsTime": 1779978600,
        "rawOb": "METAR RCKH 281430Z 27005KT 240V300 9999 FEW015 SCT060 BKN230 29/25 Q1010 NOSIG RMK A2983",
        "visib": "6",
        "status": "updated"
    },
    {
        "icaoId": "RCMQ",
        "obsTime": 1779976800,
        "rawOb": "METAR RCMQ 281400Z 00000KT 9999 FEW012 27/26 Q1011 NOSIG RMK A2985",
        "visib": "6",
        "status": "updated"
    },
    {
        "icaoId": "RCBS",
        "obsTime": 1779233400,
        "rawOb": "METAR RCBS 192330Z 22004KT 180V240 9999 FEW010 SCT018 BKN070 25/25 Q1009 NOSIG RMK A2980(E)",
        "visib": "6.2",
        "status": "old_data_kept"
    },
    {
        "icaoId": "RCNN",
        "obsTime": 1779976800,
        "rawOb": "METAR RCNN 281400Z 30005KT 9999 FEW012 SCT100 28/25 Q1011 RMK A2986",
        "visib": "6",
        "status": "updated"
    },
    {
        "icaoId": "RCYU",
        "obsTime": 1779233400,
        "rawOb": "METAR RCYU 192330Z 24004KT 9999 FEW012 SCT040 BKN100 26/20 Q1010 NOSIG RMK A2982",
        "visib": "6.2",
        "status": "old_data_kept"
    },
    {
        "icaoId": "RCQC",
        "obsTime": 1779976800,
        "rawOb": "METAR RCQC 281400Z 00000KT 9999 FEW010 SCT020 27/27 Q1010 RMK A2983",
        "visib": "6",
        "status": "updated"
    }
]