[
    {
        "icaoId": "RCTP",
        "obsTime": 1784235600,
        "rawOb": "METAR RCTP 162100Z 20007KT 9999 FEW015 26/24 Q1006 NOSIG RMK A2972(Q)",
        "visib": "6.2",
        "status": "updated"
    },
    {
        "icaoId": "RCSS",
        "obsTime": 1784235600,
        "rawOb": "METAR RCSS 162100Z VRB01KT 9999 FEW025 27/26 Q1006 NOSIG RMK A2973(A)",
        "visib": "6.2",
        "status": "updated"
    },
    {
        "icaoId": "RCKH",
        "obsTime": 1784235600,
        "rawOb": "METAR RCKH 162100Z 09004KT 9999 FEW012 SCT040 26/25 Q1008 NOSIG RMK A2978(C)",
        "visib": "6.2",
        "status": "updated"
    },
    {
        "icaoId": "RCMQ",
        "obsTime": 1784235600,
        "rawOb": "METAR RCMQ 162100Z 18008KT 9999 FEW012 26/24 Q1009 NOSIG RMK A2980",
        "visib": "6.2",
        "status": "updated"
    },
    {
        "icaoId": "RCBS",
        "obsTime": 1784206800,
        "rawOb": "METAR RCBS 161300Z 21014KT 9999 FEW012 28/28 Q1007 NOSIG RMK 21011KT/R06 A2976(J)",
        "visib": "6.2",
        "status": "updated"
    },
    {
        "icaoId": "RCNN",
        "obsTime": 1784235600,
        "rawOb": "METAR RCNN 162100Z 11004KT 9999 FEW012 SCT050 26/23 Q1008 NOSIG RMK A2977",
        "visib": "6.2",
        "status": "updated"
    },
    {
        "icaoId": "RCYU",
        "obsTime": 1784235600,
        "rawOb": "METAR RCYU 162100Z 23004KT 9999 FEW012 BKN050 27/25 Q1007 NOSIG RMK A2973",
        "visib": "6.2",
        "status": "updated"
    },
    {
        "icaoId": "RCQC",
        "obsTime": 1784235600,
        "rawOb": "METAR RCQC 162100Z 20002KT 9999 FEW012 SCT200 27/27 Q1007 NOSIG RMK A2975 AWOS R20 N/A",
        "visib": "6.2",
        "status": "updated"
    }
]