[
    {
        "icaoId": "RCTP",
        "obsTime": 1783801200,
        "rawOb": "SPECI RCTP 112020Z 23024KT 9999 -RA FEW015 SCT050 BKN100 28/23 Q0994 WS ALL RWY NOSIG RMK A2936(C)",
        "visib": "6.2",
        "status": "updated"
    },
    {
        "icaoId": "RCSS",
        "obsTime": 1783800000,
        "rawOb": "METAR RCSS 112000Z 31005KT 9999 FEW020 BKN120 BKN150 27/25 Q0994 NOSIG RMK QFF 994.2HPA A2936(J)",
        "visib": "6.2",
        "status": "updated"
    },
    {
        "icaoId": "RCKH",
        "obsTime": 1783800000,
        "rawOb": "METAR RCKH 112000Z 19008KT 160V220 9999 FEW014 BKN018 BKN120 30/27 Q0999 NOSIG RMK A2951(Q)",
        "visib": "6.2",
        "status": "updated"
    },
    {
        "icaoId": "RCMQ",
        "obsTime": 1783800000,
        "rawOb": "METAR RCMQ 112000Z 20015KT 1600 RA BR SCT006 BKN014 OVC025 27/26 Q0999 RMK A2950 RA AMT 1.0MM",
        "visib": "0.99",
        "status": "updated"
    },
    {
        "icaoId": "RCBS",
        "obsTime": 1783774800,
        "rawOb": "METAR RCBS 111300Z 23010KT 9999 -RA FEW020 SCT120 BKN200 30/29 Q0992 NOSIG RMK QFF 992.9HPA A2932(V)",
        "visib": "6.2",
        "status": "updated"
    },
    {
        "icaoId": "RCNN",
        "obsTime": 1783800000,
        "rawOb": "METAR RCNN 112000Z 19009KT 9000 FEW010 BKN020 BKN040 28/25 Q0999 RMK A2950",
        "visib": "5.59",
        "status": "updated"
    },
    {
        "icaoId": "RCYU",
        "obsTime": 1783800000,
        "rawOb": "METAR RCYU 112000Z 25001KT 9999 FEW012 BKN060 28/26 Q0995 RMK A2940",
        "visib": "6.2",
        "status": "updated"
    },
    {
        "icaoId": "RCQC",
        "obsTime": 1783800000,
        "rawOb": "METAR RCQC 112000Z 21009G19KT 9000 SCT005 BKN010 BKN025 29/28 Q0996 RMK A2944 RA AMT T AWOS R20 N/A",
        "visib": "5.59",
        "status": "updated"
    }
]