[
    {
        "icaoId": "RCTP",
        "obsTime": 1784239200,
        "rawOb": "METAR RCTP 162200Z 23012KT 210V280 9999 FEW015 28/24 Q1007 NOSIG RMK A2975(S)",
        "visib": "6.2",
        "status": "updated"
    },
    {
        "icaoId": "RCSS",
        "obsTime": 1784239200,
        "rawOb": "METAR RCSS 162200Z 16003KT 9999 FEW020 28/26 Q1007 NOSIG RMK A2974(B)",
        "visib": "6.2",
        "status": "updated"
    },
    {
        "icaoId": "RCKH",
        "obsTime": 1784239200,
        "rawOb": "METAR RCKH 162200Z 07004KT 9999 FEW010 SCT025 27/25 Q1008 NOSIG RMK A2979(D)",
        "visib": "6.2",
        "status": "updated"
    },
    {
        "icaoId": "RCMQ",
        "obsTime": 1784239200,
        "rawOb": "METAR RCMQ 162200Z 18008KT 9999 FEW012 SCT100 26/24 Q1009 NOSIG RMK A2982",
        "visib": "6.2",
        "status": "updated"
    },
    {
        "icaoId": "RCBS",
        "obsTime": 1784239200,
        "rawOb": "METAR RCBS 162200Z 23007KT 9999 FEW012 SCT070 27/27 Q1007 NOSIG RMK A2974(M)",
        "visib": "6.2",
        "status": "updated"
    },
    {
        "icaoId": "RCNN",
        "obsTime": 1784239200,
        "rawOb": "METAR RCNN 162200Z 11005KT 9999 FEW012 SCT060 26/23 Q1008 NOSIG RMK A2978",
        "visib": "6.2",
        "status": "updated"
    },
    {
        "icaoId": "RCYU",
        "obsTime": 1784239200,
        "rawOb": "METAR RCYU 162200Z 24001KT 9999 FEW012 BKN050 28/25 Q1007 NOSIG RMK A2974",
        "visib": "6.2",
        "status": "updated"
    },
    {
        "icaoId": "RCQC",
        "obsTime": 1784239200,
        "rawOb": "METAR RCQC 162200Z 20003KT 9999 FEW012 SCT060 BKN200 27/27 Q1007 NOSIG RMK A2976 AWOS R20 N/A",
        "visib": "6.2",
        "status": "updated"
    }
]