[
    {
        "icaoId": "RCTP",
        "obsTime": 1778893200,
        "rawOb": "METAR RCTP 160100Z 10023G38KT 9999 FEW015 SCT200 28/19 Q1012 WS ALL RWY NOSIG RMK A2991",
        "visib": "6",
        "status": "updated"
    },
    {
        "icaoId": "RCSS",
        "obsTime": 1778893200,
        "rawOb": "METAR RCSS 160100Z 10016KT 9999 FEW022 SCT038 28/21 Q1014 NOSIG RMK A2995",
        "visib": "6",
        "status": "updated"
    },
    {
        "icaoId": "RCKH",
        "obsTime": 1778893200,
        "rawOb": "METAR RCKH 160100Z 17003KT 130V240 9999 FEW015 SCT130 BKN200 30/22 Q1010 NOSIG RMK A2984",
        "visib": "6",
        "status": "updated"
    },
    {
        "icaoId": "RCMQ",
        "obsTime": 1778893200,
        "rawOb": "METAR RCMQ 160100Z 00000KT 9999 FEW016 BKN120 30/23 Q1012 NOSIG RMK A2989",
        "visib": "6",
        "status": "updated"
    },
    {
        "icaoId": "RCBS",
        "obsTime": 0,
        "rawOb": "",
        "visib": "",
        "status": "old_data_kept"
    },
    {
        "icaoId": "RCNN",
        "obsTime": 1778893200,
        "rawOb": "METAR RCNN 160100Z 11002KT 9999 FEW012 SCT040 BKN080 32/21 Q1011 NOSIG RMK A2987",
        "visib": "6",
        "status": "updated"
    },
    {
        "icaoId": "RCYU",
        "obsTime": 0,
        "rawOb": "",
        "visib": "",
        "status": "old_data_kept"
    },
    {
        "icaoId": "RCQC",
        "obsTime": 1778893200,
        "rawOb": "METAR RCQC 160100Z 01004KT 9999 FEW012 SCT080 BKN200 29/25 Q1011 NOSIG RMK A2985",
        "visib": "6",
        "status": "updated"
    }
]