[
    {
        "icaoId": "RCTP",
        "obsTime": 1781217000,
        "rawOb": "METAR RCTP 112230Z VRB01KT 9999 FEW012 BKN035 BKN050 24/23 Q1012 NOSIG RMK A2991",
        "visib": "6",
        "status": "updated"
    },
    {
        "icaoId": "RCSS",
        "obsTime": 1781217000,
        "rawOb": "METAR RCSS 112230Z 12007KT 9999 FEW012 BKN045 BKN060 25/23 Q1012 NOSIG RMK A2990",
        "visib": "6",
        "status": "updated"
    },
    {
        "icaoId": "RCKH",
        "obsTime": 1781217000,
        "rawOb": "METAR RCKH 112230Z 16006KT 080V200 9999 FEW010 BKN036 BKN052 29/24 Q1011 NOSIG RMK A2988",
        "visib": "6",
        "status": "updated"
    },
    {
        "icaoId": "RCMQ",
        "obsTime": 1781217480,
        "rawOb": "SPECI RCMQ 112238Z 00000KT 1600 -TSRA SCT002 BKN006 FEW010CB BKN025 25/25 Q1013 BECMG TL0000 3000 TSRA RMK A2994 TS SW MOV NE",
        "visib": "0.99",
        "status": "updated"
    },
    {
        "icaoId": "RCBS",
        "obsTime": 1779233400,
        "rawOb": "METAR RCBS 192330Z 22004KT 180V240 9999 FEW010 SCT018 BKN070 25/25 Q1009 NOSIG RMK A2980(E)",
        "visib": "6.2",
        "status": "old_data_kept"
    },
    {
        "icaoId": "RCNN",
        "obsTime": 1781217000,
        "rawOb": "METAR RCNN 112230Z 00000KT 9999 VCSH FEW010 BKN020 BKN060 27/25 Q1012 NOSIG RMK A2990 VCSH W",
        "visib": "6",
        "status": "updated"
    },
    {
        "icaoId": "RCYU",
        "obsTime": 1779233400,
        "rawOb": "METAR RCYU 192330Z 24004KT 9999 FEW012 SCT040 BKN100 26/20 Q1010 NOSIG RMK A2982",
        "visib": "6.2",
        "status": "old_data_kept"
    },
    {
        "icaoId": "RCQC",
        "obsTime": 1781217000,
        "rawOb": "METAR RCQC 112230Z 36007KT 9999 SCT005 BKN010 BKN020 26/25 Q1012 NOSIG RMK A2990",
        "visib": "6",
        "status": "updated"
    }
]