[
    {
        "icaoId": "RCTP",
        "obsTime": 1783866600,
        "rawOb": "METAR RCTP 121430Z 01004KT 9999 FEW020 SCT160 29/27 Q1004 NOSIG RMK A2966(O)",
        "visib": "6.2",
        "status": "updated"
    },
    {
        "icaoId": "RCSS",
        "obsTime": 1783866600,
        "rawOb": "METAR RCSS 121430Z 12003KT 9999 FEW025 SCT080 BKN130 29/27 Q1004 NOSIG RMK A2966(U)",
        "visib": "6.2",
        "status": "updated"
    },
    {
        "icaoId": "RCKH",
        "obsTime": 1783866600,
        "rawOb": "METAR RCKH 121430Z 14014KT 110V170 9999 VCSH FEW010 SCT018 29/26 Q1005 NOSIG RMK A2970(P)",
        "visib": "6.2",
        "status": "updated"
    },
    {
        "icaoId": "RCMQ",
        "obsTime": 1783864800,
        "rawOb": "METAR RCMQ 121400Z 19009KT 9999 FEW012 29/26 Q1006 NOSIG RMK A2970",
        "visib": "6.2",
        "status": "updated"
    },
    {
        "icaoId": "RCBS",
        "obsTime": 1783861200,
        "rawOb": "METAR RCBS 121300Z 19015KT 7000 FEW009 BKN200 28/28 Q1002 NOSIG RMK 20013KT/R06 A2959(C)",
        "visib": "4.35",
        "status": "updated"
    },
    {
        "icaoId": "RCNN",
        "obsTime": 1783864800,
        "rawOb": "METAR RCNN 121400Z 14006KT 9999 FEW010 SCT080 27/24 Q1005 RMK A2969",
        "visib": "6.2",
        "status": "updated"
    },
    {
        "icaoId": "RCYU",
        "obsTime": 1783864800,
        "rawOb": "METAR RCYU 121400Z 21008KT 9999 FEW012 SCT060 29/28 Q1006 RMK A2972",
        "visib": "6.2",
        "status": "updated"
    },
    {
        "icaoId": "RCQC",
        "obsTime": 1783864800,
        "rawOb": "METAR RCQC 121400Z 16008KT 9999 FEW012 SCT100 29/28 Q1004 RMK A2967 VIS N 9999M RVR N/A AWOS R20 N/A",
        "visib": "6.2",
        "status": "updated"
    }
]