[
    {
        "icaoId": "RCTP",
        "obsTime": 1783904400,
        "rawOb": "METAR RCTP 130100Z 28007KT 9999 FEW010 BKN016 BKN022 31/27 Q1006 NOSIG RMK A2972(R)",
        "visib": "6.2",
        "status": "updated"
    },
    {
        "icaoId": "RCSS",
        "obsTime": 1783904400,
        "rawOb": "METAR RCSS 130100Z VRB05KT 9999 FEW018 SCT025 BKN250 33/28 Q1005 NOSIG RMK A2970(J)",
        "visib": "6.2",
        "status": "updated"
    },
    {
        "icaoId": "RCKH",
        "obsTime": 1783904400,
        "rawOb": "METAR RCKH 130100Z 17012G22KT 140V200 9999 FEW012 BKN200 31/25 Q1005 NOSIG RMK A2970(G)",
        "visib": "6.2",
        "status": "updated"
    },
    {
        "icaoId": "RCMQ",
        "obsTime": 1783904400,
        "rawOb": "METAR RCMQ 130100Z 23008KT 9999 FEW010 BKN200 32/26 Q1007 NOSIG RMK A2975",
        "visib": "6.2",
        "status": "updated"
    },
    {
        "icaoId": "RCBS",
        "obsTime": 1783904400,
        "rawOb": "METAR RCBS 130100Z 19006KT 9000 FEW010 SCT015 BKN055 29/29 Q1005 NOSIG RMK A2969(P)",
        "visib": "5.59",
        "status": "updated"
    },
    {
        "icaoId": "RCNN",
        "obsTime": 1783904400,
        "rawOb": "METAR RCNN 130100Z 20013KT 9999 FEW010 SCT080 BKN200 31/25 Q1006 NOSIG RMK A2972",
        "visib": "6.2",
        "status": "updated"
    },
    {
        "icaoId": "RCYU",
        "obsTime": 1783904400,
        "rawOb": "METAR RCYU 130100Z 17006KT 9999 FEW025 SCT080 BKN150 31/25 Q1007 NOSIG RMK A2976",
        "visib": "6.2",
        "status": "updated"
    },
    {
        "icaoId": "RCQC",
        "obsTime": 1783904400,
        "rawOb": "METAR RCQC 130100Z 16008KT 9999 FEW012 SCT025 BKN120 30/28 Q1005 NOSIG RMK A2970 AWOS R20 N/A",
        "visib": "6.2",
        "status": "updated"
    }
]