[
    {
        "icaoId": "RCTP",
        "obsTime": 1784136600,
        "rawOb": "METAR RCTP 151730Z 15004KT 140V200 9999 FEW015 BKN028 BKN100 29/25 Q1009 NOSIG RMK A2981(F)",
        "visib": "6.2",
        "status": "updated"
    },
    {
        "icaoId": "RCSS",
        "obsTime": 1784134800,
        "rawOb": "METAR RCSS 151700Z VRB02KT 9999 FEW016 SCT050 BKN090 27/27 Q1009 NOSIG RMK A2981(Z)",
        "visib": "6.2",
        "status": "updated"
    },
    {
        "icaoId": "RCKH",
        "obsTime": 1784134800,
        "rawOb": "METAR RCKH 151700Z 07004KT 9999 FEW014 SCT030 27/24 Q1010 NOSIG RMK A2984(U)",
        "visib": "6.2",
        "status": "updated"
    },
    {
        "icaoId": "RCMQ",
        "obsTime": 1784134800,
        "rawOb": "METAR RCMQ 151700Z 20008KT 9999 FEW010 SCT100 28/24 Q1011 RMK A2987",
        "visib": "6.2",
        "status": "updated"
    },
    {
        "icaoId": "RCBS",
        "obsTime": 1784124000,
        "rawOb": "METAR RCBS 151400Z 21008KT 9999 FEW023 SCT200 27/27 Q1009 NOSIG RMK 21005KT/R06 A2980(X)",
        "visib": "6.2",
        "status": "updated"
    },
    {
        "icaoId": "RCNN",
        "obsTime": 1784134800,
        "rawOb": "METAR RCNN 151700Z 14004KT 9999 FEW012 SCT060 26/23 Q1010 RMK A2984",
        "visib": "6.2",
        "status": "updated"
    },
    {
        "icaoId": "RCYU",
        "obsTime": 1784134800,
        "rawOb": "METAR RCYU 151700Z 01007KT 9999 FEW012 28/27 Q1009 RMK A2979",
        "visib": "6.2",
        "status": "updated"
    },
    {
        "icaoId": "RCQC",
        "obsTime": 1784134800,
        "rawOb": "METAR RCQC 151700Z 16005KT 9999 FEW010 SCT030 28/27 Q1009 RMK A2981 AWOS R20 N/A",
        "visib": "6.2",
        "status": "updated"
    }
]