[
    {
        "icaoId": "RCTP",
        "obsTime": 1783726200,
        "rawOb": "METAR RCTP 102330Z 35018G35KT 320V020 2000 SHRA SCT008 BKN012 BKN025 26/25 Q0989 WS ALL RWY NOSIG RMK A2921(A)",
        "visib": "1.24",
        "status": "updated"
    },
    {
        "icaoId": "RCSS",
        "obsTime": 1783726200,
        "rawOb": "METAR RCSS 102330Z 34008KT 1800 SHRA SCT005 BKN016 BKN025 26/26 Q0986 NOSIG RMK A2914(M)",
        "visib": "1.12",
        "status": "updated"
    },
    {
        "icaoId": "RCKH",
        "obsTime": 1783726200,
        "rawOb": "METAR RCKH 102330Z 30026G42KT 3000 -SHRA SCT007 BKN015 OVC030 27/24 Q0992 RESHRA TEMPO 1500 SHRA RMK A2931(X)",
        "visib": "1.86",
        "status": "updated"
    },
    {
        "icaoId": "RCMQ",
        "obsTime": 1783726200,
        "rawOb": "METAR RCMQ 102330Z 35026G36KT 1600 0800S R36/0800U +RA BR SCT004 BKN006 OVC016 26/26 Q0991 NOSIG RMK A2928 APCH CLD SCT004 (RS)",
        "visib": "0.99",
        "status": "updated"
    },
    {
        "icaoId": "RCBS",
        "obsTime": 1783726200,
        "rawOb": "METAR RCBS 102330Z 28005KT 9999 FEW030 BKN100 30/27 Q0996 NOSIG RMK A2942(T)",
        "visib": "6.2",
        "status": "updated"
    },
    {
        "icaoId": "RCNN",
        "obsTime": 1783726200,
        "rawOb": "METAR RCNN 102330Z 33019G35KT 3200 1600S -RA BR SCT006 BKN015 BKN040 25/23 Q0993 RMK A2933",
        "visib": "1.99",
        "status": "updated"
    },
    {
        "icaoId": "RCYU",
        "obsTime": 1783726200,
        "rawOb": "METAR RCYU 102330Z 03006KT 9000 VCSH FEW010 BKN050 27/25 Q0985 NOSIG RMK A2909 VCSH N-NE",
        "visib": "5.59",
        "status": "updated"
    },
    {
        "icaoId": "RCQC",
        "obsTime": 1783726200,
        "rawOb": "METAR RCQC 102330Z 31019G30KT 8000 -RA FEW008 BKN014 BKN040 28/26 Q0994 NOSIG RMK A2938",
        "visib": "4.97",
        "status": "updated"
    }
]