[
    {
        "icaoId": "RCTP",
        "obsTime": 1784509200,
        "rawOb": "METAR RCTP 200100Z 22013KT 9999 FEW020 33/25 Q1007 NOSIG RMK A2976(F)",
        "visib": "6.2",
        "status": "updated"
    },
    {
        "icaoId": "RCSS",
        "obsTime": 1784509560,
        "rawOb": "SPECI RCSS 200106Z 29008KT 260V320 9999 FEW020 SCT080 32/25 Q1008 NOSIG RMK 29008KT/R10 A2977(U)",
        "visib": "6.2",
        "status": "updated"
    },
    {
        "icaoId": "RCKH",
        "obsTime": 1784509200,
        "rawOb": "METAR RCKH 200100Z 04006KT 360V070 9999 FEW014 SCT026 BKN070 28/24 Q1009 NOSIG RMK A2981(U)",
        "visib": "6.2",
        "status": "updated"
    },
    {
        "icaoId": "RCMQ",
        "obsTime": 1784509200,
        "rawOb": "METAR RCMQ 200100Z 20009KT 9999 FEW012 SCT032 BKN060 30/24 Q1010 NOSIG RMK A2984",
        "visib": "6.2",
        "status": "updated"
    },
    {
        "icaoId": "RCBS",
        "obsTime": 1784509200,
        "rawOb": "METAR RCBS 200100Z 21007KT 9999 FEW015 BKN100 29/27 Q1007 NOSIG RMK A2976(D)",
        "visib": "6.2",
        "status": "updated"
    },
    {
        "icaoId": "RCNN",
        "obsTime": 1784509200,
        "rawOb": "METAR RCNN 200100Z 10002KT 7000 -RA SCT008 FEW010CB BKN020 BKN040 25/23 Q1009 NOSIG RMK A2982 RA AMT 1.8MM CB W MOV N",
        "visib": "4.35",
        "status": "updated"
    },
    {
        "icaoId": "RCYU",
        "obsTime": 1784509200,
        "rawOb": "METAR RCYU 200100Z 09003KT 9999 FEW030 33/23 Q1008 NOSIG RMK A2977",
        "visib": "6.2",
        "status": "updated"
    },
    {
        "icaoId": "RCQC",
        "obsTime": 1784509500,
        "rawOb": "SPECI RCQC 200105Z 10007KT 9999 -RA FEW008 BKN016 BKN060 26/25 Q1009 NOSIG RMK A2981 AWOS R20 N/A",
        "visib": "6.2",
        "status": "updated"
    }
]