[
    {
        "icaoId": "RCTP",
        "obsTime": 1783830600,
        "rawOb": "METAR RCTP 120430Z 12003KT 100V180 9999 FEW020 BKN160 34/27 Q1000 NOSIG RMK A2955(T)",
        "visib": "6.2",
        "status": "updated"
    },
    {
        "icaoId": "RCSS",
        "obsTime": 1783830600,
        "rawOb": "METAR RCSS 120430Z 09004KT 050V130 9999 FEW025 SCT060 BKN150 32/28 Q1000 NOSIG RMK A2955(A)",
        "visib": "6.2",
        "status": "updated"
    },
    {
        "icaoId": "RCKH",
        "obsTime": 1783830600,
        "rawOb": "METAR RCKH 120430Z 06007KT 040V100 9000 -SHRA SCT010TCU SCT014 SCT026 BKN038 30/26 Q1003 TEMPO 5000 SHRA RMK TCU S A2962(L)",
        "visib": "5.59",
        "status": "updated"
    },
    {
        "icaoId": "RCMQ",
        "obsTime": 1783830600,
        "rawOb": "METAR RCMQ 120430Z 20018G28KT 9999 FEW014 SCT035 BKN120 35/26 Q1003 NOSIG RMK A2962",
        "visib": "6.2",
        "status": "updated"
    },
    {
        "icaoId": "RCBS",
        "obsTime": 1783830600,
        "rawOb": "METAR RCBS 120430Z 22018KT 9999 FEW015 BKN200 31/30 Q0999 NOSIG RMK 22017KT/R06 A2950(L)",
        "visib": "6.2",
        "status": "updated"
    },
    {
        "icaoId": "RCNN",
        "obsTime": 1783830600,
        "rawOb": "METAR RCNN 120430Z 14010KT 9999 VCSH FEW010 FEW012TCU BKN020 BKN060 29/24 Q1003 NOSIG RMK A2963 VCSH SE TCU SE MOV NE",
        "visib": "6.2",
        "status": "updated"
    },
    {
        "icaoId": "RCYU",
        "obsTime": 1783830600,
        "rawOb": "METAR RCYU 120430Z 16012KT 9999 VCSH FEW012 SCT030 BKN060 32/27 Q1002 NOSIG RMK A2959 VCSH SW",
        "visib": "6.2",
        "status": "updated"
    },
    {
        "icaoId": "RCQC",
        "obsTime": 1783830600,
        "rawOb": "METAR RCQC 120430Z 16010KT 9999 FEW010 SCT020 BKN200 32/29 Q1001 NOSIG RMK A2958 RVR N/A AWOS R20 N/A",
        "visib": "6.2",
        "status": "updated"
    }
]