[
    {
        "icaoId": "RCTP",
        "obsTime": 1784763000,
        "rawOb": "METAR RCTP 222330Z 23006KT 9999 FEW015 SCT022 BKN030 30/26 Q1008 NOSIG RMK A2979(D)",
        "visib": "6.2",
        "status": "updated"
    },
    {
        "icaoId": "RCSS",
        "obsTime": 1784763000,
        "rawOb": "METAR RCSS 222330Z VRB01KT 9999 FEW018 SCT028 32/27 Q1008 NOSIG RMK A2979(N)",
        "visib": "6.2",
        "status": "updated"
    },
    {
        "icaoId": "RCKH",
        "obsTime": 1784763000,
        "rawOb": "METAR RCKH 222330Z VRB01KT 9999 SCT014 SCT020 BKN200 30/26 Q1008 NOSIG RMK A2979(B)",
        "visib": "6.2",
        "status": "updated"
    },
    {
        "icaoId": "RCMQ",
        "obsTime": 1784763780,
        "rawOb": "SPECI RCMQ 222343Z 19004KT 9999 FEW010 30/26 Q1010 BECMG 18008KT RMK A2983",
        "visib": "6",
        "status": "updated"
    },
    {
        "icaoId": "RCBS",
        "obsTime": 1784763000,
        "rawOb": "METAR RCBS 222330Z 21006KT 7000 SCT004 SCT035 28/28 Q1008 NOSIG RMK A2978(H)",
        "visib": "4.35",
        "status": "updated"
    },
    {
        "icaoId": "RCNN",
        "obsTime": 1784763000,
        "rawOb": "METAR RCNN 222330Z 00000KT 9999 FEW014 29/26 Q1008 NOSIG RMK A2979",
        "visib": "6.2",
        "status": "updated"
    },
    {
        "icaoId": "RCYU",
        "obsTime": 1784763000,
        "rawOb": "METAR RCYU 222330Z 25004KT 9999 FEW012 30/24 Q1009 NOSIG RMK A2980",
        "visib": "6.2",
        "status": "updated"
    },
    {
        "icaoId": "RCQC",
        "obsTime": 1784763000,
        "rawOb": "METAR RCQC 222330Z 22005KT 9999 FEW012 29/28 Q1008 NOSIG RMK A2979 AWOS R20 N/A",
        "visib": "6.2",
        "status": "updated"
    }
]