[
    {
        "icaoId": "RCTP",
        "obsTime": 1779728400,
        "rawOb": "METAR RCTP 251700Z 22012KT 9999 FEW020 27/23 Q1005 NOSIG RMK A2968",
        "visib": "6",
        "status": "updated"
    },
    {
        "icaoId": "RCSS",
        "obsTime": 1779728400,
        "rawOb": "METAR RCSS 251700Z 29004KT 9999 FEW025 BKN130 29/24 Q1004 NOSIG RMK A2967",
        "visib": "6",
        "status": "updated"
    },
    {
        "icaoId": "RCKH",
        "obsTime": 1779728400,
        "rawOb": "METAR RCKH 251700Z 29003KT 9999 FEW015 SCT030 28/25 Q1007 NOSIG RMK A2975",
        "visib": "6",
        "status": "updated"
    },
    {
        "icaoId": "RCMQ",
        "obsTime": 1779728400,
        "rawOb": "METAR RCMQ 251700Z 18009KT 9999 FEW012 27/24 Q1008 RMK A2977",
        "visib": "6",
        "status": "updated"
    },
    {
        "icaoId": "RCBS",
        "obsTime": 1779233400,
        "rawOb": "METAR RCBS 192330Z 22004KT 180V240 9999 FEW010 SCT018 BKN070 25/25 Q1009 NOSIG RMK A2980(E)",
        "visib": "6.2",
        "status": "old_data_kept"
    },
    {
        "icaoId": "RCNN",
        "obsTime": 1779728400,
        "rawOb": "METAR RCNN 251700Z 00000KT 9999 FEW012 26/24 Q1008 RMK A2977",
        "visib": "6",
        "status": "updated"
    },
    {
        "icaoId": "RCYU",
        "obsTime": 1779233400,
        "rawOb": "METAR RCYU 192330Z 24004KT 9999 FEW012 SCT040 BKN100 26/20 Q1010 NOSIG RMK A2982",
        "visib": "6.2",
        "status": "old_data_kept"
    },
    {
        "icaoId": "RCQC",
        "obsTime": 1779728400,
        "rawOb": "METAR RCQC 251700Z 21006KT 9999 FEW012 27/27 Q1007 RMK A2974",
        "visib": "6",
        "status": "updated"
    }
]