[
    {
        "icaoId": "RCTP",
        "obsTime": 1784232000,
        "rawOb": "METAR RCTP 162000Z 22007KT 9999 FEW015 26/24 Q1006 NOSIG RMK A2972(O)",
        "visib": "6.2",
        "status": "updated"
    },
    {
        "icaoId": "RCSS",
        "obsTime": 1784232000,
        "rawOb": "METAR RCSS 162000Z 30002KT 9999 FEW028 27/25 Q1006 NOSIG RMK A2972(Z)",
        "visib": "6.2",
        "status": "updated"
    },
    {
        "icaoId": "RCKH",
        "obsTime": 1784232000,
        "rawOb": "METAR RCKH 162000Z 07006KT 9999 FEW012 SCT040 27/25 Q1008 NOSIG RMK A2979(B)",
        "visib": "6.2",
        "status": "updated"
    },
    {
        "icaoId": "RCMQ",
        "obsTime": 1784232000,
        "rawOb": "METAR RCMQ 162000Z 19010KT 9999 FEW010 26/24 Q1009 RMK A2980",
        "visib": "6.2",
        "status": "updated"
    },
    {
        "icaoId": "RCBS",
        "obsTime": 1784206800,
        "rawOb": "METAR RCBS 161300Z 21014KT 9999 FEW012 28/28 Q1007 NOSIG RMK 21011KT/R06 A2976(J)",
        "visib": "6.2",
        "status": "updated"
    },
    {
        "icaoId": "RCNN",
        "obsTime": 1784232000,
        "rawOb": "METAR RCNN 162000Z 15003KT 9999 FEW012 SCT080 26/24 Q1008 RMK A2978",
        "visib": "6.2",
        "status": "updated"
    },
    {
        "icaoId": "RCYU",
        "obsTime": 1784232000,
        "rawOb": "METAR RCYU 162000Z 24003KT 9999 FEW012 SCT060 27/25 Q1006 RMK A2972",
        "visib": "6.2",
        "status": "updated"
    },
    {
        "icaoId": "RCQC",
        "obsTime": 1784232000,
        "rawOb": "METAR RCQC 162000Z 21004KT 9999 FEW012 SCT200 28/27 Q1007 RMK A2975 AWOS R20 N/A",
        "visib": "6.2",
        "status": "updated"
    }
]