[
    {
        "icaoId": "RCTP",
        "obsTime": 1783890000,
        "rawOb": "METAR RCTP 122100Z VRB02KT 9999 FEW010 BKN020 BKN032 28/27 Q1005 NOSIG RMK A2968(B)",
        "visib": "6.2",
        "status": "updated"
    },
    {
        "icaoId": "RCSS",
        "obsTime": 1783890000,
        "rawOb": "METAR RCSS 122100Z VRB02KT 9999 FEW018 BKN050 28/27 Q1005 NOSIG RMK A2968(C)",
        "visib": "6.2",
        "status": "updated"
    },
    {
        "icaoId": "RCKH",
        "obsTime": 1783890000,
        "rawOb": "METAR RCKH 122100Z 14013KT 110V170 9999 FEW012 SCT026 29/25 Q1005 NOSIG RMK A2968(Z)",
        "visib": "6.2",
        "status": "updated"
    },
    {
        "icaoId": "RCMQ",
        "obsTime": 1783890000,
        "rawOb": "METAR RCMQ 122100Z 21006KT 9999 FEW012 BKN200 27/25 Q1006 NOSIG RMK A2972",
        "visib": "6.2",
        "status": "updated"
    },
    {
        "icaoId": "RCBS",
        "obsTime": 1783861200,
        "rawOb": "METAR RCBS 121300Z 19015KT 7000 FEW009 BKN200 28/28 Q1002 NOSIG RMK 20013KT/R06 A2959(C)",
        "visib": "4.35",
        "status": "updated"
    },
    {
        "icaoId": "RCNN",
        "obsTime": 1783890000,
        "rawOb": "METAR RCNN 122100Z 18005KT 9999 FEW010 27/24 Q1005 NOSIG RMK A2968",
        "visib": "6.2",
        "status": "updated"
    },
    {
        "icaoId": "RCYU",
        "obsTime": 1783890000,
        "rawOb": "METAR RCYU 122100Z 00000KT 9999 FEW012 SCT100 27/26 Q1006 NOSIG RMK A2971",
        "visib": "6.2",
        "status": "updated"
    },
    {
        "icaoId": "RCQC",
        "obsTime": 1783890000,
        "rawOb": "METAR RCQC 122100Z 17011G22KT 7000 -RA FEW008 BKN016 BKN040 27/26 Q1004 NOSIG RMK A2967 RA AMT 0.1MM VIS N 7000M RVR N/A AWOS R20 N/A",
        "visib": "4.35",
        "status": "updated"
    }
]