[
    {
        "icaoId": "RCTP",
        "obsTime": 1784192400,
        "rawOb": "METAR RCTP 160900Z 25017KT 9999 FEW020 SCT100 32/26 Q1006 NOSIG RMK A2972(S)",
        "visib": "6.2",
        "status": "updated"
    },
    {
        "icaoId": "RCSS",
        "obsTime": 1784192520,
        "rawOb": "SPECI RCSS 160902Z 31006KT 280V360 9999 FEW018 BKN040 BKN060 33/27 Q1006 NOSIG RMK A2971(E)",
        "visib": "6.2",
        "status": "updated"
    },
    {
        "icaoId": "RCKH",
        "obsTime": 1784193300,
        "rawOb": "SPECI RCKH 160915Z 27008KT 230V310 9000 3000S -SHRA FEW009TCU SCT014 SCT022 BKN036 28/25 Q1009 TEMPO 5000 SHRA RMK TCU S A2980(F)",
        "visib": "5.59",
        "status": "updated"
    },
    {
        "icaoId": "RCMQ",
        "obsTime": 1784192400,
        "rawOb": "METAR RCMQ 160900Z 25011KT 9999 FEW014 SCT080 BKN200 30/25 Q1009 NOSIG RMK A2980",
        "visib": "6.2",
        "status": "updated"
    },
    {
        "icaoId": "RCBS",
        "obsTime": 1784192400,
        "rawOb": "METAR RCBS 160900Z 20015KT 9999 FEW015 SCT120 29/28 Q1006 NOSIG RMK 20011KT/R06 A2971(B)",
        "visib": "6.2",
        "status": "updated"
    },
    {
        "icaoId": "RCNN",
        "obsTime": 1784192580,
        "rawOb": "SPECI RCNN 160903Z COR 23009KT 8000 -SHRA FEW012 FEW014TCU SCT025 BKN050 27/24 Q1009 BECMG 5000 -RA BR RMK A2981 TCU NW MOV NE",
        "visib": "4.97",
        "status": "updated"
    },
    {
        "icaoId": "RCYU",
        "obsTime": 1784185200,
        "rawOb": "METAR RCYU 160700Z 08005KT 9999 VCSH FEW010 FEW014TCU BKN028 BKN050 31/26 Q1007 NOSIG RMK A2975 VCSH NW TCU NW STNR",
        "visib": "6.2",
        "status": "old_data_kept"
    },
    {
        "icaoId": "RCQC",
        "obsTime": 1784192400,
        "rawOb": "METAR RCQC 160900Z 18011KT 9999 FEW012 SCT025 BKN120 29/26 Q1007 NOSIG RMK A2977 AWOS R20 N/A",
        "visib": "6.2",
        "status": "updated"
    }
]