[
    {
        "icaoId": "RCTP",
        "obsTime": 1784442600,
        "rawOb": "METAR RCTP 190630Z 24011KT 9999 FEW020 SCT220 34/25 Q1004 NOSIG RMK A2966(S)",
        "visib": "6.2",
        "status": "updated"
    },
    {
        "icaoId": "RCSS",
        "obsTime": 1784442600,
        "rawOb": "METAR RCSS 190630Z 10006KT 070V130 9999 FEW020 SCT040 34/27 Q1004 NOSIG RMK A2966(V)",
        "visib": "6.2",
        "status": "updated"
    },
    {
        "icaoId": "RCKH",
        "obsTime": 1784442600,
        "rawOb": "METAR RCKH 190630Z 23007KT 210V270 9999 FEW013 SCT038 BKN080 29/25 Q1006 NOSIG RMK 22007KT/R09 A2973(E)",
        "visib": "6.2",
        "status": "updated"
    },
    {
        "icaoId": "RCMQ",
        "obsTime": 1784442300,
        "rawOb": "SPECI RCMQ 190625Z 24010KT 9999 VCSH SCT010 SCT020 BKN060 31/27 Q1006 NOSIG RMK A2973 VCSH S",
        "visib": "6.2",
        "status": "updated"
    },
    {
        "icaoId": "RCBS",
        "obsTime": 1784442600,
        "rawOb": "METAR RCBS 190630Z 20014KT 9999 SCT007 BKN160 29/29 Q1004 NOSIG RMK 20011KT/R06 A2965(C)",
        "visib": "6.2",
        "status": "updated"
    },
    {
        "icaoId": "RCNN",
        "obsTime": 1784440800,
        "rawOb": "METAR RCNN 190600Z 20002KT 9999 VCSH FEW010 SCT030 BKN080 28/24 Q1007 NOSIG RMK A2974 RA AMT T VCSH SW",
        "visib": "6.2",
        "status": "updated"
    },
    {
        "icaoId": "RCYU",
        "obsTime": 1784440800,
        "rawOb": "METAR RCYU 190600Z 05005KT 9999 FEW012 SCT035 BKN080 33/24 Q1006 NOSIG RMK A2970",
        "visib": "6.2",
        "status": "updated"
    },
    {
        "icaoId": "RCQC",
        "obsTime": 1784440800,
        "rawOb": "METAR RCQC 190600Z 15007KT 9999 VCSH FEW010 SCT020 BKN100 29/27 Q1006 NOSIG RMK A2971 VCSH SW AWOS R20 N/A",
        "visib": "6.2",
        "status": "updated"
    }
]