[
    {
        "icaoId": "RCTP",
        "obsTime": 1783798200,
        "rawOb": "METAR RCTP 111930Z 22020G30KT 9999 FEW015 SCT050 BKN100 30/23 Q0993 WS ALL RWY NOSIG RMK A2933(A)",
        "visib": "6.2",
        "status": "updated"
    },
    {
        "icaoId": "RCSS",
        "obsTime": 1783796400,
        "rawOb": "METAR RCSS 111900Z 09007KT 9999 FEW020 BKN100 BKN130 27/25 Q0993 NOSIG RMK QFF 993.2HPA A2933(I)",
        "visib": "6.2",
        "status": "updated"
    },
    {
        "icaoId": "RCKH",
        "obsTime": 1783796400,
        "rawOb": "METAR RCKH 111900Z 19009KT 150V220 9999 FEW014 SCT030 BKN110 30/26 Q0999 NOSIG RMK QFF 999.0HPA A2950(P)",
        "visib": "6.2",
        "status": "updated"
    },
    {
        "icaoId": "RCMQ",
        "obsTime": 1783796400,
        "rawOb": "METAR RCMQ 111900Z 19020KT 9999 -RA FEW006 BKN020 BKN050 27/27 Q0997 RMK A2946 RA AMT T",
        "visib": "6.2",
        "status": "updated"
    },
    {
        "icaoId": "RCBS",
        "obsTime": 1783774800,
        "rawOb": "METAR RCBS 111300Z 23010KT 9999 -RA FEW020 SCT120 BKN200 30/29 Q0992 NOSIG RMK QFF 992.9HPA A2932(V)",
        "visib": "6.2",
        "status": "updated"
    },
    {
        "icaoId": "RCNN",
        "obsTime": 1783796400,
        "rawOb": "METAR RCNN 111900Z 19010KT 9000 FEW010 BKN020 BKN040 28/25 Q0998 RMK A2949",
        "visib": "5.59",
        "status": "updated"
    },
    {
        "icaoId": "RCYU",
        "obsTime": 1783796400,
        "rawOb": "METAR RCYU 111900Z 19004KT 9999 FEW012 SCT030 BKN080 28/26 Q0995 RMK A2939",
        "visib": "6.2",
        "status": "updated"
    },
    {
        "icaoId": "RCQC",
        "obsTime": 1783796400,
        "rawOb": "METAR RCQC 111900Z 18009KT 9000 -RA SCT005 BKN010 BKN025 28/28 Q0996 RERA RMK A2944 RA AMT 6.1MM AWOS R20 N/A",
        "visib": "5.59",
        "status": "updated"
    }
]