[
    {
        "icaoId": "RCTP",
        "obsTime": 1781141400,
        "rawOb": "METAR RCTP 110130Z 05007KT 9999 -DZ FEW015 BKN030 BKN050 23/21 Q1013 NOSIG RMK A2994",
        "visib": "6",
        "status": "updated"
    },
    {
        "icaoId": "RCSS",
        "obsTime": 1781141400,
        "rawOb": "METAR RCSS 110130Z 10004KT 5000 -RA FEW010 BKN025 BKN040 24/22 Q1013 NOSIG RMK A2993",
        "visib": "3.11",
        "status": "updated"
    },
    {
        "icaoId": "RCKH",
        "obsTime": 1781142900,
        "rawOb": "SPECI RCKH 110155Z 17011KT 140V210 9999 -SHRA FEW018 BKN022 BKN030 30/24 Q1011 NOSIG RMK A2988",
        "visib": "6",
        "status": "updated"
    },
    {
        "icaoId": "RCMQ",
        "obsTime": 1781141400,
        "rawOb": "METAR RCMQ 110130Z 01004KT 8000 -RA SCT008 BKN014 BKN040 24/23 Q1013 BECMG BKN015 RMK A2993",
        "visib": "4.97",
        "status": "updated"
    },
    {
        "icaoId": "RCBS",
        "obsTime": 1779233400,
        "rawOb": "METAR RCBS 192330Z 22004KT 180V240 9999 FEW010 SCT018 BKN070 25/25 Q1009 NOSIG RMK A2980(E)",
        "visib": "6.2",
        "status": "old_data_kept"
    },
    {
        "icaoId": "RCNN",
        "obsTime": 1781142900,
        "rawOb": "SPECI RCNN 110155Z 28007KT 1600 R18/0800 RA BR SCT006 FEW010TCU BKN012 BKN021 29/27 Q1013 NOSIG RMK A2991 TCU SW STNRY",
        "visib": "0.99",
        "status": "updated"
    },
    {
        "icaoId": "RCYU",
        "obsTime": 1779233400,
        "rawOb": "METAR RCYU 192330Z 24004KT 9999 FEW012 SCT040 BKN100 26/20 Q1010 NOSIG RMK A2982",
        "visib": "6.2",
        "status": "old_data_kept"
    },
    {
        "icaoId": "RCQC",
        "obsTime": 1781141400,
        "rawOb": "METAR RCQC 110130Z 02013KT 9999 SCT008 BKN016 BKN030 27/24 Q1012 NOSIG RMK A2991",
        "visib": "6",
        "status": "updated"
    }
]