[
    {
        "icaoId": "RCTP",
        "obsTime": 1784050200,
        "rawOb": "METAR RCTP 141730Z 17005KT 9999 FEW015 BKN030 28/25 Q1009 NOSIG RMK A2982(H)",
        "visib": "6.2",
        "status": "updated"
    },
    {
        "icaoId": "RCSS",
        "obsTime": 1784048400,
        "rawOb": "METAR RCSS 141700Z 20003KT 9999 FEW015 BKN040 28/27 Q1009 NOSIG RMK A2982(A)",
        "visib": "6.2",
        "status": "updated"
    },
    {
        "icaoId": "RCKH",
        "obsTime": 1784049480,
        "rawOb": "SPECI RCKH 141718Z 13006KT 090V200 8000 -SHRA FEW010CB BKN014 BKN025 29/26 Q1010 NOSIG RMK CB S A2983(Q)",
        "visib": "4.97",
        "status": "updated"
    },
    {
        "icaoId": "RCMQ",
        "obsTime": 1784048400,
        "rawOb": "METAR RCMQ 141700Z 18005KT 9999 FEW010 SCT050 27/25 Q1011 RMK A2987",
        "visib": "6.2",
        "status": "updated"
    },
    {
        "icaoId": "RCBS",
        "obsTime": 1784034000,
        "rawOb": "METAR RCBS 141300Z 19011KT 9999 FEW008 SCT013 BKN045 28/28 Q1008 BECMG 5000 SHRA RMK 19010KT/R06 A2978(I)",
        "visib": "6.2",
        "status": "updated"
    },
    {
        "icaoId": "RCNN",
        "obsTime": 1784048400,
        "rawOb": "METAR RCNN 141700Z 14006KT 9000 -RA FEW012 BKN030 27/25 Q1010 RMK A2984 RA AMT T",
        "visib": "5.59",
        "status": "updated"
    },
    {
        "icaoId": "RCYU",
        "obsTime": 1784048400,
        "rawOb": "METAR RCYU 141700Z 00000KT 9999 FEW012 28/26 Q1010 RMK A2983",
        "visib": "6.2",
        "status": "updated"
    },
    {
        "icaoId": "RCQC",
        "obsTime": 1784048400,
        "rawOb": "METAR RCQC 141700Z 16006KT 9999 FEW010 SCT020 BKN060 28/27 Q1009 RMK A2982 AWOS R20 N/A",
        "visib": "6.2",
        "status": "updated"
    }
]