[
    {
        "icaoId": "RCTP",
        "obsTime": 1784746800,
        "rawOb": "METAR RCTP 221900Z 16004KT 9999 FEW020 28/25 Q1007 NOSIG RMK A2976(U)",
        "visib": "6.2",
        "status": "updated"
    },
    {
        "icaoId": "RCSS",
        "obsTime": 1784746800,
        "rawOb": "METAR RCSS 221900Z 20003KT 170V230 9999 FEW020 27/26 Q1007 NOSIG RMK A2976(H)",
        "visib": "6.2",
        "status": "updated"
    },
    {
        "icaoId": "RCKH",
        "obsTime": 1784746800,
        "rawOb": "METAR RCKH 221900Z 21004KT 9999 FEW014 SCT060 29/25 Q1008 NOSIG RMK A2977(V)",
        "visib": "6.2",
        "status": "updated"
    },
    {
        "icaoId": "RCMQ",
        "obsTime": 1784746800,
        "rawOb": "METAR RCMQ 221900Z 21002KT 9999 FEW010 SCT200 27/25 Q1009 RMK A2981",
        "visib": "6.2",
        "status": "updated"
    },
    {
        "icaoId": "RCBS",
        "obsTime": 1784725200,
        "rawOb": "METAR RCBS 221300Z 21011KT 9999 FEW008 28/28 Q1008 NOSIG RMK 22008KT/R06 A2977(B)",
        "visib": "6.2",
        "status": "updated"
    },
    {
        "icaoId": "RCNN",
        "obsTime": 1784746800,
        "rawOb": "METAR RCNN 221900Z 10002KT 9999 FEW012 26/24 Q1008 RMK A2978",
        "visib": "6.2",
        "status": "updated"
    },
    {
        "icaoId": "RCYU",
        "obsTime": 1784746800,
        "rawOb": "METAR RCYU 221900Z 23003KT 9999 FEW012 27/25 Q1008 RMK A2978",
        "visib": "6.2",
        "status": "updated"
    },
    {
        "icaoId": "RCQC",
        "obsTime": 1784746800,
        "rawOb": "METAR RCQC 221900Z 19002KT 9999 FEW012 27/27 Q1007 RMK A2976 AWOS R20 N/A",
        "visib": "6.2",
        "status": "updated"
    }
]