[
    {
        "icaoId": "RCTP",
        "obsTime": 1782797400,
        "rawOb": "METAR RCTP 300530Z 33008KT 300V020 9999 FEW015 BKN200 32/26 Q1010 NOSIG RMK A2983",
        "visib": "6",
        "status": "updated"
    },
    {
        "icaoId": "RCSS",
        "obsTime": 1782797400,
        "rawOb": "METAR RCSS 300530Z 28010KT 9999 FEW020 SCT220 34/27 Q1009 NOSIG RMK 29011KT/R10 A2980",
        "visib": "6",
        "status": "updated"
    },
    {
        "icaoId": "RCKH",
        "obsTime": 1782797400,
        "rawOb": "METAR RCKH 300530Z 26008KT 230V310 9999 FEW018 SCT150 BKN200 34/25 Q1009 NOSIG RMK 25009KT/R09 A2980",
        "visib": "6",
        "status": "updated"
    },
    {
        "icaoId": "RCMQ",
        "obsTime": 1782797400,
        "rawOb": "METAR RCMQ 300530Z 31007KT 9999 FEW010 BKN200 33/25 Q1011 NOSIG RMK A2986",
        "visib": "6",
        "status": "updated"
    },
    {
        "icaoId": "RCBS",
        "obsTime": 1779233400,
        "rawOb": "METAR RCBS 192330Z 22004KT 180V240 9999 FEW010 SCT018 BKN070 25/25 Q1009 NOSIG RMK A2980(E)",
        "visib": "6.2",
        "status": "old_data_kept"
    },
    {
        "icaoId": "RCNN",
        "obsTime": 1782797400,
        "rawOb": "METAR RCNN 300530Z 32008KT 9999 FEW012 SCT025 BKN200 32/25 Q1010 NOSIG RMK A2983",
        "visib": "6",
        "status": "updated"
    },
    {
        "icaoId": "RCYU",
        "obsTime": 1779233400,
        "rawOb": "METAR RCYU 192330Z 24004KT 9999 FEW012 SCT040 BKN100 26/20 Q1010 NOSIG RMK A2982",
        "visib": "6.2",
        "status": "old_data_kept"
    },
    {
        "icaoId": "RCQC",
        "obsTime": 1782797400,
        "rawOb": "METAR RCQC 300530Z 22008KT 9999 FEW010 SCT020 BKN040 32/28 Q1009 NOSIG RMK A2981",
        "visib": "6",
        "status": "updated"
    }
]