[
    {
        "icaoId": "RCTP",
        "obsTime": 1783450800,
        "rawOb": "METAR RCTP 071900Z 20008KT 9999 FEW020 28/24 Q1008 NOSIG RMK A2978(Y)",
        "visib": "6.2",
        "status": "updated"
    },
    {
        "icaoId": "RCSS",
        "obsTime": 1783450800,
        "rawOb": "METAR RCSS 071900Z VRB02KT 9999 FEW020 SCT060 28/26 Q1008 NOSIG RMK A2978(Y)",
        "visib": "6.2",
        "status": "updated"
    },
    {
        "icaoId": "RCKH",
        "obsTime": 1783450800,
        "rawOb": "METAR RCKH 071900Z 06002KT 9999 FEW020 SCT040 29/24 Q1008 NOSIG RMK A2978(E)",
        "visib": "6.2",
        "status": "updated"
    },
    {
        "icaoId": "RCMQ",
        "obsTime": 1783450800,
        "rawOb": "METAR RCMQ 071900Z 20001KT 9999 FEW012 26/25 Q1010 RMK A2984",
        "visib": "6.2",
        "status": "updated"
    },
    {
        "icaoId": "RCBS",
        "obsTime": 1783429200,
        "rawOb": "METAR RCBS 071300Z 21015KT 9999 FEW020 SCT240 29/28 Q1007 NOSIG RMK 22008KT/R06 A2976(K)",
        "visib": "6.2",
        "status": "updated"
    },
    {
        "icaoId": "RCNN",
        "obsTime": 1783450800,
        "rawOb": "METAR RCNN 071900Z 00000KT 9999 FEW012 27/25 Q1009 RMK A2981",
        "visib": "6.2",
        "status": "updated"
    },
    {
        "icaoId": "RCYU",
        "obsTime": 1783450800,
        "rawOb": "METAR RCYU 071900Z 03003KT 9999 FEW012 27/25 Q1008 RMK A2978",
        "visib": "6.2",
        "status": "updated"
    },
    {
        "icaoId": "RCQC",
        "obsTime": 1783450800,
        "rawOb": "METAR RCQC 071900Z 21001KT 9999 FEW012 28/27 Q1008 RMK A2978 AWOS R20 N/A",
        "visib": "6.2",
        "status": "updated"
    }
]