[
    {
        "icaoId": "RCTP",
        "obsTime": 1779190200,
        "rawOb": "METAR RCTP 191130Z 24006KT 9999 FEW015 SCT060 24/22 Q1009 NOSIG RMK A2981(A)",
        "visib": "6.2",
        "status": "updated"
    },
    {
        "icaoId": "RCSS",
        "obsTime": 1779190200,
        "rawOb": "METAR RCSS 191130Z VRB02KT 9999 FEW015 SCT028 BKN060 27/23 Q1009 NOSIG RMK A2980(Z)",
        "visib": "6.2",
        "status": "updated"
    },
    {
        "icaoId": "RCKH",
        "obsTime": 1779190200,
        "rawOb": "METAR RCKH 191130Z 29008KT 260V330 9999 SCT012 BKN038 27/23 Q1009 NOSIG RMK A2981(K)",
        "visib": "6.2",
        "status": "updated"
    },
    {
        "icaoId": "RCMQ",
        "obsTime": 1779190200,
        "rawOb": "METAR RCMQ 191130Z 25005KT 9999 FEW012 SCT060 25/22 Q1011 NOSIG RMK A2985",
        "visib": "6.2",
        "status": "updated"
    },
    {
        "icaoId": "RCBS",
        "obsTime": 1779190200,
        "rawOb": "METAR RCBS 191130Z 20009KT 9999 FEW020 25/25 Q1008 NOSIG RMK 21006KT/R06 A2978(V)",
        "visib": "6.2",
        "status": "updated"
    },
    {
        "icaoId": "RCNN",
        "obsTime": 1779190200,
        "rawOb": "METAR RCNN 191130Z 32003KT 9999 FEW012 SCT120 26/22 Q1010 RMK A2983",
        "visib": "6.2",
        "status": "updated"
    },
    {
        "icaoId": "RCYU",
        "obsTime": 1779190200,
        "rawOb": "METAR RCYU 191130Z 20004KT 9999 FEW012 BKN030 BKN060 26/23 Q1010 NOSIG RMK A2983",
        "visib": "6.2",
        "status": "updated"
    },
    {
        "icaoId": "RCQC",
        "obsTime": 1779190200,
        "rawOb": "METAR RCQC 191130Z 00000KT 9999 FEW010 SCT200 26/23 Q1009 NOSIG RMK A2982",
        "visib": "6.2",
        "status": "updated"
    }
]