[
    {
        "icaoId": "RCTP",
        "obsTime": 1778940000,
        "rawOb": "METAR RCTP 161400Z 06015G25KT 030V100 9999 FEW015 25/19 Q1013 NOSIG RMK A2994",
        "visib": "6",
        "status": "updated"
    },
    {
        "icaoId": "RCSS",
        "obsTime": 1778940000,
        "rawOb": "METAR RCSS 161400Z 08011KT 9999 FEW016 SCT040 24/19 Q1014 NOSIG RMK A2997",
        "visib": "6",
        "status": "updated"
    },
    {
        "icaoId": "RCKH",
        "obsTime": 1778940000,
        "rawOb": "METAR RCKH 161400Z VRB02KT 9999 FEW018 SCT180 25/22 Q1012 NOSIG RMK A2989",
        "visib": "6",
        "status": "updated"
    },
    {
        "icaoId": "RCMQ",
        "obsTime": 1778940000,
        "rawOb": "METAR RCMQ 161400Z 20005KT 9999 FEW012 BKN200 26/22 Q1013 NOSIG RMK A2991",
        "visib": "6",
        "status": "updated"
    },
    {
        "icaoId": "RCBS",
        "obsTime": 0,
        "rawOb": "",
        "visib": "",
        "status": "old_data_kept"
    },
    {
        "icaoId": "RCNN",
        "obsTime": 1778940000,
        "rawOb": "METAR RCNN 161400Z 00000KT 9999 FEW012 BKN050 24/20 Q1012 RMK A2991",
        "visib": "6",
        "status": "updated"
    },
    {
        "icaoId": "RCYU",
        "obsTime": 0,
        "rawOb": "",
        "visib": "",
        "status": "old_data_kept"
    },
    {
        "icaoId": "RCQC",
        "obsTime": 1778940000,
        "rawOb": "METAR RCQC 161400Z 36011KT 9999 FEW012 BKN200 26/23 Q1012 RMK A2989",
        "visib": "6",
        "status": "updated"
    }
]